address,latitude,longitude,car_type,zoneId,zoneName
강원 강릉시 교동 118,37.765064,128.901077,2,10008,강릉역KTX(제1주차장)
강원 원주시 단구동 1610-5,37.325233,127.956291,2,10111,원주프리미엄 아울렛(별관주차장)
강원 동해시 천곡동 831,37.523972,129.117813,2,10116,이마트 동해점
강원 강릉시 교동 216-40,37.761845,128.897614,2,10214,강릉역KTX(귀빈장 옆)
강원 춘천시 퇴계동 370-23,37.863285,127.729126,2,10376,GS칼텍스 남춘천
강원 춘천시 동내면 거두리 910,37.855701,127.750206,2,10401,GS칼텍스 거두
강원 강릉시 옥천동 305,37.762543,128.90126,2,10454,강릉역KTX(오토카써비스 앞)
강원 강릉시 교동 1814-2,37.770573,128.875671,2,10470,GS칼텍스 교동택지
강원 강릉시 강문동 139-2,37.792969,128.917755,2,10471,행운가득초당주유소
강원 강릉시 지변동 123,37.771454,128.872208,2,10484,강릉원주대 강릉캠퍼스(체육관)C
강원 속초시 교동 734-3,38.19656,128.578323,2,10539,GS칼텍스 새마을금고
강원 동해시 송정동 산24-22,37.497364,129.123413,2,10693,동해역KTX
강원 강릉시 교동 1891-6,37.763371,128.874863,2,10727,강릉 분수공원 앞
강원 강릉시 회산동 195-21,37.739925,128.867691,2,10921,강릉 화이트크로우
강원 강릉시 안현동 107-5,37.803459,128.9021,2,11025,강릉 빅토리아파크(경포대EV)
강원 양양군 양양읍 연창리 203-4,38.076092,128.627365,2,11049,양양군 노인복지관 앞
강원 홍천군 홍천읍 희망리 356-3,37.689476,127.879547,2,11090,홍천 종합버스터미널
강원 춘천시 후평동 89-2,37.881035,127.7537,2,11157,후평동 MS마트 옆
강원 원주시 반곡동 1903-2,37.32782,127.986435,2,11422,메가박스 원주센트럴점
강원 속초시 조양동 1506-1,38.189037,128.586151,2,11426,메가박스 속초점
강원 동해시 천곡동 913 코스모스호텔,37.520065,129.117126,2,11450,동해 코스모스호텔
강원 강릉시 명주동 7,37.751465,128.89357,2,11554,SC제일은행 강릉지점 뒤
강원 강릉시 홍제동 1035-3,37.757126,128.871185,2,11675,강릉소방서 앞
강원 속초시 동명동 452-5,38.208961,128.592056,2,11871,속초 더하우스호스텔
강원 강릉시 옥천동 376,37.758484,128.905914,2,11892,강릉 우정카(강릉여고 옆)
강원 강릉시 홍제동 989-8,37.755188,128.878387,2,11894,강릉터미널 앞(대한렌트카)
강원 강릉시 홍제동 992-2 고속버스터미널,37.75465,128.880676,2,11895,강릉터미널
강원 양양군 양양읍 남문리 3-23,38.075211,128.625168,2,11910,양양전통시장 앞
강원 원주시 만대공원길 8-10 (무실동),37.337063,127.928947,2,11911,원주시청 사거리
강원 원주시 단구동 121-3,37.322525,127.961433,2,11973,원주 단구사거리
강원 원주시 판부면 서곡리 1991-1,37.320869,127.942879,2,11974,남원주중학교 앞
강원 속초시 교동 835-1,38.197933,128.574951,2,11997,속초 우리홈마트
강원 속초시 교동 1024-1,38.194118,128.580597,2,12032,속초 체스터톤스호텔
강원 인제군 인제읍 상동리 80-9,38.067249,128.175583,2,12102,인제터미널
강원 강릉시 주문진읍 교항리 388-7,37.883064,128.8237,2,12146,주문진 버스종합터미널
강원 삼척시 남양동 23-5 NH농협은행 삼척시지부,37.444199,129.166199,2,12167,NH농협은행 삼척시지부
강원 원주시 단구동 1510-1 노빌리티타워,37.331615,127.947571,2,12192,동보노빌리티타워
강원 속초시 조양동 1426-6,38.189575,128.600067,2,12285,속초 고속버스터미널 삼거리
강원 동해시 동회동 101-5,37.489086,129.10701,2,12292,동해 북삼안전센터 옆
강원 강릉시 강문동 263,37.798367,128.911392,2,12347,강릉 호수광장(경포대)
강원 강릉시 옥천동 299-1,37.763062,128.901459,2,12349,강릉역KTX(중기골목)
강원 춘천시 조양동 34,37.878048,127.729179,2,12360,메가마트 춘천점
강원 삼척시 교동 742 C프라자,37.448223,129.176437,2,12383,삼척 교동타워
강원 삼척시 교동 592-2,37.449257,129.164932,2,12384,삼척시청
강원 고성군 간성읍 신안리 146-3 달홀문화센터,38.379196,128.474106,2,12439,고성 달홀문화센터
강원 강릉시 교동 118-21,37.762318,128.897598,2,12471,강릉역KTX 앞
강원 홍천군 홍천읍 갈마곡리 236-26,37.694099,127.899384,2,12576,홍천 킹마트 뒤
강원 춘천시 우두동 269-6,37.905617,127.742226,2,12643,춘천 농업회사법인 밭
강원 원주시 개운동 216-13,37.338055,127.964287,2,12667,입춘어린이공원 옆
강원 강릉시 송정동 1008-7,37.771336,128.922775,2,12723,이마트 강릉점
강원 춘천시 온의동 511 이마트,37.86367,127.718567,2,12724,이마트 춘천점
강원 양양읍 송암리 29-8,38.085075,128.630722,2,12808,양양 종합여객터미널
강원 춘천시 온의동 516,37.862667,127.720184,2,1555,춘천터미널
강원 강릉시 교동 1734-6,37.757156,128.880844,2,2324,강릉터미널 앞
강원 원주시 개운동 118-2,37.341419,127.955574,2,2416,롯데슈퍼 원주점
강원 춘천시 석사동 27,37.866978,127.75869,2,2484,롯데마트 석사점
강원 춘천시 퇴계동 1160-5,37.867081,127.72274,2,2562,롯데하이마트 남춘천점
강원 원주시 단계동 878-1,37.345043,127.932266,2,2578,원주고속버스터미널 앞
강원 강릉시 내곡동 422-10,37.741722,128.881119,2,7293,강릉 하나로마트
강원 강릉시 교1동 949-28,37.755417,128.882233,2,7829,롯데렌탈 강릉영업소(B)
강원 강릉시 포남동 856-1,37.763809,128.902191,2,8057,GS칼텍스 월드컵(강릉)
강원 원주시 단구동 1463-9,37.329735,127.951569,2,8107,GS칼텍스 구곡
강원 춘천시 석사동 878-4,37.85183,127.743828,2,8146,춘천안디옥교회(석사유료주차장)
강원 강릉시 교동 1833-1,37.767605,128.877426,2,8260,강릉원주대 강릉캠퍼스 앞
강원 원주시 흥업면 매지리 1875,37.27779,127.903999,2,8289,연세대 스포츠센터C
강원 원주시 흥업면 흥업리 991-34,37.304314,127.911636,2,8412,한라대학교C
강원 춘천시 후평3동 426-23,37.881779,127.750076,2,8678,춘천 강원소독
강원 속초시 교동 895-1,38.192974,128.572144,2,8679,롯데렌탈 속초영업소
강원 원주시 무실동 1726-6,37.33913,127.925873,2,8745,롯데렌탈 원주지점(B)
강원 춘천시 퇴계동 381-1,37.860527,127.728836,2,8819,롯데슈퍼 G춘천점
강원 강릉시 임당동 105-3,37.75563,128.896484,2,9026,강릉 구한전주차장
강원 원주시 우산동 242-3,37.366516,127.935715,2,9190,상지대사거리(그린기능장카서비스)
강원 원주시 일산동 89-1,37.348309,127.948494,2,9250,원주세브란스병원 앞
강원 춘천시 동면 장학리 1007,37.893127,127.755089,2,9262,한림성심대 앞(장학주차장)
강원 강릉시 포남동 1294-1,37.77198,128.912323,2,9292,강릉 포남유료주차장
강원 강릉시 임당동 141-1,37.753933,128.894196,2,9334,강릉 객사문사거리
강원 강릉시 교동 137-1,37.761692,128.89946,2,9481,강릉역KTX(강릉육거리)
강원 강릉시 지변동 123,37.771244,128.869598,2,9548,강릉원주대 강릉캠퍼스(공대2호관)C
강원 강릉시 지변동 123,37.76902,128.87323,2,9550,강릉원주대 강릉캠퍼스(인문대&사과대)C
강원 강릉시 교동 108,37.763344,128.899384,2,9647,강릉역KTX(제2주차장)
강원 원주시 단계동 852,37.345631,127.932266,2,9799,원주고속버스터미널(타임시티)
강원 춘천시 근화동 552-1,37.883701,127.716812,2,9915,춘천역 1번출구
경기 부천시 소사구 옥길동 715-6,37.468605,126.820572,2,10007,부천 옥길주차타워
경기 남양주시 화도읍 마석우리 339-13,37.653187,127.302238,2,10019,송라초등학교 앞
경기 고양시 일산동구 중산동 1812,37.674702,126.786552,2,10020,풍산역 2번출구
경기 안산시 상록구 사동 1271,37.293018,126.836098,2,10029,한양대학교 행복관C
경기 안산시 상록구 본오동 880,37.296577,126.861122,2,10031,롯데마트 상록점
경기 부천시 소사본동 395-7,37.482521,126.794785,2,10039,소사역 1번출구
경기 평택시 서정동 343-9 중앙동 제1공영주차장,37.055065,127.055283,2,10045,서정리역 앞(중앙동제1공영주차장)
"경기 수원시 영통구 이의동 1332 광교C1 호반베르디움, Summit Place광교",37.290565,127.050247,2,10075,롯데마트 광교점(아브뉴프랑 광교점)
경기 안성시 공도읍 만정리 815-1,37.000038,127.169571,2,10114,안성 공도1번가
경기 용인시 기흥구 중동 833 쥬네브,37.278519,127.152176,2,10128,이마트 동백점
경기 이천시 부발읍 아미리 505-7 부발역,37.259499,127.489525,2,10136,부발역 1번출구(경강선)
경기 이천시 창전동 470-27,37.277847,127.448631,2,10167,이천종합버스터미널 앞
경기 부천시 심곡본동 561-4,37.483402,126.775917,2,10209,부천 심곡고가사거리
경기 의왕시 오전동 111-1,37.358528,126.966263,2,10237,의왕 모락로사거리
경기 안산시 상록구 성포동 593,37.327549,126.844055,2,10252,성포안산농협 뒤
경기 의정부시 의정부동 494 센트럴타워,37.738033,127.043587,2,10273,의정부역 2번출구
경기 의정부시 민락동 801 해동 lll(쓰리) 타워,37.743458,127.096359,2,10275,민락초등학교 뒤
경기 성남시 중원구 성남동 3499 니즈몰,37.431389,127.129768,2,10278,모란역 4번출구(CGV성남모란)
경기 하남시 망월동 978,37.568409,127.185898,2,10288,미사2동 행복복지센터 뒤
경기 안양시 동안구 관양동 1725-1,37.405704,126.971497,2,10290,인덕원 동편마을사거리
경기 김포시 구래동 6879-6,37.645233,126.623024,2,10303,구래동 행정복지센터 앞(엔케이리움힐)
경기 시흥시 능곡동 741,37.368965,126.810661,2,10304,시흥능곡역 2번출구(태영프라자)
경기 수원시 권선구 금곡동 1118-1 세종타운721,37.273705,126.953377,2,10305,금곡동 행정복지센터 옆(세종타운)
경기 시흥시 능곡동 752,37.368343,126.810371,2,10306,시흥능곡역 2번출구(효창프라자)
경기 안산시 단원구 초지동 740-2,37.304348,126.816231,2,10307,안산 별망초교사거리
경기 평택시 포승읍 도곡리 1118-6,36.989094,126.842705,2,10311,여술근린공원 앞
경기 고양시 덕양구 화정동 1147 글로벌테마프라자,37.627636,126.829788,2,10338,고양경찰서 옆
경기 여주시 홍문동 274-6 여주종합터미널,37.289967,127.635483,2,10339,여주종합터미널
경기 남양주시 평내동 588 GS뉴평내주유소,37.647808,127.235428,2,10341,GS칼텍스 뉴평내
경기 부천시 송내동 371-2,37.485874,126.765839,2,10348,중동역 1번출구
경기 부천시 원미구 중동 788,37.488674,126.770737,2,10352,부천 시민회관삼거리
경기 부천시 원미구 상동 236-21,37.492256,126.764885,2,10353,부천 상지초등학교 앞
경기 부천시 원미구 상동 465,37.488274,126.751724,2,10355,송내역 2번출구(서촌공원)
경기 부천시 원미구 상동 407,37.490841,126.751724,2,10358,송내역 2번출구(로데오)
경기 부천시 송내동 280-11,37.485779,126.753212,2,10359,송내남부역 공영주차장
경기 부천시 심곡본동 557,37.483337,126.78537,2,10361,부천역 1번출구
경기 부천시 원미구 중동 1121,37.494995,126.777191,2,10363,부천소방서 사거리
경기 부천시 원미구 원미동 127-5,37.492168,126.787308,2,10364,원미부흥시장
경기 광주시 역동 176-13 경기광주역사,37.399456,127.251968,2,10374,경기광주역(경강선) 1번출구
경기 부천시 원미구 중동 1151,37.50209,126.76931,2,10375,부천 중동 로데오거리
경기 수원시 권선구 세류동 92-20,37.263283,127.011078,2,10377,GS칼텍스 인성
경기 부천시 원미구 상동 559-5,37.500488,126.75486,2,10378,상동 행정복지센터 옆
경기 부천시 원미구 중동 1159-4,37.502747,126.764313,2,10383,부천시청역 1번출구
경기 부천시 원미구 소사동 32,37.484909,126.796967,2,10384,소사역 7번출구
경기 부천시 소사본동 77-5,37.479252,126.793571,2,10386,소사종합시장 공영주차장
경기 성남시 분당구 정자동 8-1,37.372154,127.106323,2,10392,GS칼텍스 백궁
경기 부천시 소사본동 157,37.476536,126.799202,2,10393,소사초등학교 앞
경기 부천시 소사본동179-1,37.473804,126.794342,2,10397,소사초등학교 옆
경기 수원시 팔달구 인계동 452-42 인계동 주유소,37.267227,127.032967,2,10400,GS칼텍스 인계동
경기 수원시 영통구 매탄동 825-13 매탄동주유소,37.263874,127.050041,2,10410,GS칼텍스 매탄동
경기 용인시 기흥구 중동 838 동백문월드,37.275909,127.151474,2,10420,동백호수공원(쥬네브문월드)
경기 남양주시 다산동 6087-3,37.623108,127.152496,2,10438,다산퍼스트타워
경기 고양시 일산서구 일산동 1060 뉴시티프라자,37.678818,126.76442,2,10442,일산 후곡마을사거리
경기 안양시 만안구 안양동 622-70,37.395237,126.926788,2,10443,안양우체국 사거리
경기 고양시 일산동구 장항동 759-1 삼라 마이다스빌,37.660744,126.767326,2,10465,정발산역 2번출구(삼라마이다스2차)
경기 남양주시 와부읍 덕소리 469-1,37.586506,127.211258,2,10474,덕소역 1번출구 앞
경기 안산시 단원구 선부동 1085,37.341171,126.814705,2,10478,안산 한양스파랜드
경기 의왕시 삼동 191 의왕역,37.320534,126.948906,2,10496,의왕역 2번출구
경기 양주시 덕정동 346-2,37.841232,127.061813,2,10498,덕정삼거리
경기 성남시 수정구 복정동 산42 동서울대학,37.459274,127.127296,2,10499,동서울대학교C
경기 양주시 옥정동 1057-9,37.81649,127.098717,2,10509,양주 제이드웰아파트 앞
경기 남양주시 진접읍 금곡리 1022,37.721043,127.202232,2,10512,진접 종점프라자
경기 이천시 안흥동 408-1,37.275467,127.450775,2,10527,이천 미란다호텔
경기 오산시 원동 300-8 시네아울렛,37.142262,127.073898,2,10577,롯데시네마 오산원동점
경기 광명시 광명동 200-6,37.477028,126.853073,2,10580,광명사거리역 4번출구
경기 고양시 덕양구 성사동 410-7 원당역,37.652599,126.842789,2,10586,원당역 3번출구
경기 시흥시 대야동 494,37.444344,126.785477,2,10594,시흥시 대야파출소 옆
경기 안산시 상록구 본오동 874,37.302055,126.863792,2,10595,상록수역 3번출구
경기 수원시 영통구 이의동 1240,37.296436,127.048302,2,10598,이마트 광교점
경기 안산시 단원구 초지동 742-4,37.302334,126.813553,2,10599,이마트 고잔점
경기 고양시 일산동구 중산동 1836-3,37.677624,126.782204,2,10622,모당초등학교 앞
경기 하남시 망월동 1093-1 미사푸르지오시티 A동,37.565842,127.191216,2,10624,미사 푸르지오시티
경기 김포시 고촌읍 신곡리 532-87,37.600197,126.772446,2,10650,김포 신곡사거리
경기 김포시 북변동 758,37.628414,126.702667,2,10651,김포 서초등학교 앞
경기 김포시 사우동 1044,37.622135,126.714478,2,10652,김포 돌문마을사거리
경기 안산시 상록구 월피동 490-3,37.336338,126.84623,2,10658,광덕중학교 앞
경기 파주시 금촌동 329-5 금촌빌라,37.765263,126.775169,2,10668,금촌역 앞
경기 의정부시 호원동 454-14,37.712055,127.046974,2,10679,망월사역 2번출구(나이스파킹)
경기 파주시 동패동1912,37.710369,126.738144,2,10686,운정 카페거리
경기 고양시 일산동구 백석동 1332-1 레이크하임,37.643719,126.786491,2,10688,백석역 4번출구(레이크하임오피스텔)
경기 성남시 수정구 양지동 535 양지주차장,37.457352,127.163063,2,10692,남한산성입구역(을지대학교)
경기 남양주시 금곡동 416-1 금곡프라자,37.6343,127.20771,2,10728,남양주 금곡사거리
경기 화성시 능동 1152-1 위너스프라자,37.200039,127.056229,2,10739,동탄 푸른마을
"경기 수원시 권선구 권선동 1189 터미널동, 할인점동",37.251003,127.019897,2,10751,수원버스터미널
경기 화성시 봉담읍 동화리 426-2,37.221214,126.951477,2,10760,화성 국민체육센터 앞
경기 평택시 신장동 298-57,37.079399,127.050186,2,10761,평택 프로방스레지던스
경기 고양시 덕양구 성사동 505 원당농협 성사지점,37.657223,126.838623,2,10770,원당농협 성사지점
경기 고양시 덕양구 삼송동 291 힐스테이트 삼송역,37.652561,126.896614,2,10820,힐스테이트 삼송역
경기 의왕시 고천동 234-6 의왕월드비젼,37.345348,126.974991,2,10824,의왕 월드비전
경기 부천시 원미구 상동 536-8,37.506828,126.755058,2,10859,상동역 7번출구
경기 시흥시 은행동 533,37.44421,126.798668,2,10896,시흥시 청소년수련관 앞
경기 용인시 기흥구 신갈동 63 기흥역롯데캐슬스카이,37.272121,127.108635,2,10908,롯데캐슬스카이
경기 평택시 비전동 1013-1 우리타워,37.003628,127.105354,2,10911,평택 경기마트
경기 화성시 남양읍 남양리 2076-11,37.200962,126.828224,2,10929,화성시청 옆
경기 연천군 전곡읍 전곡리 484-16,38.025707,127.067314,2,10946,전곡시외버스터미널 옆
경기 용인시 기흥구 구갈동 660 힐스테이트 기흥,37.274387,127.116707,2,10967,기흥역 4번출구
경기 김포시 풍무동 126-3,37.604767,126.72374,2,10977,풍무초등학교 옆
경기 화성시 영천동 680,37.206657,127.109688,2,10984,동탄 에이스케이씨티
경기 수원시 권선구 탑동 5-4 현대탑월드,37.275349,126.977448,2,10985,구운중학교 앞
경기 시흥시 은행동 606,37.446606,126.802605,2,10986,시흥 은계알파시티
경기 수원시 장안구 정자동 875 선일주차타운빌딩,37.296398,126.994736,2,10995,수원소방서 앞
경기 포천시 신읍동 84-6 리버빌,37.891399,127.195778,2,10997,포천 리버빌
경기 오산시 원동 335-10,37.141876,127.071281,2,10998,원동 르마레시티
경기 군포시 부곡동 1218-3 드림시티,37.336555,126.934906,2,11006,군포 드림시티
경기 포천시 신읍동 202-1,37.900524,127.205795,2,11007,GS슈퍼마켓 포천점
경기 안산시 단원구 고잔동 167-378,37.316086,126.839432,2,11027,중앙역 1번출구
경기 고양시 일산서구 덕이동 273-1,37.694157,126.760208,2,11036,탄현역 1번출구
경기 광명시 소하동 1313-4,37.449383,126.889503,2,11047,광명 타요키즈카페
경기 시흥시 정왕동 1854-1,37.352421,126.722015,2,11058,시흥 천마주차장
경기 시흥시 배곧동 223-1,37.367859,126.726593,2,11060,배곧 다인오피스텔9차
경기 의정부시 가능동 668-7,37.747032,127.035103,2,11062,의정부 가능초등학교 뒤
경기 구리시 갈매동 603,37.632523,127.116493,2,11063,갈매 중앙파크타워
경기 부천시 오정구 원종동 133-9,37.527138,126.803658,2,11065,원종고등학교 앞
경기 안양시 동안구 호계동 975-1,37.36631,126.95771,2,11070,안양 호계삼거리
경기 안산시 단원구 신길동 1631,37.330658,126.786186,2,11071,안산 이마트트레이더스 옆
경기 부천시 소사구 옥길동 777-4,37.462158,126.812698,2,11081,부천 옥길지구 서영아너시티
경기 부천시 오정구 고강동 319-6,37.528366,126.815475,2,11118,고강사거리
경기 안성시 아양동 278-5,37.006756,127.265305,2,11119,안성 내혜홀초등학교 뒤
경기 수원시 영통구 망포동 31-1,37.245861,127.052025,2,11132,유니클로 수원망포점
경기 용인시 기흥구 구갈동 657 기흥역 롯데캐슬 레이시티/주상복합,37.274548,127.115051,2,11133,기흥 롯데캐슬레이시티
경기 광명시 소하동 1384,37.432087,126.877922,2,11156,광명동굴 제3공영주차장
경기 용인시 처인구 역북동 757,37.231056,127.187233,2,11159,이마트 용인점 옆
경기 용인시 기흥구 마북동 325-3 구성농협,37.294193,127.114082,2,11165,구성 하나로마트
경기 수원시 권선구 호매실동 1400-1,37.259136,126.962715,2,11181,수원 호매실능실마을
경기 파주시 금촌동 329-40,37.766907,126.776497,2,11182,금촌역 2번출구
경기 동두천시 지행동 721-2 지행역프라자,37.89196,127.05468,2,11183,지행역 1번출구
경기 수원시 팔달구 인계동 1115-6,37.264622,127.035217,2,11201,효원공원 옆
경기 용인시 처인구 마평동 625-6,37.234425,127.212715,2,11202,용인 제일교회사거리
경기 수원시 권선구 곡반정동 103-1,37.245087,127.035492,2,11206,수원 곡반정중학교 앞
경기 하남시 신장동 612,37.543571,127.223671,2,11211,하남 주렁주렁
경기 수원시 권선구 탑동 848 해피타운,37.270729,126.97551,2,11218,수원 탑동중앙사거리
경기 김포시 풍무동 202-1,37.606842,126.72348,2,11221,김포 풍무사거리
경기 수원시 영통구 영통동 961-4,37.255512,127.073441,2,11225,영통역 8번출구
경기 용인시 기흥구 서천동 811,37.236393,127.073029,2,11227,용인 세인트힐타워
경기 수원시 장안구 정자동 75-18,37.289993,127.000397,2,11229,수원 정자시장
경기 화성시 산척동 717-5,37.170635,127.107315,2,11234,동탄 레이크파로스
경기 용인시 수지구 풍덕천동 709-6,37.325058,127.096611,2,11236,용인 수지주차장
경기 수원시 권선구 금곡동 1115-4,37.275146,126.954788,2,11237,호매실 딜라이트타워2
경기 화성시 봉담읍 와우리 26-12 태천센타,37.213985,126.974312,2,11238,화성 태천프라자
경기 수원시 권선구 오목천동 558-3 한양빌딩,37.239841,126.967819,2,11239,오목초등학교 옆
경기 광명시 하안동 38 뉴코아아울렛,37.461117,126.87941,2,11242,뉴코아아울렛 광명점
경기 고양시 일산동구 마두동 803 뉴삼창마트주차타워,37.651302,126.779213,2,11259,마두역 8번출구
경기 김포시 구래동 6879-3,37.645435,126.624451,2,11260,구래역 1번출구
경기 광주시 경안동 58-11,37.41066,127.258286,2,11261,경안동 행정복지센터 앞
경기 안양시 동안구 평촌동 916,37.383785,126.961517,2,11262,안양 귀인중학교 앞
경기 동두천시 생연동 726-3 동두천중앙역,37.900982,127.05648,2,11275,동두천중앙역 4번출구
경기 화성시 산척동 724-4,37.169468,127.118301,2,11281,화성 정현초등학교 앞
경기 수원시 영통구 반달로 35번길 30 (영통동),37.251785,127.077454,2,11282,영통역 아이파크오피스텔
경기 수원시 팔달구 인계동 1040-4,37.265411,127.031662,2,11283,수원시청 뒤(현진빌딩)
경기 평택시 팽성읍 안정순환로104번길 35,36.959427,127.0457,2,11285,평택 파라디아오피스텔
경기 양주시 덕계동 467,37.82156,127.046005,2,11286,덕계 근린공원
경기 남양주시 평내동 140 리치플러스,37.65033,127.243141,2,11288,평내동 리치플러스
경기 안산시 단원구 선부동 1077-16,37.332836,126.811111,2,11309,선부광장(원영크레온 오피스텔)
경기 안산시 단원구 고잔동 716-6 MK,37.308697,126.827858,2,11325,안산MK주차타워
경기 수원시 권선구 권선동 1015-8,37.259014,127.030243,2,11335,수원시청역 3번출구(동수원주차장)
경기 하남시 망월동 1114 이화미사타워,37.561348,127.19239,2,11348,미사 이화주차타워
경기 광명시 광명동 156-9,37.479156,126.857742,2,11349,광명사거리역 10번출구
경기 김포시 마산동 675-7,37.636745,126.644646,2,11352,김포 마산파출소 옆
경기 용인시 처인구 포곡읍 전대리 546-57,37.282833,127.221275,2,11357,에버랜드역 1번출구 옆
경기 고양시 덕양구 성사동 552-1,37.661911,126.842918,2,11360,고양 생활체육공원
경기 양주시 옥정동 943 양주옥정3단지,37.835869,127.088165,2,11367,CU 양주행복점
경기 포천시 신읍동 161-7,37.900879,127.200653,2,11369,CU 포천보건소점
경기 포천시 소흘읍 송우리 729-11 고운마을주공아파트,37.827419,127.141251,2,11370,CU 송우고운점
경기 구리시 인창동 208-39,37.60421,127.145622,2,11377,구리 6공영노외주차장
경기 안산시 단원구 고잔동 526-3,37.317631,126.829422,2,11379,CU 안산그랑베르점
경기 구리시 인창동 676-7 다우스퀘어,37.602581,127.142799,2,11386,구리역공원 옆
경기 파주시 와동동 1304-2,37.730118,126.752342,2,11391,운정 임시공영주차장
경기 하남시 망월동 1098-1 에코브리지2,37.563206,127.189781,2,11397,미사 에코브리지2
경기 안양시 만안구 안양동 674-151,37.398178,126.923729,2,11398,안양 1번가
경기 파주시 와동동 1408,37.719757,126.749313,2,11404,운정 호수공원
경기 파주시 동패동 1892,37.711502,126.739189,2,11405,운정 카페거리 옆
경기 용인시 처인구 역북동 597,37.228745,127.188354,2,11407,용인상공회의소
경기 용인시 수지구 죽전동 551-1,37.331039,127.112099,2,11418,이마트에브리데이 죽전
경기 용인시 기흥구 마북동 523-1,37.299309,127.107765,2,11419,구성농협 구성역지점
경기 성남시 분당구 백현동 535 그레이츠 판교(GREITS PANGYO),37.394279,127.112129,2,11428,그레이츠 판교
경기 평택시 지제동 559-4,37.01852,127.071205,2,11433,지제역 1번출구
경기 부천시 내동 12-7 향신채,37.51963,126.77491,2,11434,부천 내동사거리
경기 남양주시 다산동 6184,37.612572,127.168663,2,11436,정약용도서관 옆
경기 군포시 부곡동 1119,37.325035,126.944458,2,11445,거성 아우룸팰리스
경기 오산시 금암동 500-3,37.175728,127.050781,2,11446,W파크타워
경기 수원시 팔달구 인계동 1043-9 신흥빌딩,37.263897,127.031319,2,11449,수원시청역 8번출구(신흥빌딩)
경기 포천시 신읍동 201-5,37.899239,127.204689,2,11451,포천우체국 옆
경기 연천군 전곡읍 은대리 573 전곡읍행정복지센터,38.027306,127.064934,2,11464,은대공원 옆 공영주차장
경기 시흥시 정왕동 2303-2,37.352314,126.739784,2,11465,정왕역(스카이드림씨티)
경기 수원시 장안구 조원동 893 아울렛쇼핑타운,37.30352,127.0075,2,11466,북수원 패션아울렛
경기 고양시 덕양구 행신동 762-2 행신 로터스 플레이스,37.613396,126.834579,2,11470,CGV 고양행신
경기 파주시 목동동 945,37.728085,126.734177,2,11474,산들초등학교 옆
경기 김포시 장기동 2039-2 프레즌스빌딩,37.639275,126.674713,2,11475,가현초등학교 앞
"경기 고양시 덕양구 통일로 760 (관산동, 더퍼스트프라임)",37.68792,126.866127,2,11476,고양 더퍼스트프라임아파트
경기 안양시 동안구 관양동 1722-2,37.40583,126.972969,2,11480,인덕원역 파크에비뉴
경기 고양시 덕양구 토당로 110 (토당동),37.624683,126.818024,2,11491,GS슈퍼마켓 능곡점
경기 화성시 반송동 40 패밀리타운,37.20937,127.062866,2,11497,동탄 패밀리타워
경기 화성시 오산동 1088-1,37.203197,127.096718,2,11508,동탄 푸르지오시티
경기 파주시 금촌동 956-5 대하빌딩,37.755753,126.773201,2,11511,금촌 대하프라자
경기 남양주시 평내동 200-4,37.649952,127.237999,2,11516,다이소 CM타워점
경기 화성시 반송동 86-7 오피스타워,37.206795,127.074402,2,11529,동탄 오피스타워
경기 구리시 수택동 429-3,37.596943,127.13813,2,11533,구리시립체육공원 옆
경기 시흥시 대야동 568-1,37.446873,126.791679,2,11555,CGV 시흥점
경기 고양시 덕양구 삼송동 293 삼송역 현대 헤리엇,37.653023,126.898903,2,11557,삼송역 현대헤리엇 아파트
경기 수원시 장안구 정자동 436-6,37.305882,126.991692,2,11561,수원 효자문사거리
경기 오산시 수청동 621-1,37.168938,127.065521,2,11567,오산대역 1번출구
경기 남양주시 다산동 6055-2 Y PARK 타워,37.625614,127.154465,2,11572,다이소 다산신도시점
경기 의정부시 용현동 10-12,37.737862,127.086128,2,11585,송산역 1번출구
경기 오산시 오산동 603-18,37.148037,127.067863,2,11588,오산역 1번출구
경기 파주시 문산읍 당동리 892 와우시티에이동,37.866608,126.784157,2,11590,CGV 파주문산점
경기 수원시 팔달구 매산로1가 16,37.26799,127.001366,2,11596,수원역 로데오거리
경기 성남시 분당구 서현동 298-3,37.376919,127.133484,2,11608,분당 효자촌프라자
경기 가평군 청평면 청평리 465-5,37.738136,127.419678,2,11612,청평터미널
경기 여주시 여흥로128번길 13-10 (홍문동),37.294167,127.637375,2,11619,여주시민회관 앞
경기 의정부시 의정부동 501-1,37.737358,127.04361,2,11621,경전철의정부역 2번출구(웨딩팰리스주차장)
경기 군포시 산본동 1146,37.360558,126.928368,2,11645,한숲스포츠센터
경기 광주시 장지동 43-3,37.396301,127.244652,2,11646,장지2동마을회관 옆
경기 평택시 평택동 185-288,36.989983,127.087173,2,11648,평택역 1번출구
경기 남양주시 화도읍 먹갓로28번길 29,37.657047,127.278053,2,11663,천마중학교 앞
경기 고양시 일산동구 식사동 1586 더파인테라스,37.674191,126.807785,2,11664,일산 더파인테라스
경기 안산시 상록구 사동 1271,37.299572,126.834183,2,11668,한양대학교 학군단 앞
경기 평택시 동삭동 371-1,37.020351,127.094048,2,11679,평택 센트럴파크
경기 안양시 동안구 관양동 1607,37.393204,126.963249,2,11714,평촌역 사우나파크
경기 광명시 일직동 171-1 광명역복합터미널,37.419205,126.886948,2,11717,광명역C 환승주차장
경기 고양시 덕양구 성사동 331-6,37.652912,126.845337,2,11721,원당역 1번출구
경기 파주시 야당동 1085,37.715778,126.76136,2,11770,야당역 2번출구
경기 하남시 망월동 1148,37.564045,127.198578,2,11773,하남 롯데캐슬헤븐시티 2차
경기 안산시 상록구 사동 1586-1,37.298267,126.848061,2,11779,평생학습관 주차장
경기 하남시 망월동 1129-1,37.563095,127.194313,2,11780,미사 남송타워
경기 남양주시 별내동 825,37.665985,127.118523,2,11790,별내 에스지타워
경기 성남시 분당구 정자동 163,37.362915,127.105713,2,11793,정자동사거리 앞
경기 오산시 궐동 693-2,37.157547,127.055054,2,11803,케이마트 오산점
경기 안산시 상록구 사동 206-1,37.29303,126.858009,2,11804,사리역 공영주차장
경기 광주시 경안동 12-13,37.412003,127.259811,2,11809,경기광주 황금스파랜드
경기 광주시 탄벌동 32-2,37.417461,127.252327,2,11813,경기광주 공설운동장 옆
경기 성남시 수정구 창곡동 562-2,37.464882,127.139931,2,11838,남위례역 옆
경기 평택시 신장동 323-19,37.081509,127.052681,2,11848,신장쇼핑몰 제1공영주차장
경기 양주시 옥정동 966-5,37.819237,127.093452,2,11859,양주 폴리타워
경기 남양주시 화도읍 마석우리 92-4,37.651848,127.313011,2,11860,마석 센트럴 153타워
경기 구리시 교문동 361-1,37.597305,127.130592,2,11870,STCO 구리상설점
경기 용인시 수지구 상현동 1125,37.299587,127.0728,2,11874,용인 상현3동 행정복지센터
경기 용인시 수지구 성복동 748,37.314831,127.080292,2,11887,성복역 5번출구
경기 성남시 수정구 신흥동 42,37.44976,127.144966,2,11890,성남 수정구청 옆
경기 안산시 상록구 월피동 508-10,37.334709,126.845665,2,11905,안산골든프라자 오피스텔
경기 시흥시 능곡동 724,37.368496,126.8097,2,11914,시흥능곡역 2번출구(베스트프라자)
경기 용인시 처인구 역북동 370-3,37.237309,127.179939,2,11934,용인시청 앞
경기 파주시 금촌동 251-5,37.756336,126.772217,2,11961,금촌동 그린프라자
경기 안성시 석정동 139-1,37.012032,127.257324,2,11962,CGV 안성점
경기 성남시 수정구 복정동 620-2,37.449127,127.12751,2,11969,가천대역 1번출구
경기 안성시 대덕면 내리 141-33,37.000843,127.225861,2,11995,안성 중앙대학교 앞
경기 군포시 금정동 765,37.36084,126.946526,2,12006,군포 두현타워
경기 용인시 처인구 모현읍 능원리 25-3,37.341782,127.176071,2,12023,용인 능원초교사거리
경기 의정부시 의정부동 247-4,37.743633,127.042023,2,12025,의정부경찰서 옆
경기 여주시 점봉동 429-183,37.265316,127.640114,2,12027,여주대학교 앞
경기 평택시 안중읍 현화리 172-3,36.976826,126.923721,2,12028,안중 버스터미널 앞
경기 화성시 향남읍 하길리 1466,37.116642,126.912064,2,12033,향남 플러스타워
경기 안산시 단원구 고잔동 539-4,37.318531,126.839256,2,12037,롯데시네마 센트럴락점 옆
경기 용인시 기흥구 상갈동 122-27,37.267723,127.107986,2,12040,경기도박물관
경기 부천시 중동 1161 디아뜨 2,37.502556,126.761269,2,12054,부천시청역 3번출구(디아뜨갤러리 2차 A동)
경기 평택시 비전동 629-1 비전공영주차장,36.997147,127.088562,2,12056,평택 비전공영주차장
경기 평택시 합정동 973-9,36.987869,127.114067,2,12057,평택 배미공영주차장
경기 평택시 팽성읍 안정리 212 팽성 제1공영주차장,36.957287,127.046135,2,12064,평택 팽성제1공영주차장
경기 평택시 평택동 185-245,36.990208,127.087715,2,12066,평택버스터미널
경기 고양시 일산동구 장항동 750 삼성스위트II,37.661713,126.764961,2,12067,일산호수공원 앞
경기 양주시 덕계동 209-5 덕계역,37.81818,127.056206,2,12068,덕계역 1번출구
경기 의왕시 삼동 166-24,37.319218,126.950462,2,12073,부곡도깨비시장 공영주차장
경기 이천시 창전동 462-21,37.280331,127.448448,2,12078,이천 분수대오거리
경기 용인시 기흥구 중동 852-3 브릭스타워,37.270092,127.153175,2,12079,동백역 1번출구
경기 평택시 지산동 694-1,37.076706,127.061104,2,12182,지산초등학교 뒤
경기 오산시 원동 535,37.136349,127.079399,2,12247,오산 LG연수원 앞(수본)
경기 여주시 오학동 295-5,37.308365,127.643875,2,12255,여주 오학동공영주차장
경기 화성시 오산동 967-157,37.200516,127.098038,2,12282,롯데백화점 동탄점
경기 성남시 분당구 서현동 256 비전월드,37.387352,127.122772,2,123,서현역 5번출구(비전월드)
경기 고양시 덕양구 토당동 454-3,37.619904,126.820335,2,12326,능곡역 1번출구
경기 안성시 옥산동 592 폴리프라자,37.007568,127.25943,2,12329,안성 폴리프라자
경기 연천군 전곡읍 은대리 566,38.028297,127.066353,2,12332,롯데슈퍼 전곡점
경기 이천시 장호원읍 장호원리 43-1,37.117031,127.632072,2,12339,이천 장호원교
경기 안성시 죽산면 죽산리 506-7,37.074574,127.424011,2,12340,동안성시민복지센터
경기 시흥시 배곧동 217,37.368816,126.727089,2,12341,배곧광장 공영주차장
경기 광명시 광명동 158-886,37.479469,126.851891,2,12359,광명사거리역 5번출구
경기 김포시 구래동 6882-8,37.643524,126.623497,2,12368,김포 맥스타워
경기 오산시 수청동 608-8,37.170795,127.061119,2,12378,오산대역 2번출구(포트센트럴시티)
경기 의왕시 포일동 663,37.396603,126.984528,2,12438,의왕 물빛근린공원 옆
경기 화성시 오산동 982-2,37.197479,127.090523,2,12449,우평라비엔파크
경기 화성시 봉담읍 동화길 81-16,37.21748,126.959114,2,12451,봉담 하나로마트
경기 화성시 병점동 376-11,37.205818,127.036247,2,12452,화성 써밋프라움
경기 구리시 수택동 379-12 우남퍼스트빌스위트,37.597504,127.138687,2,12467,우남퍼스트빌스위트
경기 수원시 장안구 율전동 435,37.297428,126.970772,2,12468,성균관대역(율전공영주차장)(L)
경기 수원시 장안구 천천동 585,37.291172,126.97467,2,12519,수원 성균관대학교 정문
경기 화성시 장지동 924 동탄 호수공원 리슈빌,37.164539,127.105171,2,12522,동탄호수공원 리슈빌
경기 수원시 팔달구 고등동 201-16,37.273201,126.99865,2,12534,수원 푸르지오 더스마트
경기 파주시 와동동 1386,37.727459,126.759293,2,12537,파주 운정동우체국 뒤
경기 파주시 와동동 1303-4 메디스타워,37.731346,126.75206,2,12541,파주 메디스타워
경기 고양시 일산서구 대화동 2199,37.674984,126.750854,2,12572,롯데렌탈 일산지점(B)
경기 안양시 만안구 안양동 40-7,37.412804,126.917862,2,12579,안양 CS스포츠
경기 의정부시 가능동 628,37.751434,127.0392,2,12590,가능1동 입체주차장(L)
경기 김포시 사우동 926 사우자주식공영주차장,37.618999,126.719749,2,12602,사우역 3번출구(L)
경기 김포시 사우동 883,37.62257,126.722092,2,12603,사우중앙 주차장(L)
경기 오산시 원동 771-1,37.144676,127.072205,2,12609,오산 영무파라드아파트
경기 김포시 장기동 1521,37.643456,126.672913,2,12611,장기3 주차장(L)
경기 군포시 부곡동 1131-3,37.322124,126.943153,2,12616,의왕역 1번출구
경기 용인시 수지구 죽전동 1341 승은프라자,37.325474,127.125359,2,12617,용인 비발디공원 옆
경기 화성시 석우동 31-3,37.217648,127.078362,2,12624,삼성반도체사거리 옆
경기 성남시 분당구 수내동 21-1 MS프라자,37.378063,127.112434,2,12629,수내역 3번출구
경기 성남시 분당구 서현동 89 서현파크플라자,37.383091,127.125488,2,12648,서현역 2번출구
경기 부천시 신흥로 223(중동),37.5042,126.775322,2,12664,신중동역 5번출구
경기 부천시 소사구 심곡본동 671-1,37.482731,126.781258,2,12672,부천역 2번출구
경기 성남시 분당구 서현동 254-1 미래에셋플레이스,37.388012,127.12326,2,12673,"서현역 5번출구(서현미래에셋플레이스

)"
경기 고양시 덕양구 지축동 421 위스테이지축,37.656506,126.922142,2,12685,위스테이지축 아파트
경기 고양시 덕양구 원흥동 621,37.650887,126.869781,2,12714,원흥초등학교 옆
경기 부천시 소사구 괴안동 167-10,37.484802,126.816124,2,12728,역곡 푸르내아파트
경기 평택시 안중읍 안중리 302-7,36.985535,126.930145,2,12736,경기물류고등학교
경기 평택시 고덕동 1977-1,37.047241,127.045044,2,12738,평택 고덕수변공원
경기 장안구 율전동 301-1,37.30003,126.970421,2,12739,성균관대역 환승주차장(L)
경기 안양시 동안구 관양동 922,37.394165,126.970276,2,12755,평촌역 하이필드 지식산업센터
경기 다산동 4001-29 부영애시앙,37.608463,127.158813,2,12793,도농역 1번출구
경기 문산읍 선유리 955-15,37.859322,126.787224,2,12797,소망요양병원 앞
경기 남양주시 별내동 929,37.658329,127.124405,2,12801,별내체육공원 옆
경기 남양주시 다산동 6176-1 광장프라자,37.611019,127.164673,2,12806,도농중학교 옆
경기 군포시 당동 780-2 당동누리에뜰해밀,37.352085,126.946541,2,12809,군포역 1번출구
경기 상록구 월피동 445 다농마트,37.328693,126.844635,2,12810,다이소 안산월피점 뒤
경기 오산시 원동 423-1,37.136326,127.072861,2,12812,한전 오산지사 옆
경기 용인시 수지구 상현동 193-1 롯데슈퍼 수지점,37.30817,127.076065,2,12813,롯데슈퍼 수지점
경기 시흥시 정왕동 1883-1 쌍용프라자,37.363453,126.72924,2,12815,함송생활체육관 옆
경기 광명시 일직동 509,37.422215,126.883568,2,12826,이케아광명점 앞
경기 수원시 장안구 정자동 937 동남보건전문대학,37.299812,126.987473,2,1300,동남보건대학교
경기 수원시 장안구 조원동 888 장안구청,37.304058,127.009819,2,1302,장안구청
경기 수원시 영통구 매탄동 1268 영통구청,37.259346,127.046623,2,1305,영통구청
경기 수원시 장안구 율전동 435,37.297958,126.971146,2,1308,성균관대역(율전공영주차장)
경기 수원시 팔달구 화서동 643,37.285454,126.990379,2,1309,화서역 화서환승주차장
경기 수원시 권선구 장지동 44-10,37.242439,127.014969,2,1310,세류역 환승주차장
경기 수원시 영통구 영통동 999-2 KT(주)영통전화국,37.250862,127.073296,2,1312,KT영통지사
경기 수원시 영통구 망포동 234-43 망포2동 행정복지센터,37.238777,127.051781,2,1314,망포2동 행정복지센터
경기 수원시 장안구 하광교동 393-2,37.301716,127.031036,2,1318,경기대학교정문(광교공영주차장)
경기 수원시 장안구 정자동 879-4 정자3동 주민센터,37.29575,126.992378,2,1319,정자3동 주민센터(백설공영주차장)
경기 안산시 상록구 이동 622-3,37.308193,126.853798,2,1324,한대앞역 환승공영주차장
경기 안산시 단원구 원곡동 377-1,37.327961,126.788315,2,1331,안산역 서측 환승공영주차장
경기 용인시 기흥구 구갈동 351-1 모닝프라자,37.281139,127.112503,2,1384,용인 구갈공원
경기 고양시 일산서구 주엽동 67 금강빌딩,37.670277,126.762856,2,1385,주엽역 8번출구
경기 성남시 분당구 삼평동 647,37.396564,127.110771,2,1389,판교역 1번출구(메트로큐브)
경기 성남시 중원구 성남동 4118,37.430546,127.130501,2,1390,모란역 4번출구
경기 성남시 분당구 금곡동 150 미금파크주차빌딩,37.350903,127.111473,2,1392,미금역 2번출구
경기 부천시 원미구 중동 1143-4,37.501652,126.773804,2,1393,신중동역 3번출구
경기 고양시 일산동구 장항동 855 장항동이스턴시티,37.656567,126.773376,2,1395,정발산역 1번출구
경기 안산시 단원구 고잔동 707-3,37.311646,126.827782,2,1396,수원지방법원 안산지원
경기 안양시 동안구 비산동 1104-1,37.390385,126.947311,2,1444,범계역 7번출구
경기 수원시 영통구 영통동 995-3,37.253166,127.074409,2,1446,영통공영주차장
경기 수원시 팔달구 인계동 821-2,37.271362,127.02459,2,1448,인계동 주택가공영주차장
경기 수원시 팔달구 신풍동 123-69 선경도서관,37.283871,127.010612,2,1450,수원선경도서관
경기 수원시 영통구 매탄동 1210 원천근린공원,37.269875,127.055077,2,1457,매봉공원 공영주차장
경기 수원시 영통구 원천동 79-7,37.27478,127.045059,2,1501,법원사거리
경기 화성시 병점동 432,37.205597,127.039856,2,1508,다이소 화성병점점
경기 용인시 기흥구 보정동 1262 아이원프라자,37.319805,127.109711,2,1563,보정동 카페거리(아이원프라자)
경기 성남시 중원구 상대원동 513-14,37.431122,127.170647,2,1695,성남 시콕스타워
경기 안양시 만안구 안양동 533-6,37.386391,126.934067,2,1728,명학역 1번출구
경기 수원시 팔달구 화서동 689-19,37.285278,126.986908,2,1735,화서역 꽃뫼환승주차장
경기 부천시 원미구 원미동 74-10,37.496738,126.786263,2,1764,원미구청
경기 용인시 수지구 상현동 1118 광교 U-TOWER,37.29612,127.068542,2,1791,하나로마트 광교점
경기 수원시 영통구 영통동 961-6 영통트리플렉스,37.252621,127.070946,2,1818,영통역 7번출구
경기 시흥시 정왕동 876-548,37.350807,126.745338,2,183,정왕역 공영주차장
경기 수원시 장안구 영화동 154-12,37.289886,127.016762,2,1845,화홍문 공영주차장
경기 부천시 원미구 중동 1169-1,37.503006,126.758598,2,1856,KT중동지사
경기 의정부시 의정부동 502-2,37.736984,127.043098,2,1887,경전철의정부역 1번출구
경기 용인시 수지구 죽전동 1178-4,37.332058,127.124161,2,1922,새터마을(삼성노외민영주차장)
경기 용인시 수지구 풍덕천동 711,37.324013,127.095718,2,1924,수지구청 앞
경기 고양시 덕양구 화정동 697-1 명지병원,37.641777,126.831406,2,1929,명지병원
경기 김포시 사우동 1135,37.622391,126.711594,2,1984,김포중 삼거리
경기 시흥시 월곶동 992-8,37.391205,126.743256,2,1994,월곶역 1번출구
경기 화성시 반송동 93-3 동탄 파라곤,37.203972,127.071945,2,1998,동탄파라곤오피스텔
경기 부천시 원미구 심곡동 194,37.488258,126.782516,2,2000,부천대 대학로
경기 부천시 심곡동 175-6 해태쇼핑,37.485401,126.782578,2,2001,부천 북부역
경기 오산시 오산동 924-1,37.149784,127.075462,2,2041,오산시청
경기 안양시 만안구 안양동 674-162,37.398952,126.923958,2,206,안양역 1번출구
경기 안양시 동안구 비산동 1110-1,37.392868,126.953087,2,207,동안구청 옆
경기 성남시 분당구 정자동 166-1 정자역 엠코헤리츠 2단지,37.36248,127.106804,2,2103,정자역 3번출구(엠코헤리츠2단지)
경기 수원시 팔달구 매산로1가 19-1 휴먼스퀘어,37.268463,127.00222,2,2130,수원역 7번출구
경기 광명시 소하동 1343,37.447227,126.881866,2,2131,롯데하이마트 소하점
경기 의정부시 금오동 445-4,37.753445,127.068161,2,2132,롯데하이마트 금오점
경기 광주시 탄벌동 11-7,37.418335,127.247826,2,2137,롯데하이마트 경기광주점
경기 부천시 원미구 상동 545-13,37.504364,126.751419,2,221,상동 상록복합타워
경기 수원시 영통구 이의동 1349 광교 더로프트,37.290424,127.047058,2,2233,광교1동 주민센터 옆
경기 고양시 일산동구 장항동 784 롯데백화점일산점,37.660419,126.772102,2,2282,롯데백화점 일산점
경기 안양시 만안구 안양동 88-1,37.40239,126.921776,2,2287,엔터식스 안양역점
경기 안양시 동안구 호계동 1053-1,37.388729,126.950562,2,2293,롯데백화점 평촌점
경기 광명시 하안동 38-1,37.461479,126.879921,2,232,하안동 철골노외 공영주차장
경기 화성시 반송동 220-4 모닝타운,37.193768,127.073479,2,2459,반석초교 사거리
경기 수원시 권선구 권선동 1296-7 베스토아,37.249474,127.035431,2,2465,매탄권선역 2번출구
경기 고양시 일산서구 대화동 2207 이마파킹프라자,37.676929,126.747643,2,2470,대화역 5번출구
경기 화성시 청계동 538 동탄역 센트럴 푸르지오,37.196522,127.116508,2,2474,동탄 센트럴푸르지오
경기 의정부시 낙양동 757 의정부 민락 푸르지오,37.751438,127.109947,2,2476,의정부 민락푸르지오
경기 시흥시 정왕동 1366-4,37.33683,126.730003,2,2478,롯데마트 시화점
경기 수원시 영통구 영통동 971-1 벽적골롯데아파트,37.247063,127.06189,2,2507,망포역 8번출구(롯데프라자)
경기 수원시 장안구 천천동 528-1 세화프라자,37.295082,126.982895,2,2509,수원샘내공원 앞
경기 수원시 영통구 매탄동 1266-3,37.259365,127.045334,2,2512,영통구청 앞
경기 안산시 상록구 성포동 593-13,37.326988,126.843971,2,2515,성포예술광장 앞
경기 하남시 신장동 415-44,37.54055,127.2071,2,2649,신장초교사거리
경기 안양시 만안구 안양동 529-7,37.38702,126.933479,2,291,명학역
경기 안산시 단원구 고잔동 679-1,37.315964,126.82341,2,309,고잔역 환승주차장
경기 안산시 상록구 본오동 875-5,37.302734,126.864258,2,318,상록수역 환승주차장
경기 안산시 상록구 이동 718-1,37.306767,126.850655,2,320,한대앞역 2번출구
경기 시흥시 대야동 528-1,37.443977,126.789902,2,336,시흥시 복지로1공영주차장
경기 성남시 분당구 구미동 182 분당대맥주차빌딩,37.340382,127.109932,2,337,오리역 1번출구
경기 김포시 운양동 1298-1 골든스퀘어,37.654308,126.684212,2,3665,김포 운양동(골든스퀘어)
경기 성남시 분당구 삼평동 653 판교역 푸르지오시티,37.396858,127.112122,2,3673,판교역 1번출구(푸르지오시티)
경기 안양시 동안구 호계동 1048-3,37.390575,126.955544,2,3680,범계역 3번출구
서울 마포구 성산동 515 월드컵주경기장,37.566799,126.897339,2,3707,홈플러스 월드컵점
경기 안양시 동안구 관양동 1606,37.392994,126.962288,2,3744,평촌역 1번출구
경기 수원시 영통구 매탄동 548-5,37.252811,127.061295,2,3752,유신 S-OIL
경기 수원시 장안구 파장동 219-1 삼익주유소,37.310646,126.992043,2,4752,삼익 S-OIL
경기 성남시 수정구 신흥동 2460-1,37.444633,127.153694,2,491,단대오거리역 4번출구
경기 부천시 오정구 원종동 221,37.525089,126.803452,2,544,원종사거리
경기 수원시 영통구 영통동 1009-2 플러스타운빌딩,37.25135,127.076073,2,573,영통역 2번출구
경기 성남시 수정구 수진동 51,37.440857,127.132912,2,5766,태평역 3번출구
경기 안양시 동안구 평촌동 897,37.395054,126.964661,2,5832,평촌역 3번출구
경기 의정부시 의정부1동 172-29,37.738003,127.050674,2,5847,의정부 송산교차로
경기 의정부시 의정부동 496-8,37.737354,127.043945,2,5849,경전철의정부역 2번출구
경기 의정부시 신곡동 87-5,37.747128,127.064377,2,5850,의정부우체국 앞
경기 의정부시 의정부3동 97-29,37.735069,127.050049,2,5851,의정부 경의초등학교 앞
경기 수원시 권선구 서둔동 381 롯데몰 수원점,37.263596,126.997246,2,5871,롯데몰 수원점
경기 하남시 덕풍동 420-4,37.537457,127.204063,2,5979,신장사거리
경기 김포시 장기동 1399 장기음식주차타운,37.644886,126.670685,2,6044,고창초등학교 옆
경기 광명시 철산동 472-169,37.476048,126.864113,2,6047,광명시청 앞
경기 의정부시 신곡동 763-1,37.750313,127.071617,2,6103,경기도청북부청사역 1번출구
경기 안산시 단원구 신길동 1702,37.331009,126.783951,2,6106,내 S-OIL
경기 안성시 영동 410,37.006107,127.274765,2,6127,GS슈퍼마켓 안성점
경기 구리시 토평동 971 서라벌주차빌딩,37.590584,127.146713,2,6150,토평중학교 앞
경기 용인시 수지구 죽전동 1285 (주)신세계백화점경기점,37.324932,127.108177,2,6152,죽전역 1번출구
경기 부천시 소사구 괴안동 113-4,37.484711,126.811363,2,6243,역곡역 1번출구
경기 안양시 만안구 안양동 900-10,37.401279,126.913261,2,6264,롯데슈퍼 안양점
경기 군포시 산본동 1026-10 금정삼성쉐르빌,37.373898,126.943718,2,6272,금정역 1번출구(삼성쉐르빌)
경기 안양시 동안구 호계동 959-19,37.371658,126.95739,2,6275,호계사거리
경기 의정부시 호원동 51-1 회룡역 환승주차장,37.724823,127.046661,2,6278,회룡역 3번출구
경기 고양시 일산동구 백석동 1242 베스트 고양터미널,37.64399,126.790329,2,7292,홈플러스 고양터미널점
경기 부천시 괴안동 6-12,37.480354,126.803268,2,7309,소사구청 사거리
경기 안산시 단원구 고잔동 539-11,37.317787,126.842354,2,7319,중앙하이츠빌 앞
경기 안산시 상록구 본오동 874-7,37.302101,126.866852,2,7320,상록수역 1번출구(공영)
경기 안산시 상록구 월피동 445-2,37.328831,126.844032,2,7321,다농마트 뒤
경기 안산시 상록구 본오동 781-6,37.294079,126.87191,2,7322,본오도서관 뒤
경기 안산시 상록구 본오동 877-4,37.302406,126.861221,2,7323,본오지구대 옆
경기 안산시 상록구 건건동 535-14,37.311771,126.904404,2,7325,반월역 환승주차장
경기 안산시 상록구 성포동 593-37,37.32859,126.846649,2,7326,성포예술광장 북측
경기 안산시 단원구 선부동 1077,37.333759,126.812103,2,7361,선부광장 서울프라자
경기 구리시 갈매동 273-2,37.633106,127.114563,2,7391,갈매역 1번출구
경기 성남시 분당구 구미동 188,37.337513,127.109581,2,7433,오리역 3번출구(분당엠타워)
경기 성남시 분당구 정자동 16-1 AK와이즈플레이스,37.367958,127.104973,2,7437,정자역 5번출구(AK와이즈플레이스)
경기 하남시 신장동 427-380 GS수퍼마켓 하남점,37.538822,127.206177,2,7444,GS슈퍼마켓 하남점
경기 김포시 풍무동 1060 풍무 푸르지오,37.609261,126.73407,2,7448,김포 풍무푸르지오
경기 용인시 처인구 김량장동 254-1 LG수퍼마켓,37.235741,127.202507,2,7456,GS슈퍼마켓 용인점
경기 용인시 처인구 포곡읍 둔전리 139-10 라데팡스,37.26783,127.219444,2,7457,GS슈퍼마켓 용인포곡점
경기 남양주시 별내동 1095,37.650192,127.113586,2,7507,GS슈퍼마켓 남양주별내점
경기 양주시 송내동 700-1 GS슈퍼마켓,37.888355,127.056305,2,7508,GS슈퍼마켓 동두천점
경기 시흥시 장현동 300,37.379295,126.803291,2,7532,시흥시청
경기 고양시 덕양구 화정동 982 롯데마트 화정점,37.632954,126.831131,2,7540,롯데마트 화정점
경기 화성시 진안동 913,37.215118,127.042854,2,7698,병점 로데오거리
경기 파주시 동패동 1692 교하도서관,37.72366,126.712868,2,7730,파주 교하도서관
경기 안양시 만안구 석수동 110-20 안양 석수 대주파크빌,37.418732,126.910103,2,7750,안양석수 대주파크빌아파트
경기 시흥시 정왕동 1877-5,37.362263,126.734718,2,7795,시화 보성아파트
경기 동두천시 생연동 745-10,37.895561,127.057816,2,7798,롯데하이마트 동두천점
경기 남양주시 화도읍 창현리 456-33,37.650566,127.307907,2,7802,롯데하이마트 마석점
경기 안양시 동안구 비산동 1052-5,37.402729,126.953247,2,7804,롯데하이마트 비산점
경기 수지구 풍덕천동 554-1 하이마트,37.315292,127.08744,2,7809,롯데하이마트 수지점
경기 안산시 단원구 고잔동 556-1,37.320034,126.83271,2,7834,안산시청 앞
경기 의정부시 호원동 산101-1 신한대학교,37.710102,127.046432,2,7837,망월사역 3번출구(신한대학교)
경기 고양시 일산동구 백석동 1313 더루벤스카운티,37.64006,126.78936,2,7927,백석 더루벤스카운티
경기 성남시 분당구 정자동 191 정든마을,37.362171,127.116493,2,7934,정든한진6차아파트
경기 오산시 궐동 683-4,37.15847,127.053543,2,7954,오산궐동 피엔피
경기 수원시 팔달구 우만동 607 수원광교 양우 내안애 애플 아파트,37.279053,127.036858,2,7968,수원우만동 양우 내안애애플
경기 시흥시 신천동 83-65,37.438396,126.792702,2,8061,GS칼텍스 대한(시흥)
경기 고양시 덕양구 토당동 888-5,37.61776,126.824844,2,8064,GS칼텍스 능곡점(고양)
경기 고양시 덕양구 토당동 899-8,37.627239,126.827858,2,8066,GS칼텍스 토당
경기 의정부시 용현동 550-4,37.740299,127.086578,2,8078,GS칼텍스 송산
경기 성남시 중원구 하대원동 117-2,37.428558,127.140503,2,8082,GS칼텍스 하대원
경기 성남시 분당구 야탑동 348,37.411549,127.124161,2,8083,GS칼텍스 분당대일
경기 수원시 팔달구 지동 472-1,37.284142,127.027985,2,8099,GS칼텍스 평화
경기 용인시 처인구 유방동 244-2 GS칼텍스미성주유소,37.261116,127.213081,2,8100,GS칼텍스 미성(용인)
경기 화성시 반월동 536,37.223591,127.062256,2,8104,GS칼텍스 동탄신도시
경기 수원시 팔달구 우만동 489-14,37.286247,127.027596,2,8149,GS칼텍스 대창
경기 김포시 북변동 832 풍년마을영풍아파트,37.624134,126.721535,2,8154,김포 풍년2단지영풍아파트
경기 고양시 일산동구 중산동 1717 센트럴 더 포레,37.682606,126.785233,2,8157,일산 하늘마을6단지휴먼시아
경기 남양주시 오남읍 오남리 744 한국아파트,37.694397,127.207832,2,8160,남양주 오남1차한국아파트
경기 의정부시 가능동 197-1 가능역,37.747906,127.044357,2,8167,가능역 2번출구 가능A
경기 파주시 문산읍 문산리 17-14 문산역,37.855747,126.787926,2,8169,문산역 1번출구
경기 고양시 일산동구 백석동 92 백마역,37.658428,126.794067,2,8170,백마역 2번출구
경기 남양주시 퇴계원읍 퇴계원리 218-142 퇴계원역,37.647907,127.143585,2,8172,퇴계원역 1번출구
경기 의정부시 신곡동 560,37.740215,127.05603,2,8202,롯데슈퍼 G신곡점
경기 파주시 와동동 1321 가람마을4단지 한양수자인,37.733574,126.75811,2,8203,파주 가람4단지한양수자인아파트
경기 수원시 팔달구 교동 98 공영주차장,37.273205,127.015343,2,8207,교동 공영주차장
"경기 남양주시 호평로45번길 16(호평동, 아리수)",37.656998,127.245583,2,8212,남양주 호평동
경기 안산시 상록구 사동 1271,37.295879,126.83551,2,8228,한양대학교C
경기 수원시 영통구 영통동 1025-1 보보스 스포렉스,37.249561,127.080795,2,8253,경희대 국제캠퍼스 앞
경기 수원시 영통구 이의동 산94-6 경기대학교,37.302773,127.034668,2,8320,경기대
경기 용인시 수지구 죽전동 1324 단대로데오타워,37.323532,127.124229,2,8321,단국대학교 앞
경기 용인시 기흥구 구갈동 578-3 구갈주차전용건물,37.272705,127.127228,2,8322,강남대역 앞
경기 안양시 만안구 안양동 400-10,37.38007,126.929245,2,8325,성결대학교C
경기 포천시 선단동 산11-1 대진대학교,37.870262,127.156815,2,8388,대진대학교
경기 안산시 단원구 고잔동 44-1,37.330597,126.840469,2,8394,서울예술대학교C
경기 안성시 석정동 63-1 한경대학교,37.012817,127.261879,2,8407,한경대학교(미래융합기술지원센터)C
경기 고양시 덕양구 행신동 776 예수인교회,37.618156,126.836227,2,8415,고양 예수인교회
경기 부천시 원미구 상동 402-1,37.49073,126.753616,2,8490,송내역 2번출구(대림아크로텔)
경기 화성시 봉담읍 와우리 1-2 수원대학교,37.212185,126.978592,2,8492,수원대학교 체대앞C
경기 용인시 수지구 풍덕천동 1104 용인수지 신정마을9단지,37.32019,127.092064,2,8522,신정마을용인수지9단지
경기 고양시 덕양구 행신동 905 햇빛마을21단지,37.627357,126.842194,2,8526,햇빛21단지 대우코오롱아파트
경기 수원시 권선구 고색동 979,37.240314,126.973831,2,8537,수원산업1단지
경기 김포시 마산동 639-8 은여울마을 경남아너스빌,37.638214,126.637833,2,8539,김포 은여울경남아너스빌
경기 고양시 일산동구 식사동 1531 스타타워,37.677929,126.812164,2,8542,동국대학교 일산위시티
경기 시흥시 대야동 528-3,37.442532,126.788956,2,8546,시흥시 복지로2공영주차장
경기 성남시 분당구 야탑동 341 성남(분당)여객자동차터미널,37.413158,127.127838,2,8555,성남종합버스터미널
경기 평택시 이충동 591-2 LIG아파트,37.063766,127.068802,2,8556,평택 이충 엘아이지아파트
경기 군포시 산본동 1231,37.358543,126.934067,2,8580,산본역 동관주차장
경기 화성시 병점동 846 태안프라자,37.21418,127.0439,2,8606,병점 태안프라자
경기 화성시 향남읍 행정리 486-4,37.129963,126.922737,2,8612,향남버스터미널 앞
경기 화성시 오산동 967-164 동탄역사,37.199471,127.096062,2,8626,동탄역SRT
경기 평택시 지제동 559-4,37.019245,127.069412,2,8628,지제역SRT
경기 고양시 일산동구 백석동 1309-1 효성레제스오피스텔,37.64135,126.786865,2,8635,백석역 효성레제스오피스텔
경기 수원시 영통구 이의동 1274,37.298325,127.043633,2,8662,광교1동 공영주차장
경기 수원시 영통구 이의동 1260-6,37.299061,127.044327,2,8663,광교대학로 공영주차장
경기 고양시 일산서구 대화동 2199,37.675163,126.750687,2,8680,대화역 6번출구(신동아노블타워)
경기 시흥시 정왕동 2325-15,37.351227,126.744324,2,8688,정왕역 환승주차장B
경기 남양주시 다산동 4056-1 도농역,37.60778,127.160423,2,8724,도농역 환승주차장
경기 광명시 소하동 1342-5,37.447632,126.882324,2,8749,광명 소하제2공영주차장
경기 성남시 분당구 판교동 595,37.390141,127.090645,2,8801,롯데슈퍼 판교점
경기 평택시 용이동 466-4,36.994213,127.136208,2,8808,평택대학교 앞
경기 용인시 기흥구 언남동 419-1,37.292385,127.121643,2,8809,롯데슈퍼 언남점
경기 의왕시 내손동 411-2 롯데슈퍼,37.390354,126.977112,2,8810,롯데슈퍼 G내손점
경기 용인시 처인구 김량장동 13,37.23056,127.210457,2,8815,롯데슈퍼 용인점
경기 시흥시 정왕동 1456,37.342113,126.750771,2,8829,시흥시 시화공고(정왕제2공영주차장)
경기 시흥시 정왕동 876-131,37.348156,126.750793,2,8830,시흥시 군서초등학교(정왕제4공영주차장)
경기 시흥시 거모동 1725-7,37.347569,126.784348,2,8835,시흥시 거모제1공영주차장
경기 군포시 산본동 1145-6 롯데 피트인 산본,37.357735,126.93074,2,8858,롯데피트인 산본점
경기 수원시 팔달구 우만동 146 송림빌딩,37.277691,127.035675,2,8860,동수원병원 옆
경기 시흥시 하중동 876,37.390312,126.80439,2,8868,시흥국민체육센터 옆(성마루공원공영주차장)
경기 구리시 수택동 424-21 은산빌딩,37.59779,127.142883,2,8894,구리수택동사거리
경기 광주시 초월읍 쌍동리 213-15 초월역사,37.373734,127.299294,2,8989,초월역(경강선) 2번출구
경기 성남시 중원구 성남동 2126 신한타워,37.43742,127.141869,2,9022,수진역 1번출구(수진역 환승주차장)
경기 평택시 서정동 159-100 서두물공영주차장,37.065044,127.061569,2,9050,평택 서두물공영주차장
경기 평택시 동삭동 658-5 서재 제2공영주차장,37.010201,127.094093,2,9053,평택 서재제2(공영주차장)
경기 평택시 비전동 273-6 매봉 공영주차장,36.996323,127.102516,2,9054,평택 매봉공영주차장
경기 광명시 소하동 1366,37.447651,126.893387,2,9099,광명 신촌휴먼시아2단지아파트
경기 안산시 상록구 사동 1250,37.299809,126.858017,2,9176,CU 안산사동센터점
경기 안산시 상록구 성포동 590,37.316662,126.847969,2,9201,안산버스터미널
경기 파주시 금촌동 329-355 금촌역,37.765221,126.7733,2,9204,금촌역 1번출구
경기 구리시 교문동 754-8,37.593857,127.131592,2,9234,교문 S-OIL
경기 부천시 심곡동 174-1,37.484879,126.782173,2,9269,부천역 3번출구(로얄쇼핑)
경기 부천시 도당동 43-3,37.51965,126.787575,2,9272,도당소공원사거리(은성프라자)
경기 안양시 동안구 관양동 1498-21 안양관양 행복주택,37.398262,126.975311,2,9273,안양 따복하우스(인덕원역4번)
경기 성남시 분당구 구미동 24-1 현대벤처빌오피스텔,37.34964,127.110359,2,9274,미금역 3번출구(현대벤처빌)
경기 시흥시 정왕동 1745-5,37.342884,126.735489,2,9279,시흥종합버스터미널 옆
경기 파주시 금촌동 42-10,37.764683,126.775749,2,9280,메가박스 파주금촌점 옆
경기 남양주시 와부읍 덕소리 590-17 덕소역,37.58736,127.208328,2,9286,덕소역 1번출구
경기 수원시 권선구 구운동 899-5,37.284016,126.97258,2,9302,서수원버스터미널 옆
경기 고양시 덕양구 원흥동 569-15 원흥역,37.650841,126.873512,2,9327,원흥역 6번출구
경기 고양시 덕양구 화정동 970-2 홀인원프라자빌딩,37.633556,126.831154,2,9355,화정역 2번출구
경기 수원시 영통구 이의동 1338 광교센트럴푸르지오시티,37.286297,127.05619,2,9370,롯데아울렛 광교점
경기 고양시 일산동구 장항동 734 삼라마이다스,37.663483,126.768494,2,9403,정발산역 2번출구(삼라마이다스3차)
경기 고양시 일산서구 대화동 2219,37.676304,126.746208,2,9405,대화역 3번출구
경기 수원시 장안구 율전동 99-9 GS칼텍스,37.302532,126.972687,2,9434,GS칼텍스 기분좋은
경기 수원시 영통구 영통동 981-2,37.245106,127.061996,2,9436,망포역 1번출구(더판타지움)
경기 동두천시 지행동 694 예일복합타워,37.893101,127.053223,2,9438,지행역 2번출구
경기 의정부시 민락동 815-1,37.74675,127.094551,2,9474,낙양물사랑공원 옆(미디어주차장)
경기 화성시 반월동 170-1,37.236156,127.060326,2,9477,이마트에브리데이 신영통점
경기 광주시 신현동 390-1,37.36623,127.160164,2,9479,이마트에브리데이 오포신현점
경기 부천시 원미구 심곡동 383-8,37.485981,126.78009,2,9487,부천역 3번출구(프리존 빌딩)
경기 시흥시 정왕동 1756 9호,37.344715,126.733536,2,9494,시흥 미관광장
경기 가평군 가평읍 달전리 405-15,37.816593,127.514404,2,9517,가평 메밀촌
경기 의정부시 녹양동 14-11,37.760826,127.042671,2,9539,녹양역 1번출구
경기 안양시 만안구 안양동 1388-1 디스퀘어큐브,37.396488,126.930244,2,9554,안양초등학교 옆
경기 평택시 합정동 829,36.988674,127.090416,2,9563,평택 합정주공아파트
경기 화성시 영천동 707-5,37.20499,127.115837,2,9572,동탄 덕회주차타워
경기 오산시 세교동 244-5 세마역,37.187626,127.042534,2,9573,세마역 1번출구
경기 광명시 일직동 380-10,37.413536,126.883339,2,9583,광명역KTX(D환승주차장)
경기 수원시 영통구 이의동 1284 수원광교 행복주택,37.294876,127.036949,2,9589,광교 따복하우스
경기 의정부시 용현동 556-1,37.736622,127.087814,2,9590,송산역 2번출구
경기 평택시 신장동 263-169 송탄역공영주차장,37.075127,127.054016,2,9593,송탄역 4번출구
경기 성남시 분당구 수내동 6-3 조이시티타워,37.37936,127.117104,2,9594,수내역 1번출구(서영빌딩)
경기 고양시 일산동구 장항동 1756 소노캄 고양 이스트타워,37.662025,126.750893,2,9598,소노캄호텔 고양점
경기 양평군 양평읍 양근리 130-37 양평역,37.493805,127.491783,2,9607,양평역(경의중앙선) 2번출구
경기 화성시 진안동 824-26,37.206413,127.033806,2,9608,병점역 1번출구(병점A주차장)
경기 김포시 구래동 6880-7 월드에비뉴주차빌딩,37.645725,126.627853,2,9610,이마트 김포한강점옆(월드에비뉴)
경기 평택시 서정동 427-53 서정리역,37.056408,127.053421,2,9638,서정리역 1번출구
경기 시흥시 정왕동 876-323,37.350605,126.741394,2,9710,정왕역 1번출구(진골감자탕)
경기 남양주시 평내동 660 평내호평역,37.653233,127.243896,2,9712,평내호평역 1번출구
경기 수원시 팔달구 인계동 1008-18,37.26453,127.02121,2,9713,권선초등학교 뒤
경기 곤지암읍 곤지암리 367-1 곤지암역사,37.3507,127.34552,2,9754,곤지암역(경강선) 1번출구
경기 파주시 동패동 1701,37.724903,126.718895,2,9766,파주 해돋이공원 옆(두손비채빌딩)
경기 파주시 야당동 1060,37.711437,126.760086,2,9767,야당역 1번출구
경기 남양주시 진접읍 금곡리 1082 랜드타워,37.712585,127.18792,2,9771,진접우체국 뒤(랜드타워)
경기 화성시 장지동 975 동탄2 롯데캐슬,37.158737,127.10936,2,9793,동탄 롯데캐슬아파트
경기 화성시 반월동 962 신동탄 롯데캐슬,37.227554,127.068626,2,9794,신동탄 롯데캐슬아파트
경기 김포시 운양동 1441 한강 롯데캐슬 22단지,37.644241,126.684181,2,9795,김포한강 롯데캐슬아파트
경기 광명시 소하동 1343-1,37.446617,126.881645,2,9815,광명 한라비발디큐브오피스텔
경기 양주시 광사동 654,37.795753,127.079735,2,9904,양주 드림월드타워
경기 용인시 수지구 동천동 371-5 동천코아프라자,37.340298,127.098648,2,9906,동천코아프라자
경기 하남시 학암동 671 플로리체 위례,37.474632,127.148697,2,9922,플로리체위례 아파트
경기 고양시 일산동구 중산동 1669-3,37.681534,126.778603,2,9925,롯데슈퍼 일산점
경기 고양시 일산서구 일산동 655-628,37.682186,126.770493,2,9940,일산역 환승주차장
경기 용인시 처인구 역북동 802,37.234962,127.188019,2,9943,롯데시네마 용인역북
경기 의왕시 포일동 660 포일프라임타워,37.396053,126.985733,2,9957,의왕 포일프라임
경기 화성시 능동 1065-1,37.219101,127.058456,2,9967,동탄헤리움오피스텔
경기 구리시 인창동 523-5,37.607624,127.134514,2,9969,건원초등학교 옆
경기 평택시 이충동 667 리치플러스,37.059784,127.06604,2,9985,평택 이충중학교 옆
경남 창원시 마산회원구 내서읍 삼계리 26-1,35.233212,128.503555,2,10000,롯데마트 삼계점 뒤편
경남 진주시 평거동 910,35.171154,128.060822,2,10016,평거휴먼시아3단지 옆
경남 양산시 물금읍 물금리 872-5,35.307869,128.987335,2,10025,물금역 앞
경남 밀양시 가곡동 442-11,35.473484,128.772537,2,10040,밀양역KTX
경남 김해시 부원동 615-5,35.22789,128.885803,2,10042,부원역 2번출구
경남 창원시 의창구 소계동 130-109,35.256668,128.606354,2,10184,창원역KTX
경남 거제시 고현동 961-57,34.889233,128.624725,2,10206,고현버스터미널
경남 거제시 아주동 1690-5,34.867226,128.689926,2,10207,아주비지니스호텔 앞
경남 창원시 의창구 봉곡동 32-12,35.244766,128.650406,2,10235,명곡지구대 옆
경남 김해시 진영읍 진영리 1613-5,35.307339,128.730438,2,10272,진영신도시
경남 양산시 물금읍 가촌리 1296-1,35.310593,129.005341,2,10317,양산세무서
경남 진주시 초전동 1636-4,35.207596,128.112915,2,10331,초전초등학교 앞
경남 양산시 물금읍 가촌리 1280-1,35.316601,129.003403,2,10407,반도유보라4차아파트 앞
경남 사천시 정동면 고읍리 562-1,35.076897,128.085297,2,10451,사천 엠컨벤션웨딩홀
경남 진주시 충무공동 279-3,35.176472,128.148148,2,10516,경남은행 진주영업부
경남 양산시 삼호동 1011,35.412868,129.166473,2,10603,롯데마트 웅상점
경남 사천시 벌리동 220-7,34.939445,128.082657,2,10608,삼천포터미널 뒤편
경남 김해시 내동 1117-1,35.235569,128.86615,2,10812,내외119안전센터 뒤
경남 통영시 광도면 죽림리 1566-2,34.886021,128.417084,2,10813,이마트 통영점
경남 김해시 율하동 1353,35.172211,128.815643,2,10849,포크밸리 율하점
경남 창원시 마산회원구 양덕동 153-36,35.22187,128.588181,2,10974,마산고속버스터미널 옆
경남 창원시 성산구 상남동 73-1,35.221272,128.680069,2,11033,우리은행 창원금융센터
경남 양산시 중부동 686-7,35.337944,129.027466,2,11034,양산역 4번출구
경남 창원시 진해구 석동 543-34,35.158688,128.696777,2,11035,롯데시네마 진해점
경남 진주시 충무공동 282-5,35.175335,128.148392,2,11096,세븐일레븐 진주혁신희망점
경남 창원시 마산합포구 교방동 375-10,35.21384,128.56662,2,11099,교방동 행정복지센터 옆
경남 김해시 부곡동 801-11,35.208542,128.799423,2,11146,나우마트 장유점
경남 김해시 전하동 30-3,35.225864,128.873703,2,11266,봉황역 1번출구
경남 김해시 삼정동 590-3,35.230904,128.894974,2,11270,유한미소안아파트 옆
경남 거제시 고현동 967-10,34.890388,128.619614,2,11295,거제한전 옆
경남 창원시 성산구 상남동 77-4,35.222721,128.681274,2,11354,CGV 창원상남(EV)
경남 창원시 의창구 중동 784-1,35.256741,128.625168,2,11355,유니시티 어반브릭스
경남 진주시 가좌동 860-4,35.158184,128.105225,2,11421,가좌길 노상공영주차장
경남 창원시 의창구 서상동 695-3,35.256554,128.621719,2,11518,창원과학고등학교 옆
경남 남해군 남해읍 북변리 316-3,34.841602,127.898468,2,11530,남해시외버스터미널
경남 진주시 수정동 39-15,35.197361,128.084473,2,11548,갤러리아백화점 진주점 앞
경남 창원시 성산구 상남동 38-6,35.21883,128.682297,2,11549,시립상남동어린이집 옆
경남 통영시 봉평동 446-17,34.832584,128.414063,2,11551,탑마트 통영점
경남 사천시 사천읍 구암리 1694,35.092842,128.08905,2,11665,사천공항 앞
경남 진주시 평거동 821,35.166409,128.058014,2,11666,진주원예농협 평거지점 옆
경남 김해시 대청동 315-2,35.19257,128.803619,2,11669,롯데마트 장유점 앞
경남 창원시 의창구 팔용동 31-3,35.234543,128.64296,2,11682,팔룡동 공영주차빌딩
경남 창원시 의창구 용동 626-12,35.240917,128.702194,2,11684,창원중앙역KTX
경남 김해시 관동동 1056-2,35.175415,128.805817,2,11692,율곡마을 세영리첼아파트 뒤
경남 양산시 삼호동 1006-3,35.414341,129.168655,2,11713,올리브영 양산서창점 뒤
경남 창원시 성산구 남산동 601-4,35.201744,128.697052,2,11730,CU 창원남산점
경남 김해시 진영읍 여래리 968-3,35.307014,128.736923,2,11867,우리마트 진영점 앞
경남 진주시 상대동 297-4,35.179142,128.10556,2,12047,새진주신협 본점 옆
경남 창원시 진해구 인사동 2-1,35.149639,128.666504,2,12133,충무동 공영주차장
경남 창원시 진해구 석동 142-5,35.152012,128.70343,2,12137,진해석동주공아파트 앞
경남 창원시 의창구 사림동 166-8,35.239216,128.70134,2,12243,롯데렌탈 창원지점(B)
경남 창원시 진해구 용원동 1342-3,35.088352,128.816452,2,12273,웅동농협 안골포지점
경남 김해시 삼계동 1461-2,35.262959,128.871201,2,12274,가야아이파크4단지 앞
경남 진주시 신안동 882,35.18235,128.065674,2,12299,창원지방법원 진주지원 옆
경남 창원시 진해구 용원동 1219-1,35.100227,128.814392,2,12301,용원동 공영주차빌딩
경남 창원시 마산회원구 양덕동 150-19,35.222786,128.587082,2,12334,마산고속버스터미널 앞
경남 양산시 덕계동 737-4,35.37318,129.150681,2,12363,메가마트 덕계점
경남 진주시 가좌동 73-2,35.151596,128.119141,2,12388,진주역KTX(EV)
경남 밀양시 삼문동 727-4,35.483864,128.747711,2,12395,삼문공영주차타워
경남 창원시 의창구 사림동 162-3,35.23838,128.697342,2,12413,창원 센트럴애비뉴오피스텔
경남 창원시 진해구 석동 140,35.152676,128.705246,2,12498,석동 공영주차빌딩
경남 김해시 내동 1131-4,35.242294,128.868057,2,12511,CGV 김해
경남 김해시 부원동 854-2,35.229969,128.88176,2,12526,다이소 김해부원점 앞
경남 김해시 외동 886,35.232468,128.84993,2,12527,이진캐스빌2차아파트 앞
경남 진주시 가좌동 2068-1,35.15443,128.118286,2,12566,롯데렌탈 진주지점(B)
경남 창원시 의창구 팔용동 35-8,35.236244,128.640244,2,12669,창원종합버스터미널 공영주차장
경남 진주시 칠암동 486-1,35.17799,128.092041,2,12761,진주고려병원 주차빌딩
경남 진주시 충무공동 35,35.180191,128.139847,2,12771,롯데몰 진주점
경남 창원시 성산구 상남동 11-4,35.221981,128.685867,2,1944,상남시장 사거리
경남 창원시 성산구 반림동 15,35.23455,128.669357,2,1970,창원 스포츠파크
경남 진주시 상대동 291-22,35.179661,128.105072,2,1971,진주시청 사거리
경남 진주시 상대2동 197-18,35.185711,128.11763,2,2599,롯데하이마트 도동점
경남 창원시 마산합포구 신포동1가 42,35.195755,128.570374,2,2601,롯데하이마트 합포점
경남 진주시 가좌동 483-1,35.152897,128.107056,2,6038,경상대학교 앞
경남 창원시 마산회원구 합성동 161-8,35.240349,128.585083,2,6063,마산시외버스터미널 옆
경남 창원시 마산합포구 중성동 72-1,35.2085,128.574814,2,6089,창동사거리
경남 창원시 성산구 상남동 25,35.221493,128.682358,2,6090,상남시장 입구
경남 창원시 성산구 상남동 35-6,35.219662,128.683197,2,6247,상남오거리
경남 거제시 고현동 82-28,34.885616,128.625732,2,7335,고현사거리 앞
경남 창원시 진해구 자은동 924-2,35.148685,128.705887,2,7520,GS슈퍼마켓 진해자은점
경남 창원시 진해구 여좌동 761-46,35.152981,128.662491,2,7522,GS슈퍼마켓 진해여좌점
경남 창원시 성산구 대방동 363-2,35.208683,128.707977,2,7525,GS슈퍼마켓 대방점
경남 창원시 마산합포구 해운동 5-119,35.179501,128.560745,2,7527,GS슈퍼마켓 마산점
경남 창원시 마산합포구 창포동3가 8-1,35.181305,128.560791,2,7550,롯데마트 마산점
경남 창원시 성산구 중앙동 96-3,35.223137,128.678497,2,7568,창원중앙(라큐비 오피스텔)
경남 김해시 외동 1253-1,35.233341,128.865662,2,7592,내외동 주민센터 옆
서울 노원구 중계동 597 경남아너스빌,37.662262,127.076859,2,7743,중계 경남아너스빌
경남 창원시 마산회원구 구암동 90-11,35.250519,128.599091,2,8073,GS칼텍스 신진
경남 김해시 어방동 521-8,35.245544,128.904694,2,8280,인제대학교 앞C
경남 진주시 가좌동 900,35.151707,128.101822,2,8317,경상대학교 가좌캠퍼스 남문C
경남 진주시 가좌동 900,35.15377,128.100677,2,8318,경상대학교 대경학술관C
경기 김포시 마산동 639-8 은여울마을 경남아너스빌,37.638214,126.637833,2,8539,김포 은여울경남아너스빌
경남 양산시 중부동 690-1,35.336658,129.028931,2,8585,중부119안전센터 앞
경남 진주시 상대동 181-1,35.18758,128.117752,2,8737,홈플러스 진주점
경남 양산시 물금읍 범어리 2826,35.325432,129.019516,2,8805,남양산역 3번출구
경남 창원시 마산합포구 오동동 319,35.20446,128.581802,2,8879,GS칼텍스 마산월드
경남 김해시 부곡동 1157-7,35.202694,128.806931,2,8949,장유 건강지원센터 옆
경남 진주시 칠암동 490-2,35.178562,128.093903,2,9028,진주고속버스터미널 옆C
경남 통영시 무전동 989-7,34.8573,128.428787,2,9217,해동 S-OIL
경남 창원시 마산회원구 석전동 225-9,35.23547,128.579742,2,9431,마산역 옆
경남 창원시 마산회원구 합성동 126-4,35.237446,128.582397,2,9444,CGV 마산점
경남 통영시 광도면 죽림리 1570-9,34.885494,128.418365,2,9449,통영종합버스터미널 앞
경남 김해시 구산동 440-8,35.249237,128.873718,2,9485,구산육거리
경남 창원시 성산구 상남동 73-6,35.220036,128.678894,2,9488,NH농협은행 창원시지부
경남 창원시 마산회원구 합성동 974-1,35.235416,128.577179,2,9584,마산역KTX
경남 창원시 성산구 상남동 80,35.224522,128.683289,2,9711,롯데백화점 창원점
경남 창원시 마산합포구 월남동5가 8,35.181252,128.558304,2,9838,월영마크리움
경남 양산시 물금읍 범어리 2711-9,35.327831,129.01535,2,9917,양산우미린아파트 앞
경남 거제시 옥포동 1915-1,34.891884,128.695847,2,9995,거제 옥포항
경남 거제시 장평동 140,34.887207,128.608475,2,9996,덕산아내2차아파트 앞
경북 구미시 진평동 107-1,36.095341,128.425858,2,10138,구미 진평파출소 옆
경북 경산시 대동 214-1,35.837246,128.755463,2,10185,영남대학교 박물관 앞
경북 경산시 삼풍동 300,35.825241,128.753189,2,10186,영남대학교 기계관 교외주차장
경북 구미시 옥계동 840,36.137268,128.419693,2,10268,구미 옥계동(경복프라자 주차장)
경북 안동시 옥동 639-6,36.562595,128.703873,2,10299,안동 옥동사거리
경북 칠곡군 왜관읍 왜관리 191-25,35.996552,128.39888,2,10300,왜관 북부버스정류장 앞
경북 상주시 서성동 56-8,36.419125,128.159912,2,10445,상주소방서 옆(삼백타워 주차장)
경북 김천시 평화동 264-145,36.122417,128.116211,2,10489,김천역
경북 경산시 압량읍 신대리 471,35.841282,128.763718,2,10502,경산 신대부적지구
경북 포항시 남구 효자동 595-9,36.00536,129.338959,2,10619,포항 효자초등학교 옆
경북 경주시 서부동 4-1,35.849339,129.207413,2,10643,경주 경북남부보훈지청 옆
경북 영주시 휴천동 320-5,36.810539,128.623215,2,10678,영주역(코레일패키지)
경북 포항시 남구 오천읍 원리 914-4,35.967987,129.403641,2,10725,포항 원동부영사랑으로1차 옆
경북 경산시 계양동 732,35.83284,128.742538,2,10810,임당역 4번출구
경북 김천시 신음동 470,36.135929,128.117828,2,10894,롯데마트 김천점
경북 칠곡군 왜관읍 왜관리 779-2,35.984119,128.397659,2,10902,왜관우방타운 옆(카카오T왜관점)
경북 안동시 송천동 366-3,36.544231,128.794174,2,10936,안동대학교 원룸촌(한그늘)
경북 포항시 남구 이동 664-19,36.026119,129.341339,2,10943,포항 이동(이동 주차장)
경북 문경시 모전동 120-3,36.585693,128.1931,2,11080,점촌터미널(제1공영주차장)
경북 예천군 호명면 산합리 1411,36.575649,128.489212,2,11171,예천군 제1공영주차장
경북 안동시 풍천면 갈전리 1293,36.574562,128.4944,2,11172,메가박스 경북도청점 앞
경북 포항시 북구 양덕동 1905,36.081528,129.406021,2,11173,포항 양덕체육공원 옆
경북 포항시 북구 장성동 855-5,36.071487,129.378372,2,11190,유니클로 포항 장성점
경북 칠곡군 석적읍 중리 192-4,36.075382,128.411743,2,11394,칠곡군 석적읍(SS식자재)
경북 영주시 풍기읍 산법리 628,36.882404,128.528687,2,11467,CU 풍기동양대원룸점
경북 문경시 점촌동 272-36,36.594269,128.200333,2,11499,GS슈퍼마켓 문경점
경북 포항시 북구 양덕동 1696,36.082119,129.401505,2,11500,GS슈퍼마켓 포항양덕점
경북 포항시 북구 상원동 449-20,36.038055,129.365967,2,11521,신한은행 포항점
경북 영주시 휴천동 317-8,36.810757,128.622223,2,11573,영주 휴천2동 공영주차장
경북 포항시 북구 대흥동 612-6,36.036278,129.361023,2,11577,구 포항역(우리역 주차장)
경북 포항시 남구 동해면 도구리 285,35.983044,129.434586,2,11593,포항공항(고객주차장)
경북 구미시 공단동 265-8,36.09943,128.382645,2,11729,구미시 공단동
경북 포항시 남구 상도동 662-9,36.012108,129.35051,2,11738,포항 시외버스터미널 앞
경북 포항시 남구 상도동 579-12,36.013756,129.350433,2,11739,포항 시외버스터미널
경북 포항시 북구 두호동 1030-9,36.060143,129.377884,2,11760,포항 영일대(퀸유료주차장)
경북 경산시 사동 587,35.817051,128.754456,2,11830,경산 사동(탑 스크린골프)
경북 포항시 북구 죽도동 106-7,36.027817,129.361847,2,11834,포항 죽도파출소 건너편
경북 구미시 상모동 53-3,36.088623,128.356018,2,11843,구미 상모동(청산마루주차장)
경북 경산시 백천동 573-1,35.803524,128.738297,2,11856,경산 백천동(백천유료주차장)
경북 경산시 대동 154-12,35.837479,128.753067,2,11976,영남대역 5번출구(캠퍼스빌딩)
경북 경주시 동천동 780-3,35.85643,129.227631,2,11994,경주시청 옆(부경숯불갈비)
경북 포항시 남구 오천읍 문덕리 282-3,35.96175,129.404694,2,12111,포항 오천읍(문덕온천하와이)
경북 포항시 남구 오천읍 문덕리 298-8,35.960716,129.406006,2,12112,포항 문덕6공원 옆(호연정)
경북 구미시 옥계동 963,36.135841,128.416275,2,12138,LG베스트샵 옥계점 옆
경북 김천시 율곡동 811,36.114777,128.180847,2,12141,김천구미역KTX(영무메트로)
경북 경산시 중방동 223-3,35.832325,128.734238,2,12181,경산사거리(채선당)
경북 구미시 인의동 701-8,36.097389,128.428818,2,12183,구미 인의동(새천년사우나)
경북 구미시 형곡동 187-3,36.108383,128.339111,2,12184,구미 형곡초등학교 앞
경북 안동시 태화동 189-1,36.565598,128.713516,2,12226,안동 서부시장 공영주차장
경북 경산시 중산동 633,35.829388,128.720093,2,12271,경산 펜타힐즈(더원빌딩)
경북 칠곡군 석적읍 중리 244-6,36.074001,128.414413,2,12281,장곡중학교 앞(공영주차장)
경북 경주시 황성동 471,35.86441,129.215042,2,12336,경주 계림중학교 뒤
경북 포항시 북구 신흥동 701-7,36.039219,129.362946,2,12355,포항 전화국사거리
경북 영천시 문외동 126-2,35.974983,128.932053,2,12373,영천시립도서관 뒤
경북 포항시 북구 죽도동 641-2,36.020897,129.355545,2,12390,롯데슈퍼 포항점
경북 포항시 북구 양덕동 777-1,36.08844,129.391846,2,12412,포항 양덕 임시공영주차장
경북 경주시 건천읍 화천리 1177-1,35.797863,129.140549,2,12436,신경주역KTX(코레일주차장)
경북 경산시 사정동 75-7,35.819012,128.729019,2,12459,장산중학교 앞(경산역)
경북 경산시 조영동 228-3,35.842018,128.754303,2,12483,경산 조영동 공영주차장
경북 포항시 북구 양덕동 496-6,36.078259,129.399139,2,12485,포항 양덕동 축구장 주차장
경북 구미시 봉곡동 284-5,36.149578,128.31134,2,12494,구미 선주초등학교 옆
경북 구미시 진평동 1026-4,36.106331,128.41832,2,12542,롯데렌탈 구미지점(B)
경북 포항시 북구 흥해읍 이인리 43-2,36.077442,129.343597,2,12543,롯데렌탈 포항지점(B)
경북 경산시 중방동 833-3,35.829823,128.74028,2,12627,경산 남매사거리(기아오토큐 중방점)
경북 경주시 광명동 393-3,35.819145,129.147049,2,12650,롯데렌탈 경주지점(B)
경북 경산시 압량읍 부적리 337,35.843769,128.756378,2,12659,경산 강산애2차 아파트 앞
경북 구미시 인의동 576-1,36.104736,128.42424,2,12678,인동 서한e다음1차아파트 앞
경북 포항시 북구 두호동 345,36.062428,129.379623,2,12683,포항 동부초등학교 옆
경북 구미시 도량동 85,36.146408,128.320663,2,12704,구미 도량주공3단지아파트 옆
경북 영주시 가흥동 672-4,36.826859,128.605453,2,12719,영주종합터미널 공영주차장
경북 구미시 원평동 1008-21,36.129269,128.329483,2,12727,구미역 앞(역전유료주차장)
경북 구미시 구평동 433,36.09417,128.436478,2,12748,구미 천생초등학교 앞
경북 경주시 동천동 987-45,35.858032,129.225098,2,12751,경주 황성초등학교 옆
경북 상주시 가장동 744,36.376801,128.149002,2,12817,경북대 상주캠퍼스 원룸촌
경북 구미시 원평동 158-57,36.130859,128.332031,2,1966,구미역 정문
경북 포항시 남구 해도동 33-74,36.02618,129.368744,2,2075,포항고속버스터미널
경북 구미시 신평동 465,36.113674,128.364777,2,2493,롯데마트 구미점
경북 포항시 북구 죽도동 607-2,36.024559,129.360382,2,2566,GS슈퍼마켓 포항죽도점
경북 경주시 용강동 958-2,35.867279,129.222977,2,2610,롯데하이마트 황성점
경북 경주시 건천읍 화천리 2577-16,35.79789,129.137268,2,6025,신경주역KTX(경주를그린존)
경북 경주시 노서동 157-8,35.840485,129.201996,2,6200,경주시외버스터미널 옆
경북 경주시 노동동 224-5,35.842655,129.210602,2,6202,월성초등학교 옆
경북 경주시 충효동 2976-4,35.84277,129.183823,2,6242,서라벌대학교 건너편(신라카라이프)
경북 구미시 황상동 305-5,36.10857,128.419647,2,6250,인동 아울렛거리
경북 경산시 중방동 851-3,35.825207,128.736603,2,6269,경산시외버스터미널 앞
경북 안동시 운흥동 226-3,36.562706,128.73204,2,7336,구 안동역(금성유료주차장)
경북 포항시 북구 두호동 1103-2,36.064289,129.371902,2,7496,GS슈퍼마켓 포항창포점
경북 구미시 사곡동 687-28,36.094917,128.359787,2,7620,구미 사곡동
경북 안동시 서부동 91-11,36.56609,128.729797,2,7628,안동시청 앞
경북 포항시 북구 흥해읍 이인리 106,36.073795,129.343536,2,7668,신포항역KTX
경북 안동시 송천동 366,36.544586,128.794144,2,7671,안동대학교 원룸촌 안쪽
경북 경산시 조영동 278-4,35.839382,128.754837,2,7943,영남대학교 원룸촌
경북 구미시 원평동 65-7,36.130241,128.327255,2,7949,CGV 구미점 옆
경북 경산시 진량읍 평사리 430-2,35.89547,128.852615,2,7979,대구대학교 원룸촌
경북 경산시 하양읍 금락리 산 48-3,35.90963,128.806412,2,8270,대구가톨릭대학교(성안나관)
경북 경산시 하양읍 금락리 산 35,35.912876,128.807709,2,8271,대구가톨릭대학교(학생회관)
경북 구미시 거의동 450-7,36.138248,128.397034,2,8326,구미 금오공대 원룸촌
경북 구미시 거의동 468,36.141598,128.394775,2,8332,구미 금오공대 학생주차장C
경북 경산시 하양읍 부호리 346,35.906788,128.799057,2,8380,경일대학교 종합체육관C
경북 안동시 송천동 717,36.542366,128.789383,2,8438,안동대학교 원룸촌 입구
경북 경주시 석장동 707,35.861809,129.193451,2,8442,동국대 경주캠퍼스 원효관
경북 경산시 진량읍 내리리 15,35.898014,128.847122,2,8454,대구대학교 정문
경북 경산시 진량읍 내리리 15,35.903793,128.845795,2,8455,대구대학교 비호생활 후생관
경북 경산시 하양읍 부호리 33,35.908642,128.800171,2,8456,경일대학교 학생회관C
경북 포항시 북구 양덕동 1617,36.080833,129.400009,2,8465,포항 양덕동(한우좋은날)
경북 영주시 풍기읍 산법리 574,36.88229,128.533676,2,8467,동양대학교 대주차장C
경북 경주시 석장동 755-2,35.862961,129.190002,2,8484,동국대 경주캠퍼스 원룸촌
경북 경주시 석장동 877-2,35.860561,129.190536,2,8588,동국대 경주캠퍼스 남쪽원룸촌
경북 경주시 강동면 유금리 409-2,36.006657,129.285217,2,8598,위덕대 건너편(프라자빌딩)C
경북 경주시 석장동 771-5,35.863083,129.189575,2,8617,세븐일레븐 경주석장스타점
경북 구미시 봉곡동 307-5,36.150227,128.307617,2,8675,구미 봉곡동(그린모터플러스)
경북 경산시 사정동 16-12,35.82058,128.729187,2,8772,경산역 앞(진우카서비스)
경북 경주시 황성동 506-5,35.865585,129.214951,2,8796,경주 황성동(하늘빛세차장)
경북 경산시 정평동 207-1,35.832977,128.727524,2,8797,정평역(청호웰빙헬스사우나)
경북 포항시 북구 흥해읍 남송리 3,36.103642,129.391678,2,8869,한동대학교(정문주차장)
경북 경주시 노서동 170-1,35.839073,129.204544,2,8902,경주시외버스터미널(지지호텔)
경북 포항시 남구 오천읍 원리 938,35.967403,129.4077,2,9033,포항 오천읍(금강산돌구이)
경북 구미시 원평동 1072-2,36.122856,128.350571,2,9187,구미종합터미널 앞(반도모텔)
경북 구미시 인의동 581-4,36.103184,128.424347,2,9239,(주)서한 S-OIL
경북 경산시 하양읍 금락리 116-33,35.910103,128.81694,2,9298,하양역 앞(하양식자재마트)
경북 안동시 옥동 767-12,36.563766,128.700409,2,9464,안동 복주초등학교 옆
경북 포항시 북구 장성동 434-2,36.073048,129.382248,2,9588,현대자동차 포항오토스퀘어지점
경북 경산시 옥산동 725-1,35.829437,128.726456,2,9851,경산서부초등학교 뒤
경북 경산시 하양읍 금락리 116-276,35.910244,128.81662,2,9986,경산시 하양사우나 주차장
경북 경주시 석장동 756-6,35.863663,129.189667,2,9987,동국대 경주캠퍼스 북쪽원룸촌
경북 경주시 석장동 867-8,35.860657,129.189194,2,9988,동국대 경주캠퍼스 서쪽원룸촌
광주 북구 양산동 209-7,35.211681,126.875481,2,10105,양산지구 사거리(FM식자재마트)
광주 서구 쌍촌동 1210-8,35.146408,126.864876,2,10164,효광중학교 옆
광주 북구 용두동 311-8,35.212208,126.870148,2,10165,용두주공 사거리
광주 광산구 월계동 885-1,35.21513,126.846405,2,10172,첨단먹자골목
광주 서구 농성동 460-33,35.159367,126.884377,2,10198,광천동 다나메디컬
광주 북구 두암동 174-6,35.166996,126.937035,2,10221,SM마트 두암점
광주 남구 임암동 631-45,35.100662,126.876816,2,10270,철도시설공단 호남본부(효천역)
광주 남구 진월동 291-7,35.121498,126.898346,2,10356,GS칼텍스 21세기
광주 남구 주월동 624-1,35.141415,126.887466,2,10357,GS칼텍스 미래
경기 광주시 역동 176-13 경기광주역사,37.399456,127.251968,2,10374,경기광주역(경강선) 1번출구
광주 북구 용봉동 126-3,35.179844,126.912468,2,10510,전남대 후문(토니커피)
광주 북구 동림동 885-32,35.172276,126.869675,2,10593,동천동우체국 건너편
광주 광산구 우산동 1344-1,35.161972,126.812492,2,10635,하남 콜럼버스 앞
광주 광산구 운남동 257,35.177593,126.823463,2,10636,운남주공4단지 앞
광주 서구 쌍촌동 1286,35.155815,126.862869,2,10805,광주 원음방송
광주 광산구 하남동 811,35.179272,126.806496,2,10855,CGV 광주하남점 옆
광주 북구 매곡동 44-7,35.188236,126.895157,2,10857,매곡동 두레건강랜드
광주 광산구 수완동 1251,35.192093,126.830078,2,10874,수완지구 원룸촌
광주 광산구 송정동 857-1,35.136543,126.792763,2,10879,송정역 1913시장
광주 북구 용봉동 17-1,35.182423,126.912048,2,10882,CGV 광주용봉점
광주 서구 쌍촌동 1385,35.158237,126.867691,2,10905,상무한국아델리움
광주 북구 운암동 1059-4,35.183025,126.871147,2,10941,황솔촌 운암점
광주 북구 용봉동 1378-1,35.178986,126.894882,2,11145,전철우 사거리
광주 북구 일곡동 829-1,35.204857,126.898758,2,11164,일곡동 두경사우나
광주 북구 유동 109-17,35.158741,126.905807,2,11176,해피뷰병원 앞
광주 동구 학동 737-1,35.133335,126.92997,2,11189,학동증심사입구역 4번출구
경기 광주시 경안동 58-11,37.41066,127.258286,2,11261,경안동 행정복지센터 앞
광주 서구 농성동 641-24,35.151817,126.888741,2,11307,광주서구청 앞
광주 동구 용산동 277-2 소태역환승주차장,35.122147,126.932442,2,11314,소태역 1번출구
광주 남구 주월동 408-1 빅스포,35.125778,126.897377,2,11396,빅스포 진월점
광주 서구 치평동 1241-2,35.152214,126.854424,2,11502,상무병원 앞
경기 광주시 장지동 43-3,37.396301,127.244652,2,11646,장지2동마을회관 옆
광주 북구 신용동 859,35.207108,126.864647,2,11661,첨단2지구 대성건설
광주 남구 주월동 1287-1 창신빌딩,35.132587,126.901764,2,11731,광주 남구청 앞
광주 서구 쌍촌동 981-16,35.149925,126.858131,2,11756,운천역 2번출구
경기 광주시 경안동 12-13,37.412003,127.259811,2,11809,경기광주 황금스파랜드
경기 광주시 탄벌동 32-2,37.417461,127.252327,2,11813,경기광주 공설운동장 옆
광주 남구 주월동 973-6 아이노벨,35.133442,126.896255,2,11814,무등시장입구(아이노벨)
광주 남구 양림동 485,35.136677,126.918633,2,11837,학강초등학교 옆(뒤집고)
광주 동구 남동 33,35.144993,126.920456,2,11841,문화전당역 1번출구
광주 북구 오치동 722,35.191948,126.899254,2,11901,고려중학교 앞(아람식자재마트)
광주 북구 중흥동 357-29,35.171413,126.911552,2,11958,전남대 후문 옆
광주 동구 계림동 588-11 프라임타워,35.157982,126.916702,2,11964,그랜드센트럴 앞
광주 북구 운암동 1781 운암2차 남양휴튼,35.178513,126.877464,2,12083,운암동 남양휴튼2차
광주 남구 진월동 592-1 광주대학교,35.105114,126.895622,2,12085,광주대 호심관C
광주 남구 진월동 592-1 광주대학교,35.107765,126.896538,2,12086,광주대 정문C
광주 북구 중흥동 611-5 광주역,35.164806,126.910172,2,12125,롯데렌탈 광주지점(B)
광주 광산구 장덕동 1043 수완지구 호반베르디움 2차아파트,35.200325,126.814491,2,12128,텃밭 수완호반점
광주 남구 임암동 801,35.104996,126.875793,2,12129,송원대 원룸촌(상하주차빌딩)
광주 서구 쌍촌동 1002-6,35.15126,126.870277,2,12139,쌍촌역 1번출구
광주 서구 치평동 1249 상무광명메이루즈,35.150814,126.850838,2,12159,상무 광명메이루즈
광주 광산구 우산동 1597-1,35.160011,126.809685,2,12314,롯데시네마 광주광산점
광주 서구 치평동 1209-6,35.155487,126.852768,2,12387,상무지구 평화공원 옆
광주 서구 풍암동 685,35.118401,126.866638,2,12431,풍암SK뷰아파트 옆(빅케이마트)
광주 북구 각화동 199-4,35.179569,126.936409,2,12472,각화주공 옆(365마트 각화점)
광주 서구 화정동 769-15,35.15213,126.879349,2,12781,화정역 1번출구
광주 서구 치평동 1182-6,35.152992,126.848053,2,1480,치평동우체국 앞
광주 광산구 신촌동 698-9,35.139332,126.809273,2,1604,광주공항
경기 광주시 탄벌동 11-7,37.418335,127.247826,2,2137,롯데하이마트 경기광주점
광주 북구 문흥동 996-5,35.186459,126.921852,2,2311,롯데슈퍼 문흥점
광주 서구 광천동 49-1,35.160931,126.877861,2,5916,광주버스터미널(유스퀘어)
광주 서구 금호동 799,35.130898,126.858948,2,6029,서구문화센터 앞
광주 남구 봉선동 161,35.125984,126.914177,2,6050,롯데슈퍼 봉선점
광주 남구 주월동 25-21,35.132565,126.893578,2,6144,GS칼텍스 풍암
광주 광산구 수완동 1434,35.190044,126.825241,2,6205,삼성디지털프라자 수완점 뒤
광주 광산구 월곡동 679-13,35.179329,126.810387,2,6207,흑석사거리
광주 서구 풍암동 1109-1,35.127113,126.879044,2,6216,롯데슈퍼 풍암점
광주 동구 서석동 470-41,35.143337,126.923576,2,7401,전남대 의과대학 앞
광주 광산구 쌍암동 694-3,35.216354,126.852051,2,7549,롯데마트 첨단점
광주 광산구 월계동 876-1,35.215923,126.844299,2,7663,첨단2동 주민센터 옆
광주 북구 일곡동 845-1,35.204487,126.897278,2,8152,이마트에브리데이 일곡동점
광주 북구 용봉동 1226-3,35.180626,126.902565,2,8461,전남대 예대 뒤
광주 광산구 선암동 789,35.148682,126.768845,2,8545,호남대학교 앞C
광주 북구 두암동 985-1,35.162411,126.935013,2,8607,롯데슈퍼 두암점
광주 광산구 신창동 1222-4,35.191376,126.838737,2,8640,신창부영1차아파트 옆
광주 광산구 신창동 1211-3,35.189003,126.837311,2,8647,안경나라 신창점
광주 광산구 우산동 1583-4,35.162033,126.80864,2,8693,호남병원 옆 공영주차장
광주 광산구 수완동 1447,35.190357,126.826683,2,8762,GS칼텍스 수완셀프점
경기 광주시 초월읍 쌍동리 213-15 초월역사,37.373734,127.299294,2,8989,초월역(경강선) 2번출구
광주 동구 충장로4가 31-1,35.149323,126.912537,2,9086,NC웨이브 충장점(지상주차장)
광주 서구 쌍촌동 975-7,35.149483,126.857018,2,9288,운천저수지
광주 서구 화정동 834-6,35.142384,126.875313,2,9290,염주사거리
광주 남구 봉선동 545,35.12244,126.911926,2,9310,봉선동 쌍용사거리
광주 광산구 송정동 840-26,35.138073,126.793137,2,9375,광주송정역KTX(광주를그린존)
광주 북구 용봉동 1282-5 조은집,35.179081,126.915024,2,9426,전남대 후문(조은집)
경기 광주시 신현동 390-1,37.36623,127.160164,2,9479,이마트에브리데이 오포신현점
광주 북구 두암동 887-2,35.169762,126.925316,2,9507,동강대학교C
광주 광산구 쌍암동 667-1,35.219055,126.844101,2,9528,첨단1동 주민센터 옆
광주 동구 장동 58-55,35.150013,126.921951,2,9812,아시아문화전당 하늘마당 뒤
대구 남구 대명동 2139-12,35.856213,128.580933,2,10056,계명대학교 대명캠퍼스
대구 북구 칠성동2가 20-1,35.884117,128.589493,2,10119,이마트 칠성점 야외주차장
대구 북구 구암동 415-2,35.931202,128.563797,2,10124,운암중학교 앞(운암지 공영주차장)
대구 중구 동산동 194,35.867844,128.58313,2,10168,서문시장역(대구 동산병원)
대구 중구 문화동 12-18,35.87096,128.597,2,10169,대구 노보텔 옆(다래주차장)
부산 해운대구 우동 1407,35.156406,129.144073,2,10241,해운대 제니스스퀘어
대구 수성구 황금동 670-1,35.850117,128.624573,2,10265,GS칼텍스 사랑가득
대구 남구 대명동 1792-31,35.854507,128.590393,2,10267,GS칼텍스 이칠
대구 달성군 유가면 봉리 600-3,35.694351,128.460373,2,10314,대구 테크노폴리스4단지 옆
대구 북구 침산동 338-3,35.891605,128.590424,2,10437,대구 북침산네거리(광명주차장)
대구 동구 신천동 281-10,35.874523,128.621185,2,10505,동대구역전시장
대구 남구 봉덕동 976-5,35.844975,128.602478,2,10506,대구 봉덕신시장 옆
대구 동구 방촌동 907-7,35.88216,128.665237,2,10618,방촌역 1번출구
대구 동구 신암동 276-4,35.881104,128.629196,2,10662,롯데렌탈 동대구지점(5층)
대구 남구 대명동 501-3,35.836369,128.579453,2,10677,대구 앞산카페거리 공영주차장
대구 서구 평리동 1365-5,35.865761,128.556183,2,10746,대구 남평리네거리(한미주차장)
대구 달서구 본리동 145-1,35.84026,128.54364,2,10747,성당래미안e-편한세상2단지 옆
대구 동구 신천동 334-2,35.874756,128.628708,2,10783,스타벅스 동대구터미널점 앞
대구 수성구 시지동 490,35.838947,128.694305,2,10808,대구 노변중학교 옆
대구 북구 태전동 686-10,35.913761,128.54303,2,10809,매천역 환승 공영주차장
대구 동구 신천동 65,35.877098,128.625702,2,10888,동대구역KTX 건너편
대구 서구 내당동 463-34,35.855991,128.551178,2,10904,대구 광장코아 종합상가
대구 수성구 신매동 273,35.8405,128.709885,2,10962,신매역 6번출구
대구 중구 종로1가 20,35.871197,128.5914,2,10968,대구 만경관 제2주차장
대구 달서구 이곡동 산 42,35.861919,128.506622,2,10976,대구 성서이곡운동장 뒤편
대구 북구 구암동 771-2,35.94223,128.56543,2,11057,대구 칠곡3지구 공영주차장
부산 해운대구 반송동 261-131,35.226677,129.147812,2,11094,동래농협 반송지점 뒤
대구 동구 신암동 604-1,35.883991,128.620148,2,11142,대구 평화시장 공영주차장
대구 달서구 대천동 499-1,35.818382,128.521591,2,11191,유니클로 대구대천점
대구 달성군 현풍읍 대리 1176,35.662018,128.422241,2,11210,국가산단 서한이다음
대구 수성구 범어동 41-15,35.859894,128.624603,2,11316,범어역 1번출구(대림주차장)
대구 중구 삼덕동2가 29-5,35.867538,128.601807,2,11318,대구광역시립 중앙도서관 앞
대구 북구 침산동 262-2,35.887604,128.59227,2,11359,대구 침산네거리
대구 수성구 수성동4가 1090-8,35.860825,128.613098,2,11393,대구은행역 1번출구 앞
대구 달서구 죽전동 278-6,35.851097,128.538925,2,11410,죽전역 4번출구(성서 농협)
대구 동구 율하동 1229,35.865623,128.695602,2,11414,대구 안심주공1단지아파트 앞
대구 달성군 화원읍 천내리 286,35.804413,128.49501,2,11438,파스쿠찌 대구화원DI점
대구 달서구 월성동 1826,35.825104,128.526321,2,11456,신월성 미소지움(지하2층)
대구 달서구 이곡동 1244,35.854794,128.507996,2,11490,국민연금네거리(메가타운)
대구 달서구 대곡동 1017,35.807144,128.519836,2,11498,대구 대진중학교 앞
대구 중구 삼덕동2가 196-1,35.863873,128.602142,2,11524,경대병원역 1번출구
부산 해운대구 반여동 1440-11,35.199402,129.118622,2,11583,GS슈퍼마켓 원동점
대구 남구 대명동 1150-3,35.833664,128.558441,2,11595,관문시장 제2공영주차장
대구 동구 신천동 288-1,35.874973,128.626205,2,11600,동대구역네거리(대구를그린존)
대구 북구 동천동 927,35.937588,128.558426,2,11622,대백마트 동천점(3층)
대구 달성군 유가읍 봉리 609,35.692711,128.458847,2,11638,대구 테크노폴리스(김삿갓)
대구 동구 지저동 771-1,35.895355,128.638107,2,11710,대구 공항시장(제일주차장)
대구 동구 신기동 174,35.872047,128.702377,2,11726,반야월 서편 공영주차장
대구 북구 동천동 953-2,35.943962,128.55751,2,11810,대구 팔거역(팔거역주차빌딩)
부산 해운대구 우동 1111-2,35.171993,129.135162,2,11828,벡스코역(동해선) 4번출구
대구 남구 대명동 1803-10,35.854961,128.589233,2,11850,경북여자상업고등학교 옆
대구 달성군 다사읍 죽곡리 194-5,35.857628,128.462646,2,11921,대구죽곡초등학교 앞
부산 해운대구 중동 1325-1,35.168438,129.170624,2,11925,탑마트 해운대점
대구 남구 대명동 2014-62,35.852478,128.593857,2,11935,대구 영선시장 공영주차장
대구 북구 관음동 1372-2,35.933666,128.547592,2,11978,대구 칠곡네거리(비젼스퀘어)
대구 북구 노원동2가 276-1,35.888103,128.574387,2,11979,대구 원대역(K마디병원)
대구 수성구 범어동 175-1,35.861656,128.627487,2,11988,범어브라운스톤오피스텔(7층)
대구 동구 신암동 214-12,35.881664,128.620163,2,11998,대구 평화시장(궁전라벤더)
대구 남구 대명동 982-7,35.836876,128.56842,2,12017,대구 중앙시장 공영주차장
대구 북구 복현동 200-22,35.897232,128.616165,2,12084,대구 복현오거리(유성주차장)
대구 수성구 두산동 778,35.824276,128.623718,2,12095,전원숯불 수성못점
대구 수성구 시지동 54-2,35.843414,128.696671,2,12097,고산역 4번출구(시원청)
대구 수성구 매호동 1000-1,35.844223,128.708557,2,12100,대구 매동초등학교 앞(고산옥)
부산 해운대구 우동 649-2,35.159058,129.156448,2,12117,그린나래호텔 뒤
대구 동구 방촌동 1072-1,35.881046,128.663055,2,12140,방촌초등학교 앞(공영주차장)
대구 남구 대명동 874-9,35.835957,128.574387,2,12224,안지랑곱창골목(공영주차장)
부산 해운대구 좌동 1431,35.174255,129.181854,2,12235,해운대백병원 뒤
대구 서구 이현동 42-32,35.877888,128.536987,2,12244,서대구역KTX 앞(J&D주차장)
부산 해운대구 우동 1521,35.166859,129.131653,2,12275,센텀프리미어호텔
부산 해운대구 반송동 303,35.229599,129.151886,2,12302,반송2동 공영주차장
대구 북구 복현동 402-4,35.896259,128.613922,2,12389,폴리파크 복현점
대구 남구 대명동 1638-17,35.839638,128.572937,2,12404,안지랑역 1번출구
대구 북구 동천동 911-5,35.941875,128.562592,2,12437,대구 칠곡3지구(신정빌딩)
대구 북구 복현동 539-123,35.898552,128.616089,2,12462,롯데슈퍼 복현점
대구 동구 신암동 276-4,35.881344,128.628952,2,12559,롯데렌탈 동대구지점 4층(B)
대구 달서구 상인동 583-48,35.81525,128.538559,2,12597,롯데시네마 상인점(부설주차장)
대구 남구 대명동 145-2,35.843998,128.588715,2,12656,영대병원역 2번출구
대구 달성군 화원읍 천내리 158-2,35.804111,128.49678,2,12717,화원삼거리 앞
대구 남구 대명동 3042-11,35.848312,128.569687,2,12720,대구 두류공원네거리 옆
대구 중구 남산동 933-4,35.864349,128.591904,2,12762,반월당역 1번출구
대구 중구 봉산동 168-6,35.863163,128.598587,2,12786,경북사대부설초등학교 뒤
대구 달서구 감삼동 146-28,35.850349,128.539169,2,12787,죽전역 4번출구(죽전역주차장)
대구 달서구 두류동 617-2,35.853256,128.554672,2,12827,두류역 7번출구
대구 중구 동인동2가 12,35.870319,128.600967,2,12828,대구 공평네거리
부산 해운대구 우동 1496,35.169838,129.131088,2,1453,롯데백화점 센텀시티점(EV)
부산 해운대구 좌동 1458-4,35.170181,129.174927,2,1455,장산역 12번출구
대구 중구 남산동 912-1,35.864307,128.594406,2,1470,반월당역 3번출구
대구 동구 신천동 83-5,35.874542,128.624359,2,1476,동대구역 2번출구
부산 해운대구 재송동 1192,35.181854,129.121307,2,1583,해운대 문화복합센터
대구 달서구 상인동 765-1,35.820187,128.541031,2,1589,상인역 7번출구(구마선주유소)
대구 남구 대명동 51-1,35.846298,128.58963,2,1595,영대병원 사거리
대구 수성구 신매동 44-8,35.835873,128.715714,2,1597,사월역 3번출구
대구 남구 대명동 1583-8,35.834751,128.556519,2,1598,서부시외버스터미널
대구 달서구 감삼동 139-2,35.850918,128.540649,2,1601,죽전역 3번출구(구병원주차장)
부산 해운대구 우동 541-29,35.162102,129.159195,2,1647,해운대역 5번출구(행운주차장)
부산 해운대구 우동 539-10,35.163227,129.158813,2,2539,해운대역 7번출구(EV)
대구 달서구 이곡동 663-8,35.850967,128.50972,2,2644,롯데하이마트 성서점
부산 해운대구 우동 1483,35.173,129.131119,2,307,부산센텀시티우체국
대구 북구 동천동 903-4,35.94352,128.56012,2,5855,팔거역 4번출구
대구 동구 지저동 670-27,35.896946,128.639542,2,5920,대구공항 앞
부산 해운대구 우동 542-8,35.16185,129.159378,2,5954,해운대역 5번출구(셀프파킹)
대구 중구 동인동2가 6-1,35.869888,128.601776,2,5989,국채보상운동기념관 앞
대구 동구 신암동 276-21,35.880733,128.628769,2,6024,동대구역KTX 뒤
대구 달서구 상인동  1554-1,35.812435,128.546616,2,6060,대구월곡초교 앞
대구 동구 동호동 352-2,35.86565,128.715576,2,6142,반야월역 3번출구
대구 달서구 장기동 810-4,35.848679,128.530273,2,6252,대구 용산역 4번출구
대구 북구 태전동 405-9,35.925323,128.546951,2,6253,구암역 1번출구
대구 수성구 두산동 111,35.838032,128.622513,2,7300,홈플러스 대구수성점
대구 동구 신서동 531,35.866665,128.725388,2,7339,각산역 2번출구
대구 달서구 이곡동 1213,35.853909,128.504303,2,7388,성서산업단지역 8번출구
대구 달서구 도원동 1433,35.807487,128.533875,2,7399,대구도원동 주민센터 옆
대구 북구 동천동 968,35.944904,128.555939,2,7576,홈플러스 칠곡점
부산 해운대구 재송동 1042-3,35.19241,129.126694,2,7615,해운대 청소년수련관 옆
부산 해운대구 우동 524-2,35.163349,129.158005,2,8079,GS칼텍스 해운
대구 북구 복현동 539-125,35.898609,128.615616,2,8130,GS칼텍스 오거리
대구 수성구 지산동 932,35.838764,128.626968,2,8131,GS칼텍스 황금캐슬
부산 해운대구 반송동 248,35.224438,129.155655,2,8231,영산대 해운대캠퍼스
대구 북구 산격3동 1410-4,35.894402,128.605637,2,8233,산격초등학교 옆(산격3동공영)
대구 달서구 감삼동 146-38,35.850094,128.539459,2,8587,죽전역 3번출구
부산 해운대구 우동 1435,35.156719,129.147034,2,8707,부산은행 마린시티점
부산 해운대구 좌동 1315,35.169266,129.178589,2,8778,장산역 1번출구
대구 달서구 본동 619,35.831524,128.534393,2,8850,롯데슈퍼 월성점
대구 달성군 다사읍 매곡리 1546-4,35.859486,128.463852,2,8970,대실역 1번출구(운곡빌딩)
대구 중구 태평로1가 1-68,35.874382,128.599533,2,9194,대구역 옆(인화주차장)
대구 달서구 진천동 39-1,35.816929,128.531601,2,9299,월배역 4번출구(대박집)
대구 동구 신서동 1143,35.881279,128.730179,2,9376,대구 한국정보화진흥원
부산 해운대구 좌동 1466-4,35.171246,129.176819,2,9445,NC백화점 해운대점 뒤(EV)
대구 달서구 두류동 87-48,35.859558,128.565857,2,9466,내당역 3번출구(들메꽃)
대구 달서구 감삼동 702,35.848763,128.534119,2,9500,대구 용산네거리 옆
대구 북구 복현동 439-1,35.893204,128.617493,2,9623,대구 복현장미공원 공영주차장
대구 남구 대명동 1720-21,35.845585,128.579865,2,9642,대구 앞산비즈니스호텔 건너편
대구 북구 칠성동2가 302-155,35.875805,128.596664,2,9688,롯데백화점 대구점
부산 해운대구 송정동 531-6,35.18639,129.201935,2,9702,송정역(동해선) 2번출구
부산 해운대구 재송동 362-2,35.180374,129.123718,2,9704,센텀역(동해선) 3번출구
대구 수성구 범어동 248-1,35.856861,128.633453,2,9856,KBS 대구방송총국 앞
부산 해운대구 반여동 1200-2,35.202843,129.118896,2,9891,GS칼텍스 센텀
대전 유성구 신성동 124-2,36.391743,127.350754,2,10127,신성동(진성아구찜)
대전 서구 정림동 127-1,36.305405,127.368378,2,10181,정림동 어린이도서관 옆
대전 서구 변동 12-31,36.327129,127.380638,2,10482,GS칼텍스 우리
대전 서구 둔산동 1366,36.353745,127.379959,2,10705,전자랜드 둔산점
대전 유성구 궁동 490-1,36.360916,127.345268,2,10818,궁동주차장
대전 서구 둔산동 1079,36.351032,127.375244,2,11030,둔산코어타워
대전 서구 월평동 513,36.3563,127.362808,2,11044,월평1동 공영주차장
대전 유성구 상대동 475,36.345314,127.339394,2,11053,상대동 도안주차장
대전 서구 탄방동 1084,36.345963,127.397202,2,11055,남선공원
대전 서구 도마동 429-4,36.323647,127.368904,2,11507,CU 배재대점
대전 중구 대흥동 214,36.327534,127.425011,2,11510,중앙로역 4번출구(현대주차장)
대전 서구 도안동 1160,36.322502,127.343666,2,11660,도안초등학교 앞
대전 서구 탄방동 688,36.343403,127.386292,2,11662,탄방역 5번출구
대전 서구 둔산동 948,36.358097,127.382614,2,11674,삼성생명 둔산(대전)
대전 서구 관저동 1550-2,36.296032,127.337036,2,11858,관저동 공영주차장
대전 유성구 상대동 472-5,36.346329,127.339676,2,11929,도안휴먼시아4단지 앞
대전 서구 용문동 282-6,36.332661,127.393394,2,11959,롯데렌탈 대전지점 뒤
대전 동구 대동 160-1,36.329308,127.44178,2,11963,대동역 3번출구
대전 중구 선화동 226,36.328167,127.422508,2,12101,대전테크노파크 디스테이션
대전 서구 둔산동 1358,36.352543,127.380577,2,12135,블랙타워 주차빌딩
대전 유성구 송강동 36-2,36.434204,127.386452,2,12151,송강동 공영주차장
대전 대덕구 신탄진동 16-2,36.452675,127.435051,2,12157,이마트 에브리데이 신탄진점
대전 유성구 봉명동 675-8,36.357658,127.35099,2,12168,하이그린파킹 봉명3호점
대전 유성구 지족동 1097-1,36.388966,127.30706,2,12170,하이그린파킹 지족점
대전 대덕구 중리동 363-23,36.365891,127.424469,2,12174,중리전통시장 옆
대전 대덕구 중리동 196-10,36.360737,127.429169,2,12175,중리행복길1공영주차장
대전 유성구 장대동 281-23,36.35931,127.336632,2,12220,유성고속버스터미널 앞
대전 대덕구 송촌동 478-1,36.363789,127.440392,2,12293,송촌어린이공원 옆
대전 중구 유천동 206-5,36.318916,127.398338,2,12409,유천동 정암빌딩
대전 서구 관저동 1771,36.303806,127.336334,2,12478,관저 온주차장
대전 대덕구 송촌동 505-2,36.3624,127.445412,2,12763,송촌 진가쟁이공영주차장
대전 중구 오류동 164-8,36.321434,127.407623,2,12770,다이소 대전오류점
대전 서구 괴정동 426-5,36.339302,127.389603,2,12773,롯데백화점 대전점 뒤
대전 서구 탄방동 835,36.346966,127.394081,2,1607,탄방소방서
대전 중구 대흥동 6-11,36.326874,127.429626,2,1608,대흥1새마을금고
대전 중구 오류동 187-8,36.327507,127.406052,2,2005,오룡역 1번출구
대전 중구 문화동 1-41,36.321117,127.413139,2,2006,서대전네거리역 1번출구
대전 동구 정동 2-1,36.334221,127.43161,2,2468,대전역 옆
대전 유성구 관평동 887,36.426826,127.386909,2,2486,롯데마트 대덕점
대전 유성구 원내동 367-10,36.300926,127.323456,2,2487,롯데마트 서대전점
대전 서구 정림동 8-56,36.30909,127.371002,2,3655,롯데하이마트 정림점
대전 중구 선화동 236-2,36.328991,127.421898,2,3747,중앙로역 6번출구
대전 대덕구 송촌동 458,36.365311,127.438156,2,5914,송촌동상점가 공영주차장
대전 유성구 전민동 332-14,36.398243,127.403381,2,6004,전민동 공영주차장
대전 중구 대흥동 125-1,36.325771,127.429222,2,7481,대흥동 제1공영주차장
대전 대덕구 석봉동 318-2,36.444462,127.426872,2,7529,GS슈퍼마켓 신탄진점
대전 서구 둔산동 1419,36.349915,127.387283,2,7662,대전시청역 8번출구
대전 유성구 지족동 962,36.374065,127.318672,2,787,노은역 환승주차장
대전 유성구 반석동 635,36.392479,127.313484,2,789,반석역 환승주차장
대전 중구 대흥동 215,36.327068,127.425293,2,790,중앙로역(우리들공원)
대전 동구 소제동 291-34,36.333477,127.43631,2,792,대전역 동광장1
대전 서구 둔산동 1111,36.349503,127.376564,2,8034,큰마을네거리
대전 유성구 봉명동 554-6,36.352184,127.340561,2,8163,GS칼텍스 유성온천(대전)
대전 서구 도안동 800,36.328011,127.338661,2,8222,목원대학교
대전 동구 용운동 96-31,36.332466,127.461807,2,8281,대전대학교(기초과학관)
대전 동구 용운동 631,36.334347,127.457466,2,8282,대전대학교(산학협력관)
대전 대덕구 오정동 740-4,36.354218,127.427101,2,8603,세븐일레븐 한남대원룸점
대전 중구 오류동 74-2,36.32217,127.404053,2,8842,서대전역
대전 서구 도안동 1770,36.305679,127.352089,2,8920,가수원네거리(도안주차장)
대전 동구 가오동 589,36.307117,127.45504,2,9020,동대전컨벤션센터
대전 유성구 봉명동 536-8,36.355766,127.342758,2,9207,유성푸르지오시티
대전 동구 자양동 184-4,36.340019,127.448212,2,9209,CU 대전우송타운점
대전 동구 용전동 143-22,36.348492,127.433754,2,9427,대전복합터미널 옆(용전동공영주차장)
대전 서구 월평동 243,36.361778,127.379028,2,9798,롯데시네마 대전둔산
부산 사하구 다대동 42,35.063545,128.97998,2,10026,낫개역 2번출구
부산 사하구 하단동 80,35.103249,128.970474,2,10032,당리역 2번출구
부산 사하구 당리동 426-5,35.101189,128.979446,2,10033,부산사하우체국 옆
부산 수영구 남천동 556-15,35.138287,129.108383,2,10117,메가마트 남천점 옆
부산 사상구 주례동 129,35.149261,129.006943,2,10156,주례여중 뒤편
부산 남구 대연동 881-2,35.130333,129.093124,2,10179,GS칼텍스 문화
부산 수영구 망미동 432-22,35.17696,129.106949,2,10199,부산망미동우체국 앞
부산 동래구 안락동 451-1,35.197304,129.104553,2,10205,동래한전 뒤
부산 사하구 당리동 325-19,35.102795,128.974289,2,10226,당리역 4번출구
부산 해운대구 우동 1407,35.156406,129.144073,2,10241,해운대 제니스스퀘어
부산 연제구 연산동 1338-10,35.182961,129.078857,2,10256,맥도날드 시청점 옆
부산 부산진구 부암동 55-6,35.164349,129.050995,2,10285,더파티 서면점
부산 수영구 망미동 837-2,35.173492,129.096893,2,10315,GS칼텍스 언덕
부산 남구 문현동 246-5,35.13604,129.072556,2,10460,지게골역 3번출구
부산 연제구 연산동 603-7,35.18708,129.084518,2,10606,한창정보타운
부산 부산진구 가야동 551-12,35.149078,129.032776,2,10669,동의대역 5번출구C
부산 강서구 대저2동 2400,35.175869,128.950439,2,10671,김해공항 도보(EV)
부산 금정구 남산동 20-14,35.271912,129.090958,2,10676,범어사역 1번출구
부산 수영구 광안동 662-1,35.163162,129.113724,2,10703,수영역 14번출구
부산 금정구 남산동 91-7,35.267883,129.091949,2,10799,남산역 7번출구
부산 동구 초량동 1196-6,35.116936,129.042419,2,10806,아스티호텔 옆
부산 남구 문현동 1227-2,35.148335,129.06546,2,10814,IFC부산
부산 영도구 남항동1가 49,35.090816,129.037811,2,10842,기업은행 영도지점 뒤
부산 동구 범일동 830-72,35.140797,129.063522,2,10939,범일동 한양아파트 옆
부산 영도구 동삼동 328-22,35.077282,129.069351,2,10960,영도제일중학교 후문
부산 북구 만덕동 845-1,35.208599,129.03717,2,11068,동문굿모닝힐401동 옆
부산 북구 화명동 2268-3,35.235764,129.012024,2,11076,화명역 3번출구
부산 동래구 안락동 535-2,35.196075,129.098724,2,11077,안락역(동해선) 3번출구
부산 해운대구 반송동 261-131,35.226677,129.147812,2,11094,동래농협 반송지점 뒤
부산 기장군 정관읍 매학리 717-6,35.321129,129.178345,2,11100,CGV 정관점
부산 남구 대연동 1745-1,35.135422,129.091675,2,11102,대연역 6번출구
부산 남구 대연동 1239-19,35.134434,129.084808,2,11104,못골역 1번출구
부산 남구 대연동 63-13,35.134941,129.099594,2,11109,부경대 정문 맞은편
부산 연제구 연산동 589-5,35.18911,129.086655,2,11110,NH농협은행 연산동지점
부산 북구 화명동 739,35.23378,129.017532,2,11111,화명 낙원탕 옆
부산 부산진구 양정동 345-4,35.171234,129.071594,2,11112,양정역 2번출구
부산 북구 덕천동 139-3,35.210491,129.018173,2,11113,덕천3동 공영주차장
부산 사상구 모라동 1348,35.190056,128.99202,2,11114,모라중학교 공영주차장
부산 동래구 사직동 74-18,35.197445,129.063324,2,11117,GS사직자이아파트 옆
부산 부산진구 부전동 521-1,35.154213,129.057343,2,11254,KT&G상상마당 부산
부산 부산진구 전포동 668-1,35.156902,129.063065,2,11255,NC백화점 서면점
부산 수영구 광안동 201-5,35.14959,129.114975,2,11328,광안지웰에스테이트오피스텔
부산 기장군 일광면 삼성리 21-11,35.266178,129.232971,2,11552,일광역(동해선) 1번출구
부산 금정구 남산동 68-1,35.262505,129.091461,2,11570,스타벅스 금정남산동DT점
부산 사하구 당리동 317-28,35.104294,128.975922,2,11571,사하구청 옆
부산 해운대구 반여동 1440-11,35.199402,129.118622,2,11583,GS슈퍼마켓 원동점
부산 북구 화명동 2126,35.239315,129.015106,2,11647,부산북구보건소 옆
부산 동구 수정동 3,35.128429,129.047379,2,11658,부산진역 5번출구
부산 사상구 엄궁동 464-1,35.12833,128.971405,2,11712,엄궁동 행정복지센터 앞
부산 사하구 장림동 241-3,35.07917,128.977921,2,11716,서부산농협 장림지점 옆
부산 수영구 망미동 430-3,35.174549,129.107468,2,11727,부산은행 망미동지점 옆
부산 부산진구 연지동 173-4,35.170673,129.051147,2,11740,연지동 새마을금고 앞
부산 중구 동광동3가 37,35.102573,129.033966,2,11742,중앙역 5번출구
부산 부산진구 양정동 393-12,35.171799,129.069702,2,11745,양정역 3번출구
부산 연제구 연산동 582-1,35.191467,129.088333,2,11747,홈플러스 연산점 앞
부산 서구 암남동 234,35.077148,129.017883,2,11748,베스트웨스턴플러스 부산송도호텔
부산 동래구 사직동 90-31,35.196327,129.058472,2,11751,예원초등학교 뒤편
부산 중구 광복동1가 7,35.099121,129.033966,2,11786,남포역 7번출구
부산 남구 용호동 170,35.125271,129.110672,2,11789,용호동 중앙해수랜드
부산 해운대구 우동 1111-2,35.171993,129.135162,2,11828,벡스코역(동해선) 4번출구
부산 서구 토성동1가 13-5,35.100254,129.022705,2,11864,부산자동차직업학교 옆
부산 동래구 명륜동 696-27,35.210526,129.081833,2,11869,동래우체국 옆
부산 중구 남포동6가 33,35.096737,129.027023,2,11875,자갈치역 6번출구
부산 중구 남포동6가 82-2,35.0979,129.027786,2,11876,자갈치역 7번출구
부산 사하구 하단동 889-2,35.107491,128.959671,2,11882,동조리젠시 2차 앞
부산 중구 중앙동5가 23 경보이리스오션 더스타,35.101936,129.037445,2,11883,경보이리스오션 더스타2차
부산 사하구 괴정동 951-1,35.098248,128.993225,2,11909,괴정역 6번출구
부산 해운대구 중동 1325-1,35.168438,129.170624,2,11925,탑마트 해운대점
부산 동래구 온천동 1247-3,35.205589,129.066742,2,12046,미남역 3번출구
부산 사하구 신평동 647-3,35.094593,128.959869,2,1211,신평역 3번출구
부산 북구 화명동 2287-1 리버사이드빌딩,35.233677,129.012222,2,12116,코오롱하늘채2차아파트 앞
부산 해운대구 우동 649-2,35.159058,129.156448,2,12117,그린나래호텔 뒤
부산 사하구 하단동 1165-10,35.104485,128.957962,2,12120,강변타워아파트 앞
부산 금정구 부곡동 200-103,35.238941,129.094025,2,12134,금샘공영주차장
부산 북구 만덕동 924,35.210899,129.031616,2,12142,현대레포션
부산 부산진구 양정동 331-9,35.173756,129.072403,2,12147,양정역 8번출구
부산 부산진구 전포동 890-31,35.150887,129.064636,2,12148,전포역 1번출구
부산 해운대구 좌동 1431,35.174255,129.181854,2,12235,해운대백병원 뒤
부산 동래구 명륜동 568-6,35.206062,129.082626,2,12239,명륜초등학교 앞
부산 동래구 온천동 210-99,35.219349,129.080292,2,12240,온천1동 행정복지센터 옆
부산 북구 화명동 2313 크리스탈타워,35.224239,129.008438,2,12256,수정역 3번출구
부산 수영구 민락동 181-206,35.155346,129.124115,2,12260,민락 전통시장공영주차장
부산 부산진구 부암동 354-2,35.167183,129.042099,2,12267,온누리마트 부암점 뒤편
부산 강서구 신호동 219,35.084873,128.877762,2,12272,부산신호동우체국 옆
부산 해운대구 우동 1521,35.166859,129.131653,2,12275,센텀프리미어호텔
부산 남구 대연동 72-23,35.136757,129.099548,2,12277,경성대부경대역 5번출구
부산 동래구 온천동 1377-16,35.201233,129.069519,2,12278,부산은행 사직행복영업소 옆
부산 수영구 남천동 36-7,35.148602,129.111099,2,12287,신한은행 광안리지점
부산 수영구 광안동 529,35.162804,129.108551,2,12288,비치그린상가
부산 수영구 광안동 120-266,35.160332,129.114929,2,12289,BHS한서병원 앞
부산 금정구 부곡동 294-20,35.227665,129.092392,2,12297,부곡2동 공영주차장
부산 해운대구 반송동 303,35.229599,129.151886,2,12302,반송2동 공영주차장
부산 금정구 구서동 481-1,35.24696,129.094574,2,12309,만남의 광장
부산 연제구 연산동 2122-12,35.173855,129.095139,2,12313,배산역 6번출구
부산 금정구 남산동 130-6,35.261116,129.08989,2,12317,남산하이츠타운 옆
부산 기장군 일광읍 삼성리 781,35.266899,129.222809,2,12320,일광자이푸르지오1단지 앞
부산 금정구 남산동 18-25,35.270813,129.08931,2,12321,금정농협 앞
부산 수영구 남천동 5-3,35.14642,129.114288,2,12322,협진태양아파트 옆
부산 부산진구 부전동 516-5,35.155399,129.056519,2,12331,부전동 더토포필리아 오피스텔
부산 동래구 명륜동 506-3,35.20451,129.081573,2,12364,메가마트 동래점
부산 연제구 거제동 203-8,35.194305,129.071716,2,12402,부산연제우체국 옆
부산 수영구 광안동 1027-2,35.171219,129.108078,2,12414,망미역 5번출구
부산 동래구 온천동 1414-5,35.203163,129.06868,2,12419,미남역 2번출구
부산 동래구 온천동 1429-4,35.207386,129.073029,2,12420,온천2동 행정복지센터 옆
부산 북구 구포동 1248-10,35.195866,129.013351,2,12442,구포3동 공영주차장
부산 사상구 학장동 585-14,35.138988,128.978668,2,12443,목화1단지아파트 앞
부산 사하구 괴정동 250,35.102856,128.998138,2,12444,대티역 1번출구
부산 사하구 장림동 400-3,35.074665,128.973663,2,12453,협성르네상스타운아파트 앞
부산 동래구 낙민동 205-14,35.20015,129.089706,2,12454,낙민역 2번출구
부산 남구 대연동 364-7,35.134239,129.098633,2,12493,대연성당 뒤
부산 연제구 거제동 36-8,35.195721,129.081177,2,12502,부산교대역 4번출구
부산 수영구 남천동 323,35.139896,129.106567,2,12509,부산남천엑슬루타워
부산 북구 덕천동 396-11,35.211197,129.006516,2,12510,덕천역 12번출구
부산 수영구 광안동 165-8,35.15427,129.112701,2,12623,광안역 5번출구
부산 사하구 하단동 623-17,35.103363,128.973068,2,12658,하단 롯데캐슬아파트
부산 동구 초량동 1196-6,35.117077,129.04216,2,12663,롯데렌탈 부산지점(B)
부산 수영구 민락동 184-13,35.155167,129.118942,2,12666,광안리해수욕장 사거리 앞
부산 남구 문현동 205-2,35.137379,129.072693,2,12690,메가마트 문현점
부산 수영구 남천동 11-13,35.144234,129.110321,2,12710,부산시약사신협
부산 사하구 하단동 528-3,35.107475,128.966949,2,12713,하단역 7번출구
부산 부산진구 개금동 171-92,35.151165,129.024399,2,12746,개금골목시장 옆
부산 사상구 주례동 435-1,35.151001,129.001297,2,12749,주례오거리 공영주차장
부산 동래구 안락동 1044-2,35.199696,129.093475,2,12752,버거킹 부산안락DT점 옆
부산 사상구 괘법동 548-9,35.161228,128.98674,2,12758,사상역 2번출구
부산 연제구 연산동 1143-4,35.186588,129.078979,2,12764,연산역 17번출구
부산 기장군 기장읍 청강리 702-3,35.236084,129.216904,2,12765,기장병원
부산 부산진구 부전동 503-15,35.156609,129.055374,2,12775,롯데호텔 부산(B)
부산 부산진구 당감동 327-1,35.16563,129.037521,2,12777,부산 동평사거리
부산 사하구 다대동 1552-20,35.048157,128.964737,2,12778,다대포해수욕장역 2번출구
부산 금정구 노포동 133,35.285843,129.095932,2,12799,부산종합버스터미널
부산 부산진구 부전동 192-2,35.155029,129.060043,2,1451,쥬디스태화 신관
부산 해운대구 우동 1496,35.169838,129.131088,2,1453,롯데백화점 센텀시티점(EV)
부산 해운대구 좌동 1458-4,35.170181,129.174927,2,1455,장산역 12번출구
부산 사상구 괘법동 560-28,35.160885,128.982819,2,1533,사상역 1번출구(EV)
부산 북구 구포동 1060-118,35.20652,128.998154,2,1534,구포역KTX
부산 북구 화명동 2266-3,35.236099,129.009399,2,1535,대우이안아파트 앞(EV)
부산 해운대구 재송동 1192,35.181854,129.121307,2,1583,해운대 문화복합센터
부산 중구 중앙동4가 18-2,35.103767,129.037186,2,1593,중앙역 6번출구
부산 부산진구 범천동 719-29,35.142017,129.058868,2,1633,범일역 9번출구
부산 수영구 남천동 35-13,35.148991,129.111984,2,1635,금련산역 3번출구
부산 금정구 구서동 252-19,35.248646,129.090027,2,1640,구서역 3번출구
부산 부산진구 범천동 856-3,35.147739,129.059998,2,1644,범내골역 6번출구
부산 해운대구 우동 541-29,35.162102,129.159195,2,1647,해운대역 5번출구(행운주차장)
부산 연제구 연산동 1370-2,35.182026,129.075577,2,1650,부산시청역 7번출구(EV)
부산 사상구 주례동 1162-1,35.149731,129.000916,2,1736,주례역 7번출구
부산 북구 덕천동 350-31,35.210625,129.00415,2,1742,덕천역 5번출구
부산 수영구 광안동 536-44,35.16021,129.110626,2,2217,광안성당 옆
부산 사상구 덕포동 416-14,35.17255,128.984024,2,2221,덕포역 2번출구
부산 사상구 주례동 685-17,35.153706,128.993179,2,2244,감전역 1번출구
부산 금정구 부곡동 391-27,35.221527,129.087387,2,2245,온천장역 4번출구(EV)
부산 부산진구 전포동 692-2,35.153835,129.063019,2,2257,전포역 7번출구
부산 부산진구 전포동 874-12,35.163044,129.063934,2,2259,부전역 8번출구
부산 부산진구 가야동 384-2,35.154137,129.038513,2,2261,가야1치안센터
부산 부산진구 양정동 143-1,35.176796,129.075424,2,2263,부산시청역 2번출구
부산 부산진구 가야동 136-32,35.153656,129.029236,2,2283,대명 S-OIL
부산 사하구 괴정동 300-3,35.101593,129.000229,2,2286,대티역 2번출구
부산 사하구 괴정동 1275,35.100037,128.99472,2,2297,괴정역 10번출구
부산 동구 초량동 1209-17,35.114643,129.03891,2,2326,부산역 5번출구
부산 수영구 민락동 113-46,35.154655,129.127762,2,2336,민락매립지 공영주차장
부산 해운대구 우동 539-10,35.163227,129.158813,2,2539,해운대역 7번출구(EV)
부산 해운대구 우동 1483,35.173,129.131119,2,307,부산센텀시티우체국
부산 부산진구 가야동 251-6,35.154808,129.032578,2,3663,롯데하이마트 가야점
부산 강서구 대저2동 1884-2,35.182388,128.957642,2,5762,김해공항(픽업)
부산 해운대구 우동 542-8,35.16185,129.159378,2,5954,해운대역 5번출구(셀프파킹)
부산 금정구 서동 210-24,35.214127,129.106018,2,5962,부산은행 금사공단지점 앞
부산 강서구 명지동 3238,35.084003,128.903305,2,6022,부산은행 명지지점
부산 동구 초량동 1204-9,35.113487,129.040115,2,6040,부산역 2번출구
부산 부산진구 초읍동 275-4,35.177792,129.048691,2,6128,GS슈퍼마켓 초읍점
부산 영도구 동삼동 1,35.075542,129.088654,2,6147,해양대 해사대학관
부산 부산진구 부전동 474-24,35.159058,129.056396,2,6199,서면역 9번출구
부산 서구 서대신동1가 52-8,35.109406,129.017441,2,7311,동대신역 8번출구
부산 부산진구 부전동 504-4,35.156902,129.054306,2,7356,부전동 사거리(더라움 오피스텔)
부산 금정구 부곡동 225-58,35.237701,129.089417,2,7377,장전역 2번출구
부산 남구 용호동 393-13,35.118305,129.112656,2,7386,용호3치안센터 옆
부산 수영구 광안동 192-7,35.15432,129.119141,2,7396,켄트호텔
부산 동래구 명장동 23-2,35.206341,129.101868,2,7509,GS슈퍼마켓 명장점(EV)
부산 북구 구포동 654-24,35.205677,129.003372,2,7531,GS슈퍼마켓 구포점
부산 북구 구포동 896,35.196426,128.995605,2,7569,구남역 공영주차장
부산 부산진구 개금동 511-1,35.15361,129.021515,2,7607,개금역 2번출구
부산 동래구 온천동 754 -12,35.212261,129.076752,2,7611,롯데마트 동래점 뒤
부산 해운대구 재송동 1042-3,35.19241,129.126694,2,7615,해운대 청소년수련관 옆
부산 남구 문현동 359-1,35.137348,129.071609,2,7649,부산은행 문현동지점 옆
부산 중구 남포동5가 12-1,35.098473,129.029358,2,7665,롯데시네마 대영점(EV)
부산 남구 대연동 54-5,35.137421,129.101425,2,7970,리마크빌 부산대연점
부산 해운대구 우동 524-2,35.163349,129.158005,2,8079,GS칼텍스 해운
부산 북구 만덕동 759-3,35.211323,129.024155,2,8093,GS칼텍스 라인(만덕동)
부산 동래구 안락동 250-7,35.19611,129.1064,2,8095,GS칼텍스 태양(부산)
부산 사하구 괴정동 554-19,35.097847,128.986801,2,8121,사하초등학교 앞
부산 서구 부용동1가 69-2,35.105373,129.02037,2,8230,동아대 부민캠퍼스 앞C
부산 해운대구 반송동 248,35.224438,129.155655,2,8231,영산대 해운대캠퍼스
부산 남구 용당동 478-1,35.121967,129.098495,2,8234,부산은행 용당지점
부산 남구 대연동 372-2,35.135254,129.097107,2,8283,대연119안전센터 앞
부산 사하구 하단동 498-1,35.111343,128.964401,2,8285,동아대 승학캠퍼스 맞은편C
부산 남구 대연동 74-17,35.136204,129.098022,2,8288,GS칼텍스 대연C
부산 남구 대연동 86-4,35.138187,129.100693,2,8304,경성대부경대역 2번출구C
부산 사하구 하단동 492-2,35.112415,128.964691,2,8305,동아대학교 앞C
부산 금정구 장전동 424-12,35.229408,129.083969,2,8306,부산대학교 옆C
부산 금정구 장전동 643-117,35.229626,129.088867,2,8307,부산대역 1번출구C
부산 부산진구 가야동 479-2,35.147552,129.030228,2,8319,가야고등학교C
부산 기장군 정관읍 매학리 719-1,35.320503,129.175446,2,8570,로얄듀크2차아파트 뒤편
부산 부산진구 부전동 503-15,35.156666,129.056458,2,8613,롯데백화점 부산본점(EV)
부산 해운대구 우동 1435,35.156719,129.147034,2,8707,부산은행 마린시티점
부산 해운대구 좌동 1315,35.169266,129.178589,2,8778,장산역 1번출구
부산 연제구 연산동 588-14,35.188625,129.083298,2,8945,연산역 14번출구
부산 북구 덕천동 380-2,35.211987,129.010818,2,8948,숙등역 6번출구
부산 사상구 학장동 557,35.141518,128.988098,2,9077,부산학장동우체국 옆
부산 수영구 광안동 491-20,35.161793,129.113266,2,9088,광안역 1번출구
부산 연제구 연산동 585-1,35.190308,129.082932,2,9150,연산센터빌 옆
부산 동래구 온천동 502-3,35.21114,129.076721,2,9184,롯데백화점 동래점(EV)
부산 사상구 괘법동 535-15,35.163738,128.984238,2,9223,사상역 6번출구
부산 영도구 봉래동3가 79-1,35.09293,129.045609,2,9282,봉래교차로
부산 남구 대연동 406-1,35.136944,129.098358,2,9329,경성대부경대역 6번출구(세웅빌딩)C
부산 해운대구 좌동 1466-4,35.171246,129.176819,2,9445,NC백화점 해운대점 뒤(EV)
부산 사하구 하단동 596-5,35.105618,128.962997,2,9483,하단역 2번출구
부산 수영구 광안동 77-12,35.165916,129.118271,2,9678,수영역 11번출구
부산 기장군 기장읍 청강리 25-16,35.242691,129.218536,2,9686,기장역(동해선) 1번출구
부산 해운대구 송정동 531-6,35.18639,129.201935,2,9702,송정역(동해선) 2번출구
부산 해운대구 재송동 362-2,35.180374,129.123718,2,9704,센텀역(동해선) 3번출구
부산 금정구 장전동 422-26,35.229366,129.086014,2,9720,부산대 사거리
부산 수영구 광안동 51-5,35.166931,129.115967,2,9828,수영역 7번출구
부산 해운대구 반여동 1200-2,35.202843,129.118896,2,9891,GS칼텍스 센텀
부산 동구 초량동 1187-1,35.1166,129.042419,2,9962,부산역KTX 6번출구(EV)
부산 북구 만덕동 783-54,35.209835,129.036118,2,9977,만덕2동 주민센터 앞
부산 부산진구 범천동 877-2,35.146175,129.058914,2,9990,범내골역 1번출구
부산 강서구 명지동 3358-1,35.098297,128.920532,2,9991,부산은행 명지국제신도시지점
서울 동대문구 휘경동 183-308,37.592121,127.059509,1,S00001010,회기역 1번출구(해담)(운영종료)
서울 강동구 천호동 404-1,37.541023,127.128738,1,S00001100,천호시장 앞
서울 송파구 풍납동 154,37.53532,127.120201,1,S00001102,풍납토성길(운영종료)
서울 용산구 한강로3가 19-2 용산전자상가 3공영주차장,37.532417,126.960884,1,S00001103,용산전자상가 제3공영 주차장
서울 용산구 도원동 4-5,37.538975,126.95768,1,S00001104,용문동 주민센터(운영종료)
서울 영등포구 영등포동4가 442,37.517071,126.902847,1,S00001112,타임스퀘어
서울 관악구 신림동 652-156,37.466541,126.922348,1,S00001114,난우중 공영주차장
서울 성동구 행당동 4-12 앞,37.560036,127.039223,1,S00001126,왕십리역(비트플렉스)(운영종료)
서울 강동구 강일동 324,37.566746,127.173935,1,S00001129,강일리버파크 3단지 주차장
서울 강동구 천호동 42,37.545498,127.14238,1,S00001131,홈플러스 강동점(운영종료)
서울 강동구 상일동 149,37.552246,127.157033,1,S00001138,강동경희대병원 별관주차장(장례식장)
서울 중구 신당동 330-17,37.558887,127.01339,1,S00001139,청구역 공영주차장
서울 중구 신당동 110-1,37.56496,127.016998,1,S00001140,신당사거리공영
서울 중구 신당동 432-2277,37.549095,127.006271,1,S00001141,버티공영주차장
서울 강북구 번동 148-380,37.624905,127.033295,1,S00001142,번동 햇살공영주차장
서울 관악구 남현동 612-51,37.471642,126.982567,1,S00001143,홈플러스 서울남현점(운영종료)
서울 구로구 개봉동 416-175,37.49707,126.853935,1,S00001144,개봉역 2번출구(운영종료)
서울 도봉구 도봉동 624-105,37.673812,127.04635,1,S00001145,도봉2동 법조타운 공영주차장
서울 도봉구 방학2동 632-1,37.664482,127.033966,1,S00001146,방학2동 도깨비시장공영주차장
서울 도봉구 쌍문2동 710-4,37.661114,127.038673,1,S00001147,제일종합시장 앞
서울 도봉구 쌍문3동 315-62,37.649254,127.029343,1,S00001148,쌍문3동 제2공영주차장
서울 도봉구 창2동 582-22,37.641216,127.036263,1,S00001149,창2동 제4공영주차장
서울 도봉구 창3동 504-21,37.633095,127.041237,1,S00001150,창3동 제1공영주차장
서울 동작구 신대방동 722 동작구시설관리공단,37.493795,126.922693,1,S00001151,보라매동문공영주차장
서울 마포구 공덕동 11-243,37.547333,126.960899,1,S00001152,공덕1-1공영주차장
서울 마포구 합정동 139-21 양화진공영주차장,37.54579,126.91108,1,S00001153,양화진공영 주차장
서울 양천구 목1동 919-8,37.52998,126.874184,1,S00001154,바람개비 공영주차장
서울 용산구 이촌동 302-31,37.520348,126.967316,1,S00001156,이촌역 4번출구(운영종료)
서울 은평구 구산동 340-1,37.614803,126.908463,1,S00001158,구산동 공영주차장
서울 은평구 불광동 400-6 연광초등학교,37.623296,126.923929,1,S00001159,연광 공영주차장
서울 은평구 응암3동 580-4,37.593403,126.915367,1,S00001160,응암3동 공영주차장
서울 마포구 대흥동 794,37.544827,126.940323,1,S00001161,대흥역 3번출구(운영종료)
서울 성동구 사근동 110,37.55891,127.045403,1,S00001162,제1주차동(주차타워)
서울 양천구 신정동 984-1,37.523788,126.860092,1,S00001183,신정역 3번출구(신서고)(운영종료)
서울 중랑구 면목동 380,37.574764,127.083374,1,S00001190,용마산역 1번출구(중곡초교)(운영종료)
서울 송파구 삼전동 175-8,37.500214,127.09594,1,S00001191,삼전동공영 옥상주차장
서울 중구 충무로5가 21,37.563816,127.000122,1,S00001192,묵정공원 공영주차장
서울 은평구 역촌동 산 31-1,37.604309,126.905182,1,S00001202,서북병원주차장
서울 강남구 신사동 568-2,37.523949,127.025314,1,S00001210,신사동 광림아트센터(운영종료)
서울 강서구 공항동 12-3,37.562893,126.814697,1,S00001211,송정역 2번출구(운영종료)
서울 영등포구 신길동 414-62,37.497822,126.90435,1,S00001212,대림소방서 앞(운영종료)
서울 동작구 신대방동 370-1,37.496403,126.92057,1,S00001221,보라매역 2번출구(농심)(운영종료)
서울 강동구 고덕동 302,37.55584,127.156871,1,S00001229,온조대왕문화체육관 옆 공영주차장
서울 광진구 구의동 625-3 동서울길 노상공영주차장,37.532253,127.091854,1,S00001230,동서울 노상공영주차장(유료24)
서울 노원구 상계동 358-4,37.657711,127.063103,1,S00001240,삼일교회 주차장
서울 종로구 홍지동 126-2,37.599251,126.958946,1,S0000141,석파랑주차장
서울 중구 서소문동 37,37.564364,126.974397,1,S0000148,서울시청 서소문청사 주차장
서울 중구 필동2가 19-19,37.560429,126.995445,1,S0000149,예스골프
서울 성북구 석관동 245-4,37.610625,127.057954,1,S0000165,대성주차장(돌곶이역)
서울 성북구 동선동1가 121-6 코아루센타시아,37.593063,127.019234,1,S0000166,코아루센타시아
서울 서대문구 신촌동 74-12,37.559978,126.94191,1,S0000177,신촌기차역(연세대)(운영종료)
서울 서대문구 남가좌동 50-3,37.579704,126.923416,1,S0000178,명지대(운영종료)
서울 동작구 흑석동 95-7,37.506199,126.961945,1,S0000213,새마을금고 서달로점 옆 주차타워
서울 강북구 미아동 207-24,37.627159,127.025154,1,S0000221,대양주차장
서울 강동구 암사동 473-3,37.552322,127.135063,1,S0000225,암사1동 공영주차장
서울 용산구 청파동2가 53-12 숙명여자대학교,37.544544,126.965272,1,S0000227,숙명여자대학교점
서울 강북구 번동 446-13,37.637005,127.025337,1,S0000233,가든타워오피스텔
서울 마포구 신수동 63-18,37.552269,126.937767,1,S0000234,서강대거구장주차장
서울 마포구 상수동 72-1 홍익대학교,37.552567,126.924969,1,S0000235,홍익대학교 홍문관
서울 관악구 봉천동 865-1,37.478999,126.951058,1,S0000237,관악구청 앞
서울 성북구 정릉동 861-1,37.610779,126.99501,1,S0000243,국민대 주차장
서울 강남구 역삼동 738-8,37.499077,127.037262,1,S0000249,현대주차장
서울 강남구 대치동 1000-6,37.507687,127.066147,1,S0000250,제일주차장
서울 서초구 서초동 1445-3 국제전자센터 지하 6층,37.484711,127.017784,1,S0000251,국제전자센터
서울 서초구 반포동 19-3,37.504715,127.002731,1,S0000253,센트럴시티 타워주차장(운영종료)
서울 서초구 서초2동 1359-8,37.486298,127.031029,1,S0000254,양지주차장
서울 서초구 방배동 911-24,37.48259,126.995949,1,S0000256,씨즈빌딩
서울 마포구 상암동 251-1,37.583443,126.88784,1,S0000258,상암DMC(운영종료)
서울 강남구 역삼동 829-20,37.495399,127.032974,1,S0000259,역삼1동문화센터 공영주차장
서울 강남구 논현동 168,37.508205,127.02684,1,S0000260,논현초교 공영주차장
서울 강남구 도곡동 922,37.4869,127.037788,1,S0000261,언주초교 공영주차장
서울 강서구 화곡8동 890,37.529175,126.848946,1,S0000263,곰달래문화복지센터 공영주차장
서울 중랑구 면목동 146-1,37.58799,127.081001,1,S0000292,면목2동 공영주차장
서울 노원구 중계2동 507,37.640308,127.064828,1,S0000298,중계근린공원 공영주차장
서울 동작구 대방동 395-1,37.500149,126.926567,1,S0000322,대방생태공영주차장
서울 도봉구 방학동 720,37.669124,127.047101,1,S0000323,도봉구청 주차장
서울 마포구 성산동 370,37.566311,126.902077,1,S0000325,마포구청 주차장
서울 동작구 노량진2동 47-2,37.512138,126.93956,1,S0000326,동작구청 주차장
서울 양천구 신정동 1051-11,37.518555,126.854286,1,S0000327,신정1동주민센터 주차장
서울 양천구 신정동 321-4,37.516914,126.86647,1,S0000328,양천구청 주차장
서울 양천구 목동 915,37.527527,126.877159,1,S0000329,목동 공영주차장
서울 중구 만리동2가 6-1 손기정공원 손기정체육공원 공영주차장,37.555598,126.964584,1,S0000330,손기정체육공원주차장
서울 중구 초동 64-11,37.56424,126.992096,1,S0000331,초동 공영주차장
서울 중구 신당동 140-29,37.565304,127.020767,1,S0000332,신당역 공영주차장
서울 성북구 하월곡동 104-112,37.604038,127.025833,1,S0000335,길음 환승주차장
서울 강동구 명일동 312-250,37.551014,127.142891,1,S0000336,명일동공영주차장
서울 강서구 화곡동 797-3,37.532272,126.861313,1,S00003466,화곡남부시장(운영종료)
서울 광진구 중곡동 230-12,37.564457,127.08075,1,S0000349,경동주차장
서울 광진구 자양동 219-5,37.536182,127.082512,1,S0000350,구의역
서울 광진구 화양동 1 상허연구관 주차장,37.544493,127.076064,1,S0000353,상허연구관 지하1층 주차장 
서울 용산구 한강로3가 23-1 용산전자상가 제1공영주차장,37.532112,126.964279,1,S0000354,용산전자상가 제1공영주차장
서울 마포구 상암동 1649,37.576145,126.890152,1,S0000356,DMC산학협력연구센터
서울 영등포구 신길동 3203-1,37.50248,126.911278,1,S0000360,신길6동 공영주차장
서울 영등포구 영등포동4가 442-4,37.51796,126.902596,1,S0000361,영등포동 제3공영주차장
서울 마포구 도화동 562,37.541595,126.949829,1,S0000380,도화 공영주차장
서울 용산구 청파동2가 91-1,37.545582,126.96981,1,S0000381,청파동주민센터
서울 마포구 망원동 403-2,37.55558,126.905594,1,S0000382,망원1-2 공영주차장
서울 마포구 노고산동 33-1 지하주차장,37.554855,126.939323,1,S0000383,창천공영주차장
서울 구로구 구로동 2-11,37.50729,126.89122,1,S0000385,신도림역 환승주차장
서울 구로구 구로동 102,37.496964,126.890083,1,S0000386,구로아트밸리 공영주차장
서울 구로구 고척동 52-54,37.502323,126.863892,1,S0000387,고척1동마을 공영주차장
서울 구로구 구로동 704-12,37.491177,126.883133,1,S0000388,고대구로병원 앞(임시폐쇄)
서울 관악구 봉천동 산 110-4,37.488651,126.934349,1,S0000389,보라매제1공영주차장
서울 양천구 신월동 263,37.536076,126.830086,1,S0000393,가로공원 공영주차장
서울 양천구 목3동 610-5,37.548771,126.86618,1,S0000394,등촌역(운영종료)
서울 마포구 서교동 384-8,37.552204,126.912964,1,S0000395,합정역 9번출구(운영종료)
서울 동작구 신대방동 425,37.494515,126.924258,1,S0000396,보라매병원 부설 주차장
서울 동작구 흑석동 105,37.508354,126.962799,1,S0000397,흑석빗물펌프장 공영주차장
서울 중랑구 면목동 378-10,37.574276,127.085014,1,S0000399,용마산역
서울 동작구 사당5동 228-11,37.48576,126.966782,1,S0000400,남성역 2번출구(운영종료)
서울 동작구 상도2동 176-3,37.504776,126.940857,1,S0000401,동작문화복지센터
서울 은평구 불광동 309 세종빌딩,37.619108,126.923135,1,S0000402,세종주차장
서울 서대문구 충정로2가 191,37.563576,126.964516,1,S0000403,골든타워 주차장
서울 서초구 방배동 761-3,37.496236,126.985348,1,S0000404,이수주차빌딩 옥외주차장
서울 동작구 흑석동 200-95,37.505676,126.956989,1,S0000405,중앙대 중문(운영종료)
서울 마포구 공덕동 168 서울신용보증재단,37.549021,126.954001,1,S0000406,서울신용보증재단
서울 마포구 상암동 1605,37.579121,126.890297,1,S0000407,누리꿈스퀘어 주차장
서울 종로구 세종로 80-1 세종로지하주차장 세종로공영주차장,37.573374,126.975915,1,S0000408,세종로공영주차장
서울 성북구 안암동5가 156,37.589043,127.029129,1,S0000410,개운사 주차장
서울 서초구 서초동 1714-17,37.49453,127.0131,1,S0000414,칠보빌딩 주차장
서울 서대문구 홍제동 306-2,37.588266,126.944153,1,S0000423,홍제주차장
서울 송파구 송파동 85-3,37.505314,127.10849,1,S0000427,신송파주차장
서울 마포구 서교동 490 메세나폴리스,37.551784,126.913619,1,S0000461,메세나폴리스
서울 종로구 관훈동 112-4,37.57571,126.984322,1,S0000463,하이파킹 관훈점
서울 용산구 동자동 45,37.551586,126.973236,1,S0000464,GS파크 KDB생명타워
서울 성동구 마장동 399-98,37.562084,127.040756,1,S0000468,마장국민체육센터 주차장
서울 성동구 송정동 68-44,37.549351,127.067825,1,S0000470,대진주차장
서울 광진구 화양동 49-9,37.542362,127.065125,1,S0000471,청화주차장
서울 구로구 개봉동 261-2,37.491322,126.856514,1,S0000473,개봉2동 주민센터
서울 은평구 대조동 15-131,37.608589,126.929649,1,S0000479,불광역(운영종료)
서울 서초구 방배동 894-4,37.488117,126.996223,1,S0000482,내방역 1번출구(운영종료)
서울 강서구 화곡동 1070-12,37.539932,126.835579,1,S0000491,화곡역(운영종료)
서울 강서구 화곡동 995-3,37.551617,126.848076,1,S0000492,강서구청 앞(운영종료)
서울 금천구 시흥동 886-13,37.453214,126.903289,1,S0000494,상인회 주차장
서울 관악구 봉천동 42-1,37.48597,126.955574,1,S0000496,은천삼거리(운영종료)
서울 강동구 명일동 47-12,37.553265,127.154762,1,S0000499,명일씨티코아
서울 강서구 방화동 620-191,37.56255,126.808563,1,S0000503,공항시장역(운영종료)
서울 구로구 신도림동 337,37.509449,126.88736,1,S0000505,푸르지오1차 주차장
서울 마포구 서교동 460-32,37.556442,126.917358,1,S0000517,삼성유료주차장
서울 동작구 대방동 341-19,37.512112,126.926369,1,S0000520,대방역(운영종료)
서울 관악구 봉천동 1537-3,37.478001,126.939819,1,S0000522,쑥고개 주차장
서울 관악구 신림동 1695 동부상가 지하1층 주차장,37.480883,126.92932,1,S0000523,동부상가 주차장
서울 구로구 구로동 586-9,37.502018,126.882378,1,S0000525,구로역(운영종료)
서울 강서구 화곡동 1112-10,37.553585,126.852303,1,S0000529,강서구청(운영종료)
서울 송파구 잠실동 205-19,37.509785,127.083778,1,S0000530,오징어세상 주차장
서울 강동구 성내동 382-6,37.533585,127.133957,1,S0000532,길상주차장
서울 성동구 성수동2가 302-11,37.54377,127.052132,1,S0000534,성수역(운영종료)
서울 동대문구 제기동 271-50,37.579777,127.035042,1,S0000536,제기동역 2번출구(운영종료)
서울 동작구 노량진1동 59-35,37.513271,126.941841,1,S0000537,한주주차장
서울 강북구 미아동 1346-6,37.619431,127.020363,1,S0000538,삼양사거리역 1번출구
서울 강북구 수유동 612-6,37.632015,127.023613,1,S0000539,쌈지주차장
서울 강북구 미아동 60-16,37.61364,127.029587,1,S0000541,숭인주차장
서울 도봉구 창동 655-15,37.646961,127.03418,1,S0000542,흥일주차장
서울 동대문구 휘경동 283-5,37.589523,127.063044,1,S0000551,삼육서울병원 정산소 옆 주차장
서울 중랑구 면목3동 570,37.58357,127.087799,1,S0000552,까치공원 공영주차장
서울 중랑구 상봉동 110-38,37.592957,127.084122,1,S0000553,상봉2동주차장
서울 중랑구 중화동 304-2,37.601208,127.078423,1,S0000554,중화역
서울 성동구 행당동 293-11,37.560179,127.033657,1,S0000555,동남주차장
서울 구로구 구로동 806-68,37.486092,126.886032,1,S0000563,남구로역(운영종료)
서울 강동구 성내동 552-2,37.529743,127.122414,1,S0000564,JDX골프웨어 주차장
서울 종로구 이화동 215,37.575748,127.003288,1,S0000566,동신주차장
서울 관악구 봉천동 961-15,37.485855,126.934425,1,S0000567,관악우체국삼거리(운영종료)
서울 강남구 역삼동 795-25,37.49255,127.038857,1,S00005701,도곡로21길7 공영주차장
서울 성동구 성수동1가 685-191 성수파크빌,37.548247,127.039644,1,S0000571,율헌빌 주차장(폐쇄존 주소변경)
서울 노원구 상계동 770-2,37.645077,127.058289,1,S0000572,마들스타디움 공영주차장
서울 서초구 서초동 1561-9,37.489277,127.011459,1,S0000573,한성주차장
서울 강남구 삼성동 119-4,37.512375,127.052834,1,S0000574,차관아파트사거리
서울 영등포구 신길동 107-4,37.513294,126.917,1,S0000578,신길유료주차장
서울 강서구 등촌동 629-7,37.558167,126.858261,1,S0000579,SJ등촌골프연습장 주차장
서울 종로구 명륜2가 150-1 제일주차장,37.584341,126.998172,1,S0000584,제일주차장
서울 강남구 역삼동 725-28,37.499817,127.040283,1,S0000586,삼성주차장
서울 금천구 가산동 464-2,37.482426,126.881973,1,S0000587,가산디지털단지역 7번출구(운영종료)
서울 금천구 독산동 951-4 현경빌딩,37.479391,126.903435,1,S0000588,현경주차장
서울 동대문구 전농동 206-113,37.579712,127.054436,1,S0000590,서울시립대 앞(운영종료)
서울 은평구 역촌동 85-41,37.599194,126.915253,1,S0000593,리더스파크아파트
서울 강남구 역삼동 635-2,37.500458,127.03054,1,S0000594,한국과학기술회관
서울 강남구 삼성동 159,37.510391,127.058777,1,S0000595,오크우드프리미어호텔
서울 동대문구 청량리동 746,37.58036,127.044373,1,S0000598,삼우주차장
서울 동대문구 답십리동 530-8,37.568459,127.051956,1,S0000599,88주차장 (차단기 없는 지상주차장)
서울 성북구 돈암동 538-59,37.599251,127.014458,1,S0000600,아리랑시네센터주차장
서울 서대문구 대현동 145,37.557541,126.944977,1,S0000604,yesAPM주차장
서울 강남구 역삼동 629-5,37.503487,127.034302,1,S0000606,제일주차장
서울 강남구 논현동 213-35,37.513321,127.032928,1,S0000609,논현탁구클럽 주차장
서울 성북구 동선동2가 134 모아빌딩,37.59073,127.018926,1,S0000610,성신주차장
서울 송파구 잠실동 186-9,37.510269,127.084229,1,S0000611,잠실새내역(운영종료)
서울 강남구 신사동 664-23,37.526798,127.039551,1,S0000612,압구정주차장
서울 영등포구 신길동 219-8,37.511471,126.911537,1,S0000613,우신초교 앞(운영종료)
서울 종로구 서린동 132,37.569744,126.979622,1,S0000614,광화문역 5번출구(운영종료)
서울 강서구 개화동 491-3,37.577858,126.798027,1,S0000617,개화역광역 환승센터 주차장
서울 중랑구 상봉동 83-1,37.595772,127.092499,1,S0000619,하이파킹 상봉점
서울 동대문구 장안동 458-8,37.562229,127.068687,1,S0000620,AJ파크 장안점(덕원주차장)
서울 동작구 상도3동 324-1,37.499748,126.931961,1,S0000622,하이파킹 상도성대시장점
서울 중구 정동 5-8,37.565372,126.977432,1,S00006405,서울시청광장 노상주차장
서울 서대문구 냉천동 31 감리교신학대학,37.567676,126.963462,1,S0000652,감리교신학대학교
서울 강서구 화곡동 61-184,37.541023,126.847359,1,S0000664,화일주차장
서울 강남구 역삼동 815,37.50132,127.026482,1,S0000665,점프밀라노
서울 양천구 신월동 545-3,37.517849,126.841125,1,S0000666,신월 바다주차장
서울 마포구 아현동 270-15,37.554234,126.956841,1,S0000667,아현주차장
서울 마포구 연남동 493-50,37.561089,126.918877,1,S0000669,연남동(가버나움)(운영종료)
서울 관악구 신림동 1523-1,37.470535,126.934486,1,S0000670,일성트루엘 주차장
서울 용산구 한남동 522-44,37.529758,127.007401,1,S0000673,한남역 1번출구(임시폐쇄)
서울 강남구 논현동 206-19,37.50724,127.031937,1,S0000674,차병원사거리(운영종료)
서울 서대문구 홍제동 294-84 홍제견인차량보관소,37.590636,126.940674,1,S0000675,홍제1동(1지구)견인보관소
서울 강남구 논현동 7-18,37.518848,127.02758,1,S0000676,강남을지병원앞사거리(운영종료)
서울 용산구 이태원동 181-8,37.53463,126.990356,1,S0000682,세계로주차장
서울 강남구 대치동 982-10,37.50264,127.063988,1,S0000687,대치2동 주민센터 앞
서울 강남구 삼성동 36-8,37.511578,127.044456,1,S0000688,선정릉역 2번출구(운영종료)
서울 광진구 자양동 680-7,37.536049,127.084259,1,S0000690,공간주차장
서울 강동구 둔촌동 489-4,37.530453,127.138016,1,S0000692,둔촌동역 1번출구(운영종료)
서울 강동구 길동 392-6,37.538223,127.141151,1,S0000693,길동주차장
서울 동작구 상도동 188-19,37.502449,126.936119,1,S0000696,동작경희병원 주차장
서울 성북구 정릉동 286-23,37.61166,127.008888,1,S0000697,정릉동(운영종료)
서울 송파구 송파동 99-1,37.502472,127.113045,1,S0000698,잠실여고 후문 주차장
서울 영등포구 당산동5가 9-2,37.533237,126.900581,1,S0000699,당산삼성쉐르빌
서울 성북구 삼선동4가 18-6,37.588623,127.010368,1,S0000702,삼선교주차장
서울 양천구 목동 808-31,37.527897,126.864609,1,S0000703,화창주차장
서울 서초구 양재2동 272-11,37.474705,127.044586,1,S0000705,언남고교(운영종료)
서울 강서구 등촌2동 505-10,37.55117,126.863007,1,S0000707,등촌역 8번출구(운영종료)
서울 강서구 방화동 484-17,37.573521,126.810539,1,S0000708,엔더블유임대 주차장
서울 용산구 후암동 258-8,37.546192,126.979309,1,S0000711,용산고교 앞(운영종료)
서울 동작구 사당동 318-12,37.483013,126.974388,1,S0000715,지산주차장
서울 양천구 신월동 21-1,37.540606,126.831211,1,S0000716,신월주차장
서울 영등포구 양평동2가 40-9,37.523678,126.882935,1,S0000717,오목교주차장
서울 중랑구 상봉동 136-50,37.592701,127.074257,1,S0000725,중랑역 4번출구(운영종료)
서울 종로구 숭인동 1063,37.575424,127.022072,1,S0000726,계명주차장
서울 종로구 당주동 163-6,37.571144,126.974205,1,S0000727,광화문역 1번출구(운영종료)
서울 동대문구 청량리동 235-4,37.582483,127.047236,1,S0000728,미주상가A동주차장
서울 강서구 방화동 886,37.563141,126.803329,1,S0000729,김포공항(스카이파크)(운영종료)
서울 관악구 신림동 598-169,37.475101,126.919846,1,S0000730,난곡사거리(운영종료)
서울 은평구 불광동 13-5,37.61922,126.932715,1,S0000741,수양유료주차장
서울 양천구 목동 405-268,37.524246,126.874771,1,S0000742,오목교역 7번출구(운영종료)
서울 서초구 서초동 1302-46,37.503288,127.022766,1,S0000743,양정주차장
서울 강남구 역삼동 674-14,37.503876,127.040421,1,S0000745,대명주차장
서울 강남구 논현동 241-3,37.516899,127.041004,1,S0000746,SK허브블루빌딩
서울 성동구 도선동 252,37.563454,127.033257,1,S0000748,유료주차장(상왕십리역 3번출구)
서울 은평구 구산동 1-1,37.61116,126.91674,1,S0000749,영진빌딩주차장
서울 양천구 신월동 411-1,37.525654,126.837776,1,S0000750,신월4동 공영주차장
서울 강북구 수유동 10-4,37.637978,127.022629,1,S0000753,대명주차장(수유역 5번출구)
서울 강남구 역삼동 790-6,37.495419,127.038849,1,S0000754,아산재단빌딩 MARU180
서울 서초구 반포동 707,37.509798,127.021044,1,S0000756,더레인지 주차장
서울 강남구 일원동 4-49,37.493992,127.087379,1,S0000762,탄천제2호 공영주차장
서울 강남구 세곡동 122-2,37.464298,127.106133,1,S0000763,대왕초교(운영종료)
서울 강동구 천호동 34-6,37.546406,127.142639,1,S0000766,섣받탕쭈꾸미 옆 주차장
서울 관악구 봉천동 492-26,37.48851,126.946861,1,S0000768,구암초교 앞(운영종료)
서울 광진구 중곡동 115-4,37.553181,127.089447,1,S0000769,대공원 맞은편 유료민영주차장
서울 동대문구 장안동 331-2,37.572552,127.07412,1,S0000772,장안동사거리(운영종료)
서울 동작구 노량진동 270-3,37.511608,126.934731,1,S0000773,삼하주차장
서울 서초구 양재동 399,37.471603,127.048515,1,S0000774,구룡공원 공영주차장
서울 서초구 서초동 1357-65,37.487877,127.031799,1,S0000776,뱅뱅사거리(운영종료)
서울 영등포구 양평동5가 41-1,37.539368,126.890053,1,S0000779,선유도역 8번출구(운영종료)
서울 중랑구 면목동 42-58,37.588318,127.095261,1,S0000780,서일대 앞(운영종료)
서울 중랑구 면목동 121-24,37.589333,127.08799,1,S0000781,동원주차장
서울 서초구 방배동 941-4,37.485821,126.990158,1,S0000783,내방역 4번출구(운영종료)
서울 양천구 목동 525,37.546124,126.874611,1,S0000784,염창역 3번출구(운영종료)
서울 용산구 효창동 255-11,37.543869,126.962006,1,S0000786,효창운동장(운영종료)
서울 종로구 인사동 119-1,37.570934,126.985939,1,S0000787,종각역 3번출구(운영종료)
서울 중구 장충동1가 35-2,37.561745,127.00779,1,S0000789,장충주차장
서울 강동구 강일동 302-4,37.565132,127.173241,1,S0000798,강일동견인보관소 앞(운영종료)
서울 노원구 공릉동 461-1,37.630054,127.075577,1,S0000799,서울과기대 정문
서울 성북구 하월곡동 92-38,37.603088,127.043259,1,S0000802,월곡역 4번출구(운영종료)
서울 성북구 보문동5가 145-4,37.58279,127.020241,1,S0000803,행복유료주차장
서울 영등포구 신길동 445-2,37.498867,126.908081,1,S0000806,신풍주차장
서울 중구 남대문로5가 581,37.554298,126.973892,1,S0000808,서울역 10번출구(서울시티타워)(운영종료)
서울 강동구 명일동 324-14,37.549828,127.144318,1,S0000809,우리주차장
서울 구로구 구로동 1127-22,37.482109,126.898918,1,S0000812,티타운빌딩 주차장
서울 은평구 증산동 177-6,37.580872,126.90612,1,S0000818,유료주차장
서울 동작구 사당동 200-1,37.488628,126.969193,1,S0000836,총신대(운영종료)
서울 중구 을지로6가 18-130,37.566559,127.00663,1,S0000838,동대문역사문화공원역 13번출구(K-POP HOTEL)(운영종료)
서울 관악구 신림동 1641-2,37.48373,126.930145,1,S0000843,타임스트림 주차장
서울 금천구 가산동 60-15,37.480499,126.884308,1,S0000854,리더스타워 주차장
서울 송파구 장지동 879,37.478802,127.141312,1,S0000870,위례신도시 22단지
서울 관악구 신림동 209-1,37.46801,126.944778,1,S0000875,관악문화관도서관 지하주차장
서울 성북구 장위동 238-401,37.613232,127.05101,1,S0000893,장위시장(운영종료)
서울 양천구 신월동 166-23,37.534367,126.828514,1,S0000894,신우공영주차장
서울 양천구 신정동 919-6,37.527222,126.855621,1,S0000895,신정역 2번출구(운영종료)
서울 성북구 종암동 25-68,37.59285,127.036018,1,S0000896,고려대역 2번출구(운영종료)
서울 동작구 사당동 1044-4,37.476944,126.978531,1,S0000901,CK프라자빌딩주차장
서울 종로구 숭인동 292-1,37.572975,127.016609,1,S0000902,동묘앞역 4번출구(운영종료)
서울 송파구 문정동 150-27,37.491314,127.11647,1,S0000907,행운주차장
서울 노원구 상계동 371-9,37.657448,127.066887,1,S0000909,상계초교입구(운영종료)
서울 마포구 상암동 1137,37.576454,126.899605,1,S0000910,하이파킹 상암DMC점
서울 동작구 신대방동 351-5,37.498615,126.927544,1,S0000917,금성주차장
서울 용산구 한강로3가 40-999,37.528898,126.963967,1,S0000929,용산 HDC아이파크몰 해주차장
서울 금천구 가산동 459-11,37.482128,126.881348,1,S0000931,제이플라츠 주차장
서울 종로구 낙원동 254-4,37.572979,126.987991,1,X0000001,낙원상가
서울 용산구 문배동 24-5,37.536938,126.969714,1,X0000010,용산등기소 노상공영주차장
서울 용산구 이태원1동 126-17,37.534607,126.996788,1,X0000011,이태원역(3번출구 이태원로)(운영종료)
서울 노원구 상계동 84-23 앞,37.664539,127.07589,1,X0000018,당고개전철밑 노상공영주차장
서울 서대문구 영천동 252,37.571552,126.959663,1,X0000021,독립문고가 밑 공영주차장
서울 양천구 목동 906-1,37.533836,126.876534,1,X0000026,파리공원(운영종료)
서울 양천구 신정동 321-3,37.518017,126.866768,1,X0000027,양천구청 앞(운영종료)
서울 양천구 신정동 322-3,37.517155,126.864655,1,X0000028,양천경찰서(운영종료)
서울 구로구 가리봉동 127-13 앞,37.479504,126.889412,1,X0000035,가리봉오거리(운영종료)
서울 금천구 독산동 1081-4,37.466496,126.889717,1,X0000039,독산역 1번출구 앞 공영주차장
서울 영등포구 여의도동 40-3,37.522663,126.937386,1,X0000042,여의나루역(4번출구 원효대교남단)(운영종료)
서울 영등포구 신길동 812,37.504299,126.92115,1,X0000043,보라매역(6번출구 해군회관앞)(운영종료)
서울 영등포구 당산동5가 11-39,37.532478,126.900848,1,X0000046,당산고가밑 공영주차장
서울 동작구 본동 5-5,37.513134,126.956917,1,X0000049,노들역(운영종료)
서울 강남구 신사동 581-13 앞(압구정역 4번출구 앞),37.525791,127.02839,1,X0000052,압구정고가2 공영주차장
서울 종로구 종로4가 32-7,37.571003,126.995918,1,X0000058,종묘 공영주차장
서울 용산구 한남동 728-27,37.539037,127.002469,1,X0000061,한강진역 공영 상부주차장
서울 성동구 옥수동 377-5 앞,37.542034,127.017395,1,X0000064,옥수역 노상공영주차장
서울 동대문구 신설동 114-29,37.572552,127.024399,1,X0000065,신설동 공영주차장
서울 동대문구 장안동 286-9,37.578087,127.070602,1,X0000066,장안2동 공영주차장(기계식)
서울 노원구 월계동 50-9,37.615163,127.063269,1,X0000069,문화공원 옆 석계역 공영주차장
서울 양천구 목동 908-26,37.53688,126.881172,1,X0000070,목동체비지 공영주차장
서울 양천구 신정동 943-25,37.52375,126.85141,1,X0000071,웃우물 공영주차장 (기계식)
서울 강서구 가양동 1488-12,37.560436,126.859543,1,X0000073,증미역(운영종료)
서울 강서구 가양동 1480-10,37.563465,126.852669,1,X0000074,영보빌딩 공영주차장
서울 구로구 구로동 120-5,37.492851,126.894188,1,X0000077,대림노외 구로2빗물펌프장 공영주차장
서울 금천구 시흥동 산139-2,37.4627,126.906441,1,X0000078,남부여성발전센터 공영주차장
서울 영등포구 당산동3가 370-3 지하1층,37.524204,126.895493,1,X0000079,영등포구청역 공영주차장
서울 동작구 신대방동 431-3,37.490322,126.92321,1,X0000081,보라매공원(운영종료)
서울 관악구 신림동 516,37.487411,126.913292,1,X0000082,신대방노외 공영주차장
서울 강남구 일원동 716-2,37.484592,127.08374,1,X0000084,공영일원주차장
서울 송파구 신천동 29 잠실역 공영주차장,37.514513,127.104724,1,X0000085,잠실역 공영주차장
서울 중랑구 묵동 29,37.619637,127.086697,1,X0000086,화랑대역 공영주차장
서울 도봉구 창동 1-9,37.654112,127.050253,1,X0000090,창동역 1번출구(운영종료)
서울 노원구 상계동 1268,37.679218,127.056061,1,X0000091,수락산역 공영주차장
서울 노원구 월계동 320-2,37.634495,127.059319,1,X0000092,월계역(운영종료)
서울 은평구 진관동 66-30,37.638229,126.918907,1,X0000093,구파발역 공영주차장
서울 마포구 마포동 36-1 마포주차장,37.539082,126.942846,1,X0000094,마포유수지 공영주차장
서울 강서구 방화동 844,37.5723,126.804244,1,X0000095,개화산역 공영주차장
서울 강서구 방화동 830-4,37.577251,126.813286,1,X0000097,방화역(동) 공영주차장
서울 구로구 구로동 810-3,37.485348,126.902458,1,X0000100,구로디지털단지역 고가 아래 공영주차장
서울 구로구 천왕동 14-128 천왕역 광역환승센터,37.487138,126.83908,1,X0000101,천왕역 공영주차장
서울 구로구 온수동 51-26,37.49184,126.824012,1,X0000103,온수역(남) 노상공영주차장
서울 관악구 신림동 1677-4,37.484634,126.903992,1,X0000104,견인보관소 공영주차장
서울 서초구 방배동 506-9,37.475535,126.983326,1,X0000105,사당역 공영주차장(서울시설관리공단)
서울 강남구 대치동 514-1 옆,37.497005,127.07254,1,X0000107,학여울역 환승공영주차장
서울 송파구 장지동 561-55,37.469597,127.127625,1,X0000108,복정역 공영주차장
서울 강동구 성내동 57-12  천호역 공영주차장,37.537635,127.126201,1,X0000109,천호역 공영주차장
서울 광진구 군자동 98,37.551083,127.075516,2,10006,세종대학교 대양AI센터
서울 동작구 상도동 511,37.49675,126.956985,2,10014,숭실대학교 학생회관
서울 노원구 월계동 85 광운대역,37.624649,127.061073,2,10021,광운대역주차장
서울 영등포구 영등포동4가 442-2,37.515774,126.902794,2,10053,영등포 타임스퀘어 옆(EV)
서울 서초구 방배동 507-1,37.475273,126.983047,2,10059,사당역 공영주차장(EV)
서울 영등포구 당산동3가 370-3,37.524311,126.895103,2,10061,영등포구청역 공영주차장(EV)
서울 강동구 성내동 57-12,37.537445,127.127853,2,10064,천호역 지하환승공영주차장(EV)
서울 은평구 진관동 70-1 구파발역복합환승센터,37.638317,126.919197,2,10067,구파발역 공영주차장(EV)
서울 마포구 마포동 36-1 마포주차장,37.539433,126.942696,2,10068,마포 공영주차장(EV)
서울 강북구 미아동 67-1 햇빛병원,37.61533,127.03064,2,10070,롯데백화점 미아점(EV)
서울 노원구 상계동 713 롯데백화점,37.655392,127.060898,2,10073,롯데백화점 노원점(EV)
서울 마포구 상암동 1648 S-PLEX CENTER,37.575562,126.890381,2,10074,에스플렉스센터(EV)
서울 강서구 방화동 886,37.563492,126.803436,2,10076,롯데몰 김포공항점(EV)
서울 강남구 수서동 735,37.487473,127.099968,2,10078,수서역 공영환승주차장(EV)
서울 성동구 행당동 168-2 더 리치빌,37.562801,127.037254,2,10079,성동구청(EV)
서울 성북구 길음동 21-73 GS세창주유소,37.608757,127.029678,2,10084,GS칼텍스 세창
서울 도봉구 도봉동 561-6,37.684368,127.045914,2,10085,GS칼텍스 도봉
서울 강동구 천호동 563 동아코아아파트,37.541096,127.125694,2,10094,2001아울렛 천호점(EV)
서울 강남구 대치동 890-20 KT 선릉타워 East,37.505119,127.052856,2,10095,선릉역 1번출구(EV)
서울 서대문구 홍제동 306-2,37.588531,126.944168,2,101,홍제역 3번출구
서울 구로구 오류동 64-28,37.495502,126.846024,2,10102,오류동역 4번출구(오류문화센터)
서울 송파구 잠실동 40-1,37.511524,127.100586,2,10115,롯데백화점 잠실점(EV)
서울 강남구 역삼동 679 GS강남타워,37.501804,127.036964,2,10126,역삼역 7번출구(EV)
서울 송파구 방이동 64-12 효창플라자,37.514244,127.108734,2,10132,방이동 먹자골목
서울 용산구 보광동 259-1 용호빌딩,37.528381,126.999161,2,10157,보광동 도솔암주차장
서울 강북구 미아동 330-31,37.618382,127.028297,2,10158,솔샘어린이공원 옆
서울 금천구 독산동 436-3,37.459343,126.897469,2,10159,롯데마트 금천점
서울 도봉구 쌍문동 653 삼환프라자,37.656136,127.038773,2,10187,도봉보건소 교차로
서울 광진구 광장동 353 장로회신학대학교,37.549423,127.10498,2,10192,장로회신학대학교
서울 강남구 삼성동 16-1 강남구청,37.517086,127.048157,2,10194,강남구청
서울 양천구 신월동 482-11,37.524303,126.845123,2,10210,신월동 당곡공영주차장
서울 양천구 신정동 1018-3,37.521606,126.860588,2,10211,신정동 법마을공영주차장
서울 종로구 창신동 285,37.573215,127.015228,2,10220,동묘앞역 9번출구
서울 노원구 공릉동 753 길성그랑프리텔,37.627712,127.07106,2,10238,공릉역 4번출구
서울 서대문구 연희동 87-5,37.570366,126.934219,2,10239,서울연희초교 옆
서울 구로구 항동 135-59,37.47953,126.826073,2,10247,항동 하버라인10단지아파트
서울 양천구 신월동 263,37.536068,126.830132,2,10274,양천가로공원 공영주차장(EV)
서울 은평구 증산동 164-1,37.585785,126.91111,2,10276,증산역 4번출구(유니온빌딩)
서울 중랑구 상봉동 172 망우역,37.599136,127.092949,2,10298,망우역 1번출구
서울 서대문구 남가좌동 328-17,37.576118,126.926361,2,10312,남가좌동 청년누리 오피스텔
서울 성북구 동소문동5가 120 돈암동일하이빌,37.591549,127.015083,2,10318,성신여대입구역(돈암동일하이빌)
서울 금천구 시흥동 243-12,37.450928,126.913445,2,10327,시흥2동 공영주차장
서울 금천구 시흥동 917-5,37.449799,126.908852,2,10329,시흥5동 공영주차장
서울 금천구 시흥동 798-59,37.460648,126.908157,2,10332,시흥4동 주택가공영주차장
서울 금천구 가산동 148-28,37.476654,126.895523,2,10334,가산동 공영주차장
서울 금천구 독산동 898-24,37.47945,126.906357,2,10335,독산3동 공영주차장(EV)
서울 구로구 구로동 754-4,37.490765,126.883804,2,10368,GS칼텍스 구로
서울 구로구 구로동 100-10,37.496178,126.888412,2,10372,GS칼텍스 구로그린
서울 영등포구 양평동4가 28 한강로 주유소,37.535561,126.89798,2,10373,GS칼텍스 제2한강
서울 성동구 홍익동 57 베론하이츠빌,37.567997,127.031868,2,10381,청계벽산아파트 옆
서울 성동구 마장동 782-7 명신빌딩,37.566154,127.043671,2,10387,마장역 3번출구(거주자우선주차구역)
서울 성동구 행당동 168-151 왕십리민자역사,37.559689,127.039398,2,10390,왕십리 문화카페거리
서울 성동구 옥수동 414,37.543976,127.017029,2,10398,옥수고가밑 거주자우선주차구역
서울 성동구 성수동1가 685-191 성수파크빌,37.548584,127.041237,2,10399,뚝섬유수지 체육공원 옆
서울 은평구 신사동 35-11,37.593983,126.914246,2,10404,GS칼텍스 신사제일
서울 중랑구 중화동 73-5,37.598572,127.073112,2,10413,중화 제1공영주차장
서울 중랑구 중화동 73-4,37.597244,127.075409,2,10414,중화 제2공영주차장
서울 중랑구 중화동 73-3,37.596569,127.076393,2,10415,중화 제3공영주차장
서울 성북구 길음동 531-33 안산부인과,37.604343,127.0243,2,10424,길음역 안산부인과주차장
서울 강남구 논현동 108 논현웰스톤,37.51852,127.03801,2,10433,논현웰스톤
서울 송파구 문정동 634 가든파이브라이프,37.477798,127.124374,2,10453,장지역 가든파이브라이프
서울 강서구 화곡동 998-9,37.551266,126.848732,2,10485,화곡동 원풍빌딩
서울 은평구 수색동 380-1 수색치안센터,37.58181,126.894516,2,10495,수색역
경기 성남시 수정구 복정동 산42 동서울대학,37.459274,127.127296,2,10499,동서울대학교C
서울 양천구 신정동 322-5,37.517059,126.863838,2,105,양천문화회관
서울 성북구 정릉동 861-1 국민대학교,37.610886,126.995102,2,10514,국민대학교
서울 강북구 미아동 121-21 미성빌딩,37.625515,127.027092,2,10515,미아역 4번출구
서울 용산구 동자동 43-205 서울역(철도역),37.555862,126.970505,2,10519,서울역사
서울 마포구 서교동 441-9,37.556522,126.910316,2,10523,망원역 1번출구
서울 구로구 오류동 135-3,37.493847,126.844673,2,10524,오류동역 1번출구(행복주차장)
서울 서대문구 충정로2가 78-13 충현동 제1공영주차장,37.565235,126.964584,2,10525,서대문역 1번출구
서울 영등포구 영등포동3가 9-18,37.51757,126.906578,2,10526,영등포역 5번출구(에쉐르아이)
서울 도봉구 쌍문동 715-2,37.660259,127.040802,2,10528,방학사거리
서울 중랑구 면목동 162-22,37.583309,127.080215,2,10538,면목5동 공영주차장
서울 중랑구 망우동 440 면일초등학교,37.59148,127.099091,2,10540,면일초교 공영주차장
서울 중랑구 면목동 380 중곡초등학교,37.574833,127.083481,2,10541,중곡초교 공영주차장
서울 중구 충무로3가 60-1 남산스퀘어,37.56147,126.990997,2,10558,충무로역 5번출구(남산스퀘어)
서울 강남구 신사동 575 극동타워,37.525482,127.026054,2,10559,압구정역 4번출구
서울 마포구 동교동 160-4 아일렉스,37.556118,126.922043,2,10566,홍대입구역 1번출구(아일렉스)
서울 중랑구 면목동 168-2,37.579842,127.080833,2,10573,면목유수지 공영주차장
서울 송파구 가락동 479,37.498566,127.103447,2,10575,송파책박물관
서울 양천구 목동 915,37.526802,126.876343,2,10576,오목교역 목동공영주차장(EV)
서울 강서구 가양동 1480-5,37.562565,126.85305,2,10607,가양역 1번출구(이스타빌)
서울 동작구 상도동 210-221,37.498249,126.942772,2,10620,상도동 글릭하우스(CNH홈)
서울 강북구 수유동 178-45 흥부네빌딩,37.64183,127.024895,2,10621,수유동 예일빌딩
서울 노원구 상계동 163-3 상계캐슬,37.663765,127.069641,2,10623,상계5동 주민센터 앞
서울 도봉구 창동 38-5,37.643944,127.052063,2,10646,녹천역 3번출구
서울 도봉구 쌍문동 508-24 청솔브레싱빌,37.657055,127.014381,2,10647,솔밭공원역 1번출구(노상)
서울 도봉구 쌍문동 271-2,37.651318,127.026932,2,10655,쌍문극동아파트 후문 옆
서울 도봉구 쌍문동 53 성원아파트,37.658672,127.028458,2,10660,방학3동 주민센터 옆
서울 동대문구 휘경동 308-32 휘경마을공영주차장,37.588066,127.05822,2,10681,휘경마을 공영주차장C
서울 중랑구 망우동 529-2 망우3동 주민센터,37.59182,127.094933,2,10683,망우3동 공영주차장
서울 용산구 청파동1가 132-10 청파파크빌,37.548985,126.969009,2,10712,청파동 청파파크빌
서울 강동구 천호동 391-3 광호파크타운,37.54406,127.129417,2,10718,천호동 광호파크타운
서울 송파구 잠실동 27-6 잠실주공아파트,37.512787,127.093826,2,10720,GS슈퍼마켓 잠실점
서울 양천구 신월동 26,37.539722,126.829308,2,10726,이마트 신월점
서울 송파구 잠실동 294-3 성현교회,37.506233,127.080208,2,10734,아시아선수촌아파트 삼거리
서울 도봉구 쌍문동 508-1 정안빌딩,37.657196,127.014267,2,10743,솔밭공원역 1번출구(이마트에브리데이)
서울 마포구 아현동 686 크레디트센터빌딩,37.553738,126.95652,2,10744,애오개역 2번출구(크레디트센터)
서울 중랑구 중화동 73-7 중랑역사,37.595291,127.077812,2,10749,중랑역 2번출구
서울 중구 회현동2가 88 스테이트타워 남산,37.5602,126.983597,2,10753,명동역 4번출구
서울 금천구 독산동 332-13,37.467335,126.892914,2,10756,독산동 청년주택
서울 성동구 성수동1가 656-335 메가박스 스퀘어,37.542011,127.044662,2,10757,서울숲역 2번출구(메가박스 성수점)
서울 동대문구 휘경동 183-308 해담,37.592037,127.059494,2,10774,휘경동 해담
서울 마포구 합정동 472 마포 한강 푸르지오,37.549694,126.911736,2,10790,합정역 8번출구(마포한강푸르지오1차)
서울 강남구 역삼동 705-9 삼흥오피스텔,37.504601,127.047684,2,10802,선릉역 5번출구
서울 도봉구 도봉동 639 도봉역,37.6759,127.045097,2,10803,도봉2동 4공영주차장
서울 강서구 마곡동 738-3,37.568165,126.824806,2,10829,마곡 스프링파크타워
서울 강서구 마곡동 798-14,37.558495,126.824791,2,10830,마곡M시그니처
서울 광진구 화양동 1 건국대학교사범대학부속중학교,37.540874,127.082878,2,10838,광진경찰서 옆
서울 성동구 행당동 377 서울숲 더샵,37.555817,127.040619,2,10839,엔터식스 한양대점
서울 관악구 신림동 626,37.472069,126.921661,2,10853,신림동 성지하우스
서울 마포구 합정동 473 마포 한강 2차 푸르지오,37.550457,126.91227,2,10854,합정역 8번출구(마포한강푸르지오2차)
서울 강서구 공항동 22-54,37.563774,126.81163,2,10890,공항시장역 3번출구(국제빌딩)
서울 중구 황학동 1505 황우회타워주차장,37.569336,127.0214,2,10899,황학동 주방거리
서울 도봉구 창동 135-26 창동EMART,37.6521,127.047562,2,10901,이마트 창동점
서울 성동구 옥수동 561 래미안 옥수 리버젠 상가,37.54414,127.015182,2,10910,옥수리버젠상가
서울 구로구 가리봉동 134-22,37.479839,126.892464,2,10918,가리봉동 서영스윗홈
서울 은평구 역촌동 17-55,37.604858,126.922417,2,10930,역촌역 4번출구(노상)
서울 서대문구 대현동 90-73,37.557133,126.943787,2,10934,이대역 1번출구(UCU이대)
서울 강서구 등촌동 648-5,37.551739,126.864677,2,10940,아임2030 등촌역
서울 영등포구 문래동6가 57 문래 롯데캐슬,37.517925,126.88604,2,10951,문래롯데캐슬아파트
서울 관악구 봉천동 937-15 은호빌딩,37.486233,126.941185,2,10958,봉천동 은호빌딩
서울 동대문구 장안동 345-3 우석타운2,37.570194,127.072006,2,10963,장안동사거리(우석타운)
서울 서대문구 홍은동 412-12 오로라,37.578407,126.926292,2,10966,홍은동 오로라
서울 송파구 신천동 29 롯데월드타워앤드롯데월드몰,37.51305,127.102531,2,10971,롯데월드타워
서울 용산구 동자동 45 센트레빌아스테리움서울,37.551563,126.973236,2,10981,서울역 12번출구(KDB생명타워)
서울 은평구 녹번동 7-1 서울기록원,37.607388,126.935013,2,11000,서울기록원
서울 노원구 중계동 584-1 삼창타워프라자,37.65873,127.072342,2,11010,상계역 4번출구
서울 강남구 청담동 52 청담빌딩,37.524109,127.05127,2,11011,영동대교 남단
서울 마포구 동교동 113-10,37.560207,126.926529,2,11013,동교동 고려삼주차장
서울 마포구 서교동 360-15,37.551281,126.924133,2,11014,홍대야구연습장
서울 은평구 녹번동 81-13 유니클로 은평점,37.604137,126.92524,2,11020,유니클로 은평점
서울 노원구 월계동 929 현대아파트,37.61969,127.063194,2,11040,월계 현대아파트
서울 종로구 숭인동 207-32 숭인동 청년주택,37.573597,127.020119,2,11045,동대문 영하우스
서울 마포구 서교동 494 서교동 효성 해링턴 타워,37.550838,126.916733,2,11079,합정역 3번출구
서울 송파구 거여동 605 휴먼빌 시티,37.486195,127.1427,2,11123,휴먼빌시티오피스텔
서울 관악구 봉천동 870-13 신원메트로빌,37.481686,126.951591,2,11152,서울대입구역 5번출구(신원메트로빌)
서울 종로구 명륜3가 127 명륜빌딩,37.583492,126.997444,2,11153,성균관대입구 교차로
서울 강동구 암사동 485-31,37.549694,127.134293,2,11160,암사동 해마루1차
서울 은평구 갈현동 502-37,37.618404,126.915482,2,11163,갈현동 그레이스빌
서울 관악구 신림동 610-144,37.475204,126.922401,2,11184,신림동 에코하임
서울 구로구 개봉동 270-1,37.489506,126.851799,2,11185,개봉동 한맥케렌시아
서울 금천구 시흥동 790-8,37.462276,126.905357,2,11186,시흥 파크빌
서울 광진구 자양동 17-1,37.541462,127.065277,2,11192,커먼그라운드
서울 서초구 서초동 1325-19,37.494335,127.023926,2,112,서운중학교 앞
서울 송파구 방이동 108-16,37.510788,127.112129,2,11244,송파나루역 2번출구
서울 동대문구 전농동 32-4 전농동하우스토리,37.577351,127.058662,2,11250,전농하우스스토리
서울 구로구 구로동 573,37.501297,126.88311,2,11253,NC백화점 신구로점
서울 광진구 자양동 594,37.529762,127.077469,2,11267,자양유수지 공영주차장
서울 광진구 중곡동 195-1 중곡3동마을공원공영주차장,37.570072,127.084663,2,11268,중곡3동 마을공원
서울 강서구 방화동 612-18,37.563522,126.809807,2,11276,공항시장역 1번출구
서울 강남구 논현동 122-8,37.510551,127.023575,2,11296,논현역 2번출구(동화히스토리)
서울 용산구 원효로3가 51-28,37.533241,126.958313,2,11299,용산 전자랜드
서울 송파구 문정동 632 가든파이브웍스,37.477856,127.122978,2,11319,장지역 가든파이브웍스
서울 용산구 한강로2가 2-39,37.531013,126.968849,2,11323,신용산역 6번출구
서울 강서구 마곡동 739,37.566677,126.817879,2,11327,신방화역 환승주차장
서울 노원구 상계동 65-5,37.670364,127.080757,2,11329,당고개위 공영주차장
서울 은평구 응암동 232-3 은평병원,37.593807,126.923378,2,11330,은평병원
서울 송파구 신천동 11-1,37.517807,127.105087,2,11334,잠실나루역사거리
서울 영등포구 영등포동7가 209 엔비어스파크,37.524529,126.910828,2,11337,영등포 엔비어스파크
서울 영등포구 양평동2가 22-1 스카이시티,37.52269,126.883492,2,11338,관악고등학교 앞
서울 양천구 목동 908-26,37.536652,126.88076,2,11340,목동체비지
서울 중구 예관동 22-1,37.565277,126.998085,2,11347,을지로4가역 9번출구(배오개길 노상)
서울 마포구 동교동 172-1,37.557983,126.927231,2,11351,홍대입구역 5번출구
서울 금천구 독산동 152-3,37.472137,126.897667,2,11361,독산사거리
서울 서대문구 충정로3가 480 더스타일하우스디센트럴,37.561348,126.962296,2,11373,충정로역 8번출구
서울 종로구 수송동 83-1 수송스퀘어,37.5742,126.981361,2,11383,광화문 수송스퀘어
서울 용산구 한강로2가 420 용산푸르지오써밋,37.527218,126.965042,2,11384,용산 푸르지오써밋
"서울 용산구 한강대로 95 (한강로2가, 래미안용산 더 센트럴)",37.529091,126.96714,2,11387,신용산역 3번출구
서울 동대문구 휘경동 192-1 휘경 제이스카이시티,37.590321,127.060837,2,11403,회기 제이스카이시티
서울 노원구 공릉동 441-92,37.627098,127.077263,2,11417,공릉역 우은빌딩
서울 광진구 중곡동 169-80,37.568974,127.085793,2,11423,용곡삼거리
서울 용산구 한강로2가 426,37.535469,126.971535,2,11425,용산 베르디움
서울 구로구 신도림동 413-49,37.504696,126.882919,2,11432,구로 아주빌딩
서울 송파구 마천동 181,37.495068,127.151054,2,11437,마천역 1번출구
서울 양천구 신월동 446-3,37.523964,126.842377,2,11440,신월동 경창시장
서울 강남구 도곡동 456-15,37.483456,127.045334,2,11448,도곡까치공원 옆
서울 강남구 개포동 1238-5,37.478241,127.04612,2,11454,개포동 포이사거리
서울 동대문구 장안동 462,37.562389,127.067307,2,11468,장한평역 4번출구(스피존)
서울 서대문구 홍제동 469 인왕산 한신휴플러스,37.585335,126.947365,2,11471,휴플러스 주차장
서울 동작구 상도동 493-9,37.494541,126.954185,2,11472,숭실대입구역 1번출구
서울 강서구 염창동 312,37.550594,126.866478,2,11481,등촌역 역세권청년주택
서울 강남구 대치동 995-28,37.508537,127.064644,2,11509,파크하얏트호텔 뒤
서울 종로구 명륜4가 187 이화빌딩,37.582397,126.998741,2,11519,혜화역 4번출구(아시아주차장)
서울 서초구 양재동 351,37.467529,127.041634,2,11587,양재동 꽃시장 앞
서울 강서구 화곡동 854-5,37.529022,126.854584,2,11591,화곡 드림월드
서울 서초구 서초동 1502-12,37.489571,127.007736,2,11610,서초역 역세권청년주택
서울 금천구 독산동 1160,37.463837,126.89122,2,11611,독산 롯데캐슬아파트
서울 강남구 대치동 514,37.496971,127.072792,2,11625,학여울역 환승공영주차장
서울 송파구 신천동 14,37.52177,127.102646,2,11626,신천유수지
서울 강서구 가양동 1457-1,37.57151,126.841698,2,11627,가양라이품 공영주차장
서울 구로구 오류동 55-5 칸타빌레 6차,37.495876,126.845497,2,11629,오류동 칸타빌레6차
서울 서초구 양재동 6-8,37.482704,127.041588,2,11632,영동2교 교차로 옆
서울 강서구 화곡동 157-1,37.534115,126.850967,2,11634,신정초등학교 옆
서울 동대문구 장안동 458-8 장안동주차전용빌딩,37.562176,127.068779,2,11670,장한평역 4번출구(덕원주차장)
서울 서초구 서초동 1359-8,37.486145,127.030869,2,11681,서초문화예술정보학교 옆
서울 서대문구 창천동 29-90,37.555779,126.937851,2,11687,신촌역 4번출구(앨리트타워)
서울 서대문구 창천동 18-21 피델리아 타워,37.556564,126.937439,2,11688,신촌 피델리아
"서울 마포구 서강로 75-16(창전동, 이랜드 PEER 신촌)",37.549671,126.931488,2,11691,이랜드 신촌청년주택
서울 노원구 공릉동 89-1 대덕프라자,37.620754,127.083717,2,11762,화랑대역 3번출구
서울 중랑구 면목동 655-4 세방사우나,37.579155,127.085083,2,11763,면목시장 앞
서울 중랑구 망우동 303-14,37.611702,127.104691,2,11774,신내역 4번출구
서울 중랑구 신내동 384-6,37.607658,127.100319,2,11776,능산지하차도 옆
서울 송파구 방이동 88-2,37.514977,127.124802,2,11808,올림픽공원역 3번출구
서울 양천구 신정동 321-3,37.517315,126.86705,2,11833,양천구청 옆 공영주차장
서울 강동구 천호동 458-3 천호역 한강 청년주택,37.539402,127.122475,2,11862,천호역 1번출구
서울 송파구 방이동 50-14,37.51564,127.114449,2,11903,한성백제역 1번출구
서울 구로구 신도림동 337,37.509697,126.888542,2,11906,홈플러스 신도림점
서울 서초구 양재동 399,37.471539,127.048645,2,11957,구룡공원 공영주차장
서울 광진구 화양동 49-9 동신빌딩,37.542309,127.065224,2,1197,건대입구역 1번출구
서울 마포구 도화동 573,37.541759,126.94838,2,11980,마포역 2번출구(에비뉴 67)
서울 동작구 흑석동 26-2,37.506752,126.968231,2,11981,블루스톤스포츠
서울 중랑구 묵동 169-12 로프트원 태릉입구역,37.615299,127.076881,2,11982,태릉입구역 7번출구
서울 용산구 도원동 4-5 용문동 주민센터,37.538914,126.957664,2,11990,용문동 주민센터
서울 동대문구 용두동 100-5 동대문 베네스트,37.577774,127.03363,2,11996,제기동역 6번출구
서울 서초구 서초동 1338-5,37.489765,127.029938,2,12002,서초 에피소드393
서울 중랑구 묵동 176-39 칼튼테라스,37.611713,127.078362,2,12011,먹골역 1번출구
서울 종로구 관수동 155-1 세종주차빌딩,37.568943,126.989388,2,12026,전태일기념관 옆 세종주차장
서울 강서구 화곡동 1170,37.546146,126.836052,2,12035,우장산역 3번출구(해링턴)
서울 양천구 신월동 170-6,37.532612,126.828712,2,12036,신월3동 공영주차장
서울 도봉구 방학동 707,37.665688,127.043694,2,12041,CGV방학점 옆
서울 강동구 고덕동 210-1 고덕센트럴푸르지오,37.557594,127.170135,2,12043,상일동역 4번출구
서울 중랑구 상봉동 500 상봉 프레미어스 엠코,37.598259,127.091637,2,12048,엔터식스 상봉점
서울 강서구 등촌동 671-1,37.559071,126.841248,2,12049,발산역 청년주택(엘크루)
서울 광진구 구의동 593-15 성진프라자,37.535828,127.091049,2,12050,강변역(스파랜드)
서울 관악구 신림동 1422-5 르네상스,37.484631,126.930153,2,12055,신림역 7번출구(르네상스)
서울 광진구 자양동 219-30,37.536217,127.082649,2,12081,구의역 4번출구
서울 금천구 시흥동 840-53,37.453735,126.905319,2,12090,서울시흥초등학교 앞
서울 구로구 개봉동 280-5,37.487083,126.858307,2,12091,서울개봉초등학교 앞
서울 양천구 신정동 914-1,37.526661,126.856529,2,12092,신정역 2번출구(캠프914)
서울 강남구 역삼동 826-26,37.496403,127.029869,2,12096,강남역 3번출구
서울 영등포구 여의도동 27-3 하나증권빌딩,37.522549,126.921967,2,12108,하나금융투자빌딩(영등포)
서울 서초구 잠원동 38-23,37.510899,127.019966,2,12109,논현역 5번출구
서울 용산구 효창동 255-5 효창동 주민센터,37.542515,126.961838,2,1212,효창동 주민센터
서울 금천구 가산동 459-11,37.481552,126.88179,2,12143,롯데렌탈 구로지점(B)
서울 영등포구 양평동5가 21,37.537376,126.89286,2,12153,선유도역 7번출구(롯데양평빌딩)
서울 송파구 문정동 641-11 한양타워,37.485947,127.117935,2,12156,문정역 한양타워
서울 강북구 수유동 740 에피소드 수유 838,37.636936,127.023354,2,12173,수유 에피소드838
서울 구로구 구로동 832,37.479794,126.895409,2,12185,구로동 지타워
서울 서대문구 창천동 72-12 테라운드,37.556259,126.934578,2,12195,신촌역 1번출구
서울 중구 남대문로5가 827 T타워,37.553902,126.975677,2,12196,서울역 10번출구 옆(T타워)
서울 서초구 잠원동 27-2,37.51445,127.019241,2,12205,신사역 4번출구
서울 서초구 방배동 328-1,37.485455,126.992676,2,12206,방배1동 공영주차장
서울 강남구 논현동 117-7 논현주차타워,37.516869,127.038315,2,12222,강남구청역 3번출구
서울 송파구 문정동 628 가든파이브툴,37.478535,127.118935,2,12227,롯데렌탈 송파지점(B)
서울 마포구 노고산동 57-50,37.55405,126.934769,2,12230,신촌 에피소드369
서울 관악구 봉천동 854-3,37.479496,126.953339,2,12232,서울대입구역 청년주택
서울 송파구 오금동 618-1,37.505699,127.138725,2,12237,거여초등학교 옆
서울 동대문구 휘경동 266-6 프리미어 M 회기,37.589851,127.059502,2,12252,회기 프리미어M
서울 송파구 석촌동 60,37.503296,127.100334,2,12257,석촌고분역 2번출구
서울 금천구 시흥동 831-6,37.451439,126.908417,2,12258,시흥동 카멜리아
서울 구로구 구로동 81-3,37.493641,126.886803,2,12270,구로경찰서 앞(스페스큐브)
서울 광진구 구의동 54-19,37.551109,127.090874,2,12303,아차산역 2번출구
서울 용산구 원효로1가 134,37.541348,126.969444,2,12305,남영역 1번출구(청년주택)
서울 금천구 독산동 295-10,37.470592,126.895714,2,12312,롯데마트 VIC금천점
서울 은평구 구산동 198-3,37.612236,126.915054,2,12319,구산역 청년주택
서울 강남구 역삼동 683-6,37.508286,127.0438,2,12353,선정릉역 4번출구(청원)
서울 서대문구 홍제동 136-14 빌트 인왕산,37.586803,126.947449,2,12361,보성빌딩 노외주차장
서울 강남구 삼성동 159,37.512226,127.059311,2,12362,코엑스(B)
서울 마포구 상수동 141-1 BR엘리텔,37.548168,126.925056,2,12366,BR엘리텔 오피스텔(홍익대 예문관)
서울 강남구 삼성동 151-21,37.510487,127.055595,2,12394,롯데렌탈 강남지점(B)
서울 성동구 성수동1가 13-209,37.549484,127.050491,2,12396,서울숲 에이원센터
서울 송파구 신천동 29 롯데월드타워앤드롯데월드몰,37.513584,127.105263,2,12397,롯데월드몰(GV60)
서울 성북구 보문동5가 145-4,37.582726,127.020309,2,12403,동일주유소 뒤
서울 도봉구 쌍문동 103-6,37.645805,127.032669,2,12417,쌍문역 3번출구(인히어 쌍문)
서울 관악구 봉천동 1658-16,37.476227,126.964203,2,12432,낙성대역 1번출구
서울 역삼동 615,37.504147,127.027168,2,12465,신논현역 4번출구(르메르디앙)
서울 금천구 독산동 1160,37.464478,126.890892,2,12501,독산역 1번출구
서울 관악구 봉천동 1703,37.489292,126.9571,2,12504,해성 지역아동센터
"서울 강북구 수유동 63 삼호아파트, 수유프라자",37.631638,127.023514,2,12539,삼호수유프라자
서울 구로구 오류동 9-231,37.495522,126.841904,2,12580,오류동 솔하임오피스텔
서울 성동구 성수동1가 685-61 서울숲 복합문화체육센터,37.549877,127.041748,2,12595,뚝섬유수지 공영주차장
서울 송파구 잠실동 208-4,37.509766,127.085487,2,12599,잠실새내역 3번출구
서울 성동구 성수동2가 321-107 르하임성수,37.542252,127.054832,2,12601,르하임 성수오피스텔
서울 강서구 마곡동 801,37.558491,126.833778,2,12608,발산역 8번출구
서울 광진구 구의동 254-53,37.541748,127.083595,2,12637,대영아파트 옆
서울 강동구 천호동 451-8,37.536961,127.129837,2,12640,강동역 1번출구
서울 은평구 대조동 14-8 기업은행,37.610027,126.929634,2,12641,불광역 4번출구(기업은행)
서울 광진구 중곡동 637-5 리마크빌 군자,37.558868,127.076324,2,12649,군자역 청년주택
"서울 마포구 염리동 150 동도중,서울디자인고등학교",37.545906,126.94722,2,12652,서울디자인고등학교
서울 중구 필동2가 4-3,37.560764,126.993889,2,12655,충무로역 3번출구
서울 구로구 새말로 102,37.505424,126.891449,2,12676,신도림 포스빌오피스텔
서울 강남구 자곡동 669,37.474586,127.107201,2,12684,율현초등학교 앞
서울 마포구 망원동 481-4,37.558846,126.90699,2,12703,포포먼스주차장(나이스파크)
서울 양천구 신정동 1158-1,37.516136,126.849655,2,12707,다락골 공영주차장
서울 동대문구 휘경동 281-1,37.588665,127.058594,2,12709,회기역 하트리움청년주택
서울 은평구 대조동 241 베르디움STAY1,37.613346,126.927032,2,12712,대조동 청년주택
서울 서대문구 미근동 332 웨스트게이트타워,37.564644,126.966438,2,12716,서대문역 8번출구
서울 중구 필동로 6-1 (필동2가),37.560764,126.995972,2,12740,충무로역 1번출구
서울 성수동1가 685-696 갤러리아 포레,37.545502,127.042503,2,12753,서울숲역 갤러리아포레 더몰
서울 휘경동 42-23,37.590912,127.064461,2,12776,동대문 JS빌딩
서울 진관2로 117 (진관동),37.634502,126.930466,2,12780,롯데슈퍼G 은평점
서울특별시 서초구 방배2동 493-3,37.478123,126.982666,2,12792,사당역 13번출구
서울 삼성동 157-1,37.508045,127.056625,2,12798,삼성동 빌딩
서울 도봉구 창동 655-20 흥일빌딩,37.647301,127.034416,2,131,쌍문역 2번출구
서울 구로구 구로동 1124-49,37.485054,126.900131,2,1338,구로디지털단지역(스윙파크주차장)
서울 마포구 상암동 1140 공항철도 디지털미디어시티역,37.576595,126.899162,2,1348,디지털미디어시티역 7번출구
서울 은평구 구산동 340-1,37.614464,126.908501,2,1354,구산동 공영주차장
서울 서초구 반포동 18-3 래미안퍼스티지 중심상가,37.503967,127.001183,2,1368,반포 래미안퍼스티지중심상가(EV)
서울 도봉구 방학동 691-7 신한은행,37.663139,127.036926,2,1403,방학동 신한은행
서울 중랑구 상봉동 83-7,37.595299,127.092834,2,1407,상봉터미널
서울 중랑구 중화동 304-2,37.601128,127.078384,2,141,중화역 3번출구
서울 중랑구 면목동 146-1 면목2동 공동주차장,37.587944,127.080872,2,1417,면목2동사거리
서울 동대문구 신설동 81-79,37.576248,127.023369,2,1465,신설동역 1번출구
서울 구로구 신도림동 337,37.509422,126.887741,2,1546,신도림 푸르지오1차
서울 동작구 대방동 341-2,37.512253,126.926231,2,155,대방역 3번출구
서울 금천구 시흥동 886-14,37.453274,126.902954,2,1561,시흥사거리
서울 강북구 미아동 691-1,37.619534,127.020424,2,1568,삼양동사거리
서울 성북구 동선동1가 121-6 코아루센타시아,37.593048,127.019165,2,1581,성신여대입구역 1번출구
서울 서대문구 신촌동 74-12 신촌민자역사,37.560001,126.942543,2,1582,신촌역(경의중앙선)
서울 용산구 한남동 522-44,37.529816,127.007393,2,1588,한남역 1번출구
서울 동작구 상도동 29-87,37.504848,126.944313,2,159,상도역
서울 강남구 대치동 890-20 KT 선릉타워 East,37.505184,127.053116,2,1614,선릉역 1번출구(KT선릉타워)
서울 강남구 개포동 183-1,37.489735,127.068321,2,1620,개포동공원 공영주차장
서울 강남구 일원동 4-49,37.494125,127.08744,2,1621,탄천 제2호공영주차장
서울 서초구 서초동 1445-3 국제전자센터,37.484741,127.017769,2,163,남부터미널역(국제전자센터)
서울 양천구 신정동 995-2,37.524822,126.864044,2,1643,목동역 7번출구(목동주차장)
서울 은평구 응암동 577-32,37.59082,126.916733,2,1646,새절역 1번출구
서울 강북구 수유동 10-4 대명주차장,37.637909,127.022766,2,165,수유역 5번출구
서울 금천구 독산동 1093,37.456089,126.887451,2,1661,KT광명빌딩(EV)
서울 종로구 세종로 79-9,37.574059,126.975586,2,1666,세종로 공영주차장
서울 성북구 장위동 316-2 장월 에스에이치빌 1단지,37.622463,127.047821,2,1669,장월SH빌아파트
서울 종로구 동숭동 1-143,37.580544,127.00399,2,1671,혜화역 2번출구
서울 성북구 하월곡동 227 월곡갑을명가,37.603367,127.042175,2,1673,월곡역 3번출구
서울 마포구 성산동 199 성산2-1공영주차장,37.564713,126.906807,2,1675,마포구청역 2번출구
서울 은평구 응암동 747-8 매바위공영주차장,37.586357,126.921036,2,1677,충암고등학교 앞
서울 중구 신당동 110-1 신당사거리공영주차장,37.565113,127.017014,2,1684,신당역 5번출구
서울 중구 신당동 330-17 청구공영주차장,37.55891,127.013397,2,1685,청구역 3번출구
서울 양천구 목동 42-104,37.542637,126.870132,2,1691,목동문화센터 앞(CNH홈)
서울 동작구 노량진동 270-3,37.511665,126.934761,2,1705,노량진2동 삼하주차장
서울 관악구 신림동 652-156 서울난우중학교,37.466663,126.922668,2,1710,난우중학교
서울 관악구 신림동 597-1 미성동 제4공영주차장,37.476105,126.919319,2,1711,난우초등학교입구
서울 성북구 동소문동5가 118-11,37.591167,127.016167,2,172,성신여대입구역 3번출구
서울 강서구 화곡동 61-184,37.541042,126.847542,2,1722,화일초등학교
서울 양천구 목동 405-251,37.52412,126.875031,2,1724,오목교역 7번출구
서울 구로구 구로동 549-5,37.500763,126.886597,2,1739,구로5동 마을공동주차장
서울 동작구 신대방동 722,37.493797,126.922691,2,1750,동작구민회관
서울 강서구 방화동 886,37.563786,126.804031,2,1751,롯데몰 김포공항점
서울 마포구 동교동 165-8 LG팰리스빌딩,37.555958,126.923637,2,1752,홍대입구역 9번출구
서울 용산구 청파로 369(서계동),37.552456,126.96833,2,1754,롯데렌탈 서울역지점 2층(B)
서울 강남구 논현동 241-3 에스케이 허브블루,37.516525,127.041054,2,1768,강남구청역 2번출구
서울 송파구 마천동 128-9,37.495762,127.149963,2,1794,마천1동 사거리
서울 용산구 이태원동 108-9 해밀톤호텔 (본관),37.534634,126.994003,2,1801,이태원역 해밀톤호텔
서울 강동구 명일동 324-14,37.549793,127.144348,2,1803,명일역 4번출구
서울 강서구 방화동 484-17,37.573475,126.81057,2,1804,방화사거리
서울 강북구 수유동 62-4,37.632065,127.02356,2,1805,수유사거리
서울 송파구 삼전동 175-8,37.500179,127.096085,2,1809,배명고등학교 앞
서울 양천구 신정동 984-1,37.523788,126.860092,2,1812,신정4동 공영주차장
서울 양천구 목동 731-15,37.535915,126.864075,2,1837,강서고교 앞(광장주차장)
서울 서대문구 신촌동 134 세브란스병원,37.56155,126.939713,2,1846,세브란스병원
서울 강북구 미아동 127-7 KT강북지사,37.624096,127.027985,2,1853,KT강북지사
서울 송파구 잠실동 84 아시아공원,37.510006,127.078438,2,1858,종합운동장역 9번출구
서울 송파구 잠실동 47 서울놀이마당,37.508793,127.097801,2,1859,서울놀이마당 공영주차장
서울 강동구 성내동 552-2,37.5298,127.122406,2,187,강동구청역 2번출구
서울 송파구 풍성로5길 16 (풍납동),37.535877,127.116127,2,1873,풍납2동 공영주차장
서울 강남구 논현동 127-14 논현2호주차장,37.512169,127.028549,2,1884,학동역 5번출구
서울 동작구 상도3동 324-1,37.499931,126.931786,2,1918,신대방삼거리역 1번출구
서울 종로구 운니동 97,37.576115,126.989227,2,1927,안국역 4번출구
서울 마포구 염리동 180-4 한라자동차공업사,37.546604,126.944122,2,193,대흥역 3번출구
서울 광진구 중곡동 230-12 중곡동 주차빌딩,37.56451,127.080772,2,194,중곡역 2번출구
서울 강서구 화곡동 995-3,37.551674,126.848045,2,195,강서구청 앞
서울 동대문구 장안동 331-2,37.572399,127.074165,2,1969,장안동사거리
서울 종로구 진관동 67-1 은평구 뉴타운2지구 에코테라스,37.640373,126.920502,2,2014,구파발역(진관파출소 앞)
서울 성동구 송정동 68-43,37.549408,127.067787,2,2028,화양사거리 대진주차장
서울 용산구 용문동 8-27,37.537292,126.960762,2,2035,효창공원앞역 3번출구
서울 마포구 성산동 590-1 상암 두산위브센티움,37.565659,126.902946,2,2037,마포구청역 1번출구
서울 서대문구 대현동 60-11,37.556633,126.941132,2,2038,신촌 홈런주차장
서울 서대문구 홍은동 356-1 명지전문대학,37.584015,126.925179,2,2043,명지전문대
서울 동대문구 답십리동 530-8 골든메카,37.568451,127.052094,2,2049,답십리역 1번출구
서울 성동구 행당동 4-12,37.560024,127.039238,2,2053,왕십리역(비트플렉스)
서울 마포구 망원동 517 마포영화블렌하임,37.558605,126.906837,2,2057,망원우체국교차로
서울 서초구 서초동 1309-9 에이프로 스퀘어,37.502022,127.024567,2,2058,신논현역 7번출구
서울 강동구 명일동 312-99 GS마트,37.551262,127.144417,2,2151,GS슈퍼마켓 명일점
서울 강남구 삼성동 159 코엑스,37.51075,127.060356,2,2154,코엑스
서울 관악구 신림동 598-169,37.475113,126.919861,2,218,신림동 토사주차장
서울 관악구 봉천동 944-19,37.483227,126.94017,2,2183,쉐보레 봉천대리점
서울 중랑구 상봉동 137-8 한인주유소,37.592442,127.07196,2,2236,한인 S-OIL
서울 도봉구 방학동 705-15,37.667297,127.043663,2,2238,도봉햇살 S-OIL
서울 성북구 석관동 242-1 대성프라자,37.610989,127.057724,2,224,돌곶이역 5번출구
서울 송파구 잠실동 40-1,37.511795,127.100525,2,2270,롯데백화점 잠실점
서울 강남구 대치동 892 포스코센터,37.505741,127.056107,2,2271,포스코센터
서울 도봉구 방학동 718-7 이에스에이아파트,37.668255,127.04557,2,229,방학역 2번출구(ESA1단지)
서울 중구 소공동 1 롯데백화점 본점,37.564293,126.981079,2,2291,롯데호텔 서울
서울 영등포구 영등포동 618-496,37.515171,126.908348,2,2292,롯데백화점 영등포점
서울 광진구 자양동 227-342 롯데백화점,37.539139,127.071373,2,2294,롯데백화점 스타시티점
서울 노원구 상계동 713 롯데백화점,37.655426,127.061325,2,2295,롯데백화점 노원점
서울 마포구 대흥동 12-27 이대역푸르지오시티,37.556217,126.944466,2,2342,이대역 6번출구
서울 중구 신당동 142-5 대신빌딩,37.564789,127.021011,2,2400,신당역 3번출구
서울 동대문구 장안동 443-16 에코바움Ⅱ,37.56369,127.070435,2,2405,장한평역 3번출구(에코바움)
서울 중랑동 면목동 548-24 유지빌,37.585892,127.084251,2,2407,면목동 유지빌
서울 마포구 망원동 404-38 대명파크뷰,37.555035,126.90506,2,2408,망원1동 주민센터 옆(대명파크뷰)
서울 서대문구 홍은동 345-3 해담하우스 가동,37.584141,126.923424,2,2409,충암초등학교 옆(해담하우스)
서울 양천구 신월동 242-34,37.52742,126.837486,2,2412,신월어린이공원 옆(운영주택)
서울 노원구 상계동 1090-12 르비앙,37.674404,127.05146,2,2413,상계대림아파트 맞은편(르비앙)
서울 중랑구 면목동 42-58,37.5882,127.095322,2,2419,서일대 앞
서울 중랑구 망우동 410-1 상아빌딩,37.594955,127.100189,2,2420,우림시장오거리
서울 금천구 독산동 955,37.477093,126.900185,2,2421,신도브래뉴아파트
서울 중랑구 면목동 116-1,37.587231,127.087257,2,2424,면목본동 주민센터 앞
서울 은평구 응암동 96-1 상현빌딩,37.600979,126.926895,2,2427,은평구청입구 교차로
서울 구로구 구로동 1127-22,37.482109,126.898918,2,2429,구로디지털단지(티타운빌딩)
서울 금천구 시흥동 1020,37.457058,126.895546,2,2430,금천구청(EV)
서울 관악구 봉천동 729-22 롯데백화점,37.490185,126.92498,2,2435,롯데백화점 관악점
서울 중구 신당동 432-458,37.552135,127.005836,2,2437,장충고등학교 옆
서울 중구 장충동2가 193-39 장충공영주차장,37.559822,127.001442,2,2439,장충문화체육센터
서울 중구 신당동 349-234 신당3동 공영주차장,37.552113,127.013489,2,2440,약수역 4번출구
서울 동작구 대방동 506,37.510181,126.931557,2,2442,대방현대2차아파트
서울 동작구 사당동 1007-50,37.482727,126.981422,2,2443,이수역 7번출구
서울 강동구 천호동 41 강동구민회관,37.545731,127.141205,2,2445,강동구민회관
서울 서대문구 충정로3가 368 종근당빌딩,37.559799,126.963287,2,2454,종근당빌딩
서울 마포구 성산동 56-1 씨에스타워,37.564766,126.911751,2,2462,성산2교 사거리
서울 영등포구 영등포동8가 62-1 롯데마트,37.527786,126.904633,2,2472,롯데마트 VIC영등포점
서울 노원구 중계동 361 롯데마트,37.64727,127.070824,2,2477,롯데마트 중계점
서울 강동구 천호동 425-5 대우 한강 베네시티,37.540668,127.125267,2,2503,천호역 3번출구
서울 동작구 상도동 418,37.501377,126.931709,2,2504,신대방삼거리역 6번출구
서울 동대문구 장안동 407-8,37.563351,127.061859,2,2529,장한평역 1번출구(장안주택)
"서울 동대문구 전농동 591-53 청량리역,롯데백화점",37.581219,127.04908,2,2533,롯데백화점 청량리점
서울 은평구 신사동 194 서신초등학교,37.591988,126.907669,2,2534,서울서신초등학교
서울 강서구 내발산동 750-10,37.553082,126.826576,2,2549,마곡수명산파크 앞
서울 동작구 상도동 527,37.505932,126.943909,2,2572,상도브라운스톤아파트
서울 성북구 길음동 535-22 동궁빌딩,37.602329,127.022232,2,2604,길음역 7번출구
서울 강북구 미아동 207-13,37.627102,127.025238,2,2607,미아역 8번출구
서울 중랑구 신내동 647-1 구두수선대22,37.616421,127.091957,2,261,봉화산역 3번출구
서울 구로구 구로동 806-68,37.485962,126.886086,2,2619,구로동 예술인주차장
서울 은평구 불광동 311-13 메트로타워,37.619511,126.921585,2,2628,연신내역 2번출구
서울 양천구 목동 757-1,37.536289,126.869759,2,2631,정목초등학교 옆
서울 종로구 숭인동 1063 수도학원,37.575378,127.022141,2,279,신설동역 11번출구
서울 관악구 봉천동 42-1,37.48608,126.955399,2,281,은천삼거리
서울 양천구 신월동 21-1,37.54044,126.831291,2,290,강서 신월주차장(EV)
서울 성북구 하월곡동 104-112 길음역환승주차장,37.603909,127.026169,2,296,길음역 환승주차장
서울 성북구 돈암동 538-59,37.599163,127.014717,2,297,돈암동 시네마공영주차장
서울 동작구 사당동 318-12,37.482964,126.974281,2,325,남성역 1번출구
서울 은평구 불광동 309 세종빌딩,37.619358,126.923195,2,352,연신내역
서울 용산구 청파동3가 115 숙명여자대학교,37.545094,126.965149,2,354,숙명여자대학교
서울 금천구 가산동 677,37.465996,126.887634,2,356,가산동금천교 공영주차장
서울 강서구 가양동 1488-12,37.560329,126.859764,2,357,강서구청 가양동별관
서울 강서구 방화동 844,37.572197,126.804077,2,360,개화산역 공영주차장(EV)
서울 구로구 구로동 120-5,37.492996,126.894325,2,361,대림역 2번출구
서울 은평구 진관동 70-1 구파발역복합환승센터,37.638096,126.919144,2,363,구파발역 공영주차장
서울 마포구 성산동 515 월드컵주경기장,37.566799,126.897339,2,3707,홈플러스 월드컵점
서울 마포구 공덕동 467 롯데캐슬프레지던트,37.544659,126.950127,2,3727,롯데시티호텔 마포
서울 서초구 반포동 19-3 센트럴시티,37.504627,127.002968,2,3748,센트럴시티 타워주차장
서울 마포구 마포동 36-1 마포주차장,37.539616,126.942612,2,375,마포 공영주차장
서울 강서구 방화동 830-4,37.577293,126.813301,2,378,방화역 1번출구
서울 송파구 장지동 600-2,37.470181,127.128235,2,381,복정역 환승주차장
서울 서초구 방배동 507-1,37.475269,126.983704,2,385,사당역 공영주차장
서울 노원구 월계동 68-18,37.615215,127.063263,2,387,석계역 공영주차장
서울 강남구 수서동 735,37.48793,127.09993,2,391,수서역 공영환승주차장
서울 관악구 신림동 498,37.487213,126.913399,2,393,신대방역 공영주차장
"서울 동대문구 신설동 114-29 서울풍물시장관리사무소,노외공영주차장",37.572506,127.024452,2,395,신설동역 9번출구(풍물시장)
서울 강남구 신사동 668,37.525864,127.028557,2,396,압구정역고가 밑 주차장
서울 용산구 한강로2가 12-12 용산주차빌딩,37.534313,126.965263,2,40,용산주차빌딩
서울 강서구 가양동 1480-10,37.56332,126.853073,2,403,가양역 1번출구
서울 성동구 옥수동 377-5,37.542202,127.017464,2,404,옥수역 7번출구
서울 구로구 온수동 119,37.491901,126.824135,2,405,온수역 공영주차장
서울 노원구 월계동 320-2,37.634628,127.059258,2,412,월계역
서울 강남구 일원본동 716-2,37.48468,127.084068,2,414,일원역 1번출구
서울 송파구 신천동 29-8,37.51442,127.104507,2,416,잠실역 지하환승공영주차장
서울 동대문구 장안동 286-9,37.578266,127.070602,2,417,장안2동 주민센터
서울 종로구 훈정동 1-2 종묘공원,37.570858,126.995811,2,420,종로3가역(종묘공영EV)
서울 도봉구 창동 330-4,37.652374,127.04567,2,423,창동역(서) 공영주차장
서울 구로구 오류동 174-10,37.487255,126.839172,2,424,천왕역 광역환승센터
서울 강동구 성내동 57-12,37.537762,127.125572,2,425,천호역 지하환승공영주차장
서울 용산구 한남동 728-2,37.539505,127.002556,2,429,한강진역 3번출구
서울 영등포구 신길동 812,37.504314,126.921097,2,431,보라매역 6번출구(해군회관앞)
서울 영등포구 당산동3가 4-2,37.526379,126.899483,2,460,당산노외 공영주차장
서울 서초구 양재동 370-5 동산마을구립주차장,37.470093,127.044312,2,475,양재 동산마을공영주차장
서울 영등포구 신길동 219-8,37.511383,126.911644,2,478,우신초등학교 앞
서울 성북구 삼선동4가 18-6,37.588669,127.010414,2,507,한성대입구역 1번출구
서울 마포구 상수동 72-1 홍익대학교,37.552647,126.924446,2,51,홍익대학교
서울 강동구 명일동 47-12 고덕복합빌딩,37.552921,127.154625,2,518,고덕역 5번출구(명일씨티코아)
서울 강남구 삼성동 119,37.512409,127.052666,2,519,삼성중앙역 7번출구
서울 노원구 상계동 770-2 노원에코센터,37.645233,127.058205,2,524,중계역
서울 성북구 안암동5가 산4-11 개운사,37.588829,127.029305,2,529,개운사(고려대)
서울 강동구 명일동 312-250 명일동공영주차장,37.550953,127.142868,2,549,명일동 공영주차장
서울 강동구 천호동 563 동아코아아파트,37.541435,127.12574,2,558,2001아울렛 천호점
서울 금천구 시흥동 704-56,37.459103,126.908981,2,5782,서울신흥초등학교
서울 강동구 천호동 42 천호복합 상업시설,37.54528,127.142212,2,5813,홈플러스 강동점(지하5층)
서울 강서구 등촌동 639-11,37.558289,126.855598,2,5815,홈플러스 강서점
서울 금천구 독산동 291-7,37.468498,126.897026,2,5817,홈플러스 금천점
서울 성북구 하월곡동 46-73 코업스타클래스,37.601715,127.040451,2,5820,홈플러스 월곡점
서울 은평구 녹번동 84 은평구청,37.602322,126.929428,2,5825,은평구청 부설주차장
서울 송파구 마천동 215 마천1공영주차장,37.495121,127.155746,2,5826,마천동 1공영주차장
서울 송파구 마천동 364-5 마천동2공영주차장,37.494209,127.156372,2,5827,마천동 2공영주차장
서울 중랑구 상봉동 110-38,37.593025,127.084213,2,586,상봉2동 공영주차장
서울 서초구 서초동 1714-17 칠보빌딩,37.49445,127.013115,2,5862,교대역 11번출구
서울 서초구 양재동 1-26 성문빌딩,37.484707,127.03936,2,588,양재전화국
서울 중랑구 면목동 570 까치어린이공원,37.583447,127.087334,2,589,사가정역 까치공원
서울 중랑구 면목동 181-132 굿모닝문구,37.589096,127.076477,2,5929,중랑초교 공영주차장
서울 서초구 반포동 730 방음언덕형 구립공영주차장,37.504452,127.018608,2,5930,신논현역 1번출구
서울 강남구 신사동 664-23,37.526733,127.039581,2,5948,압구정로데오역 5번출구
서울 종로구 연건동 128-8 홍익대학교대학로캠퍼스,37.576374,127.001656,2,5985,홍익대 대학로캠퍼스
서울 마포구 연남동 493-50,37.561184,126.918846,2,600,연남동 가버나움(CNH홈)
서울 광진구 화양동 10-1 한아름건물,37.543503,127.069901,2,601,건대입구역(한아름쇼핑센터)
서울 영등포구 영등포동4가 442-2,37.516006,126.902641,2,61,영등포 타임스퀘어 옆
서울 강동구 성내동 416 둔촌빌딩,37.528648,127.13607,2,6102,둔촌동역 4번출구
서울 송파구 문정동 55-1,37.487114,127.122574,2,6180,문정역 1번출구
서울 송파구 마천동 17-9,37.501011,127.144394,2,6184,마천공원 옆(델타하임)
서울 은평구 증산동 160-11,37.587341,126.91259,2,6211,와산교 앞
서울 강남구 논현동 201-4 호텔 더 디자이너스 리즈 강남 프리미어,37.505417,127.025658,2,6214,호텔더디자이너스 리즈강남점
서울 중구 장충동1가 35-2,37.561653,127.007767,2,6245,동대입구역 3번출구
서울 관악구 신림동 1677-4,37.484756,126.904678,2,64,구로디지털단지역(견인보관소)
"서울 동대문구 휘경동 29-1 삼육서울병원, 삼육보건대학교",37.589458,127.062843,2,712,회기역 2번출구(삼육서울병원)
서울 강남구 역삼동 829-20 역삼1문화센터,37.495373,127.033279,2,713,역삼1동 문화센터
서울 강남구 대치동 980-9 대치2동주민센터,37.502274,127.064156,2,714,대치2동 주민센터
서울 강남구 도곡동 922 언주초등학교,37.486897,127.037659,2,715,양재역 언주초교 공영주차장
서울 강남구 논현동 168 논현초등학교,37.508049,127.027046,2,716,신논현역 3번출구(논현초교)
서울 강남구 청담동 27 언북초등학교,37.520329,127.046501,2,717,언북초등학교 공영주차장
서울 강남구 개포동 13-2 공영주차장,37.4949,127.079216,2,718,대청역 공영주차장
서울 노원구 중계동 508-1,37.640759,127.067474,2,720,등나무근린공원
서울 양천구 신정동 992-1,37.525749,126.863518,2,727,목동역 8번출구(보성상가)
서울 동작구 노량진동 47-2 동작구청,37.512291,126.939461,2,729,동작구청(동작구의회)
서울 마포구 상수동 93-45 로하스타워,37.548664,126.923157,2,7294,상수역 2번출구
서울 광진구 구의동 199-18 구의동삼성쉐르빌 101동,37.539978,127.094795,2,73,구의동 삼성쉐르빌
서울 동작구 상도4동 244-181,37.499737,126.935081,2,730,상도동 도화공원
서울 관악구 봉천동 862-1 에그엘로우,37.480869,126.952316,2,7314,서울대입구역 3번출구
서울 강북구 미아동 67-1 햇빛병원,37.615456,127.030228,2,733,롯데백화점 미아점
서울 서대문구 남가좌동 64-8 남가좌2동 제1공영주차장,37.576984,126.921623,2,734,남가좌동 사거리(제1공영)
서울 중구 쌍림동 270-2,37.563686,127.005707,2,7346,호텔더디자이너스 동대문점
서울 광진구 중곡동 638-3 호텔 더디자이너스 건대,37.558697,127.076546,2,7348,호텔더디자이너스 건대점
서울 광진구 구의동 625-3,37.532757,127.091942,2,737,동서울터미널 옆
서울 마포구 상암동 1648 S-PLEX CENTER,37.57563,126.889801,2,7395,에스플렉스센터
서울 용산구 이태원동 227-9,37.540359,126.992661,2,740,이태원2동 공영주차장
서울 마포구 신수동 448-6 한국출판콘텐츠센터,37.544434,126.935379,2,7406,한국출판콘텐츠센터
서울 용산구 한강로3가 23-1,37.532284,126.963318,2,741,용산역 3번출구
서울 종로구 창신동 328-18,37.572006,127.015228,2,7412,동묘앞역 6번출구
서울 관악구 신림동 1456-3 신림동공영주차장,37.487362,126.923485,2,742,신림역 5번출구(EV)
서울 용산구 동자동 56 트윈시티 남산,37.551189,126.972939,2,7426,서울역 12번출구(갈월동)
서울 관악구 신림동 366 원신공영주차장,37.470013,126.929314,2,743,미림여고입구(원신공영)
서울 구로구 구로동 188-25,37.485325,126.896614,2,7434,롯데시티호텔 구로
서울 관악구 신림동 626-82 난곡동제1공영주차장,37.471992,126.923164,2,744,남강중학교
서울 동대문구 장안동 431-4,37.563633,127.065742,2,7442,장한평역 2번출구(동대문소방서)
서울 송파구 방이동 110-12 아넥스골프클럽,37.510284,127.113205,2,7447,송파나루역 3번출구
서울 관악구 봉천동 산110-4 보라매제1공영주차장,37.488583,126.934494,2,745,보라매 제1공영주차장
서울 양천구 신정동 783,37.512966,126.832962,2,7455,GS슈퍼마켓 양천신은점
서울 도봉구 창동 582-22,37.641266,127.036285,2,749,창2동 주민센터
서울 도봉구 쌍문동 710-4,37.661152,127.038689,2,750,성원아파트사거리
서울 도봉구 도봉동 623,37.672619,127.044647,2,751,도봉2동 2공영주차장
서울 강서구 화곡동 368-1,37.53722,126.839569,2,754,강서가로공원 공영주차장
서울 강서구 화곡동 890,37.529129,126.848755,2,755,까치산역 강서구문화복지센터
서울 노원구 중계동 509-2 홈플러스,37.639786,127.068665,2,7558,홈플러스 중계점
서울 강동구 암사동 산59-2 암사4공영주차장,37.552891,127.137772,2,756,암사1동 어린이공원
서울 강동구 강일동 665-4 강일동공영주차장,37.566448,127.172264,2,757,강일동 공영주차장
서울 강동구 천호동 167-195 천호동공영주차장,37.538654,127.133339,2,758,천호3동 공영주차장
서울 강동구 천호동 87-26 천호동 노외주차장,37.544598,127.13662,2,759,천호1동 주민센터
서울 자양동 227-7 더샵스타시티,37.538536,127.072998,2,7598,쇼핑몰 건대스타시티
서울 관악구 남현동 1059-16,37.476295,126.979187,2,7601,사당역 6번출구(롯데슈퍼 남현점)
서울 강동구 상일동 477 강동아트센터,37.551544,127.157402,2,761,강동아트센터
서울 영등포구 대림동 834-1,37.493149,126.901627,2,762,서울대동초등학교
서울 영등포구 영등포동1가 35,37.517715,126.914513,2,763,신길역 3번출구
서울 서초구 서초동 1600-2,37.486469,127.014793,2,7630,남부터미널역 6번출구(담이주차장)
서울 강동구 천호동 329,37.544792,127.12188,2,765,천호유수지
서울 강동구 성내동 541-2 강동구보건소,37.529049,127.125412,2,766,강동구 보건소
서울 중구 흥인동 86 리마크빌 동대문,37.565979,127.016403,2,7677,리마크빌 동대문점
서울 도봉구 창동 504-21,37.633221,127.041077,2,769,서울신화초등학교
서울 성동구 성수동2가 308-4 서울숲코오롱디지털타워,37.542496,127.052055,2,7695,성수역 4번출구
서울 금천구 가산동 148-28,37.476768,126.895691,2,7700,가산동 공영주차장(EV)
서울 금천구 독산동 1006-94,37.464951,126.894783,2,7701,독산1동 공영주차장
서울 금천구 독산동 971,37.476288,126.902122,2,7703,독산3동 다목적광장(EV)
서울 금천구 독산동 187-40,37.469154,126.904678,2,7704,독산4동 공영주차장(EV)
서울 강동구 강일동 670 강일리버파크5단지아파트,37.567123,127.178345,2,7706,강일리버파크5단지(EV)
서울 강동구 강일동 707 고덕리엔파크1단지아파트,37.56189,127.171783,2,7711,고덕리엔파크1단지(EV)
서울 송파구 신천동 29 롯데월드타워앤드롯데월드몰,37.51379,127.104073,2,7715,롯데월드몰
서울 동대문구 제기동 252 이수브라운스톤,37.582191,127.034355,2,7716,이수브라운스톤아파트(EV)
서울 영등포구 신길동 69-39 경부제3녹지 지하공영주차장,37.513176,126.923119,2,7717,대방역 4번출구(EV)
서울 마포구 합정동 473 마포 한강 2차 푸르지오,37.550537,126.91185,2,7718,합정동 주민센터(EV)
서울 은평구 진관동 78 진관동복합청사,37.635063,126.920929,2,7719,진관동 주민센터(EV)
서울 마포구 망원동 403-2 망원1동주민센터,37.55558,126.905861,2,772,망원역 망원시장
서울 강동구 길동 413-1 탑스위트,37.537014,127.138527,2,7720,길동역 탑스위트
서울 강동구 성내동 565 선광아파트,37.527271,127.126801,2,7723,성내선광아파트(EV)
서울 강동구 둔촌동 555 둔촌신동아아파트,37.529198,127.141251,2,7725,둔촌신동아파밀리에아파트(EV)
서울 강동구 성내동 512 안말어린이공원 공영주차장,37.531158,127.129791,2,7726,안말어린이공원 공영주차장(EV)
서울 마포구 도화동 557 도화 공영주차장 및 주민센터,37.541546,126.949936,2,773,도화동 주민센터
서울 중구 황학동 754,37.56739,127.018196,2,7733,황학어린이공원공영주차장(EV)
서울 은평구 신사동 163-17 신사2동 복합청사,37.590176,126.908051,2,7734,신사2동 주민센터
서울 영등포구 영등포동8가 35-1 리마크빌 영등포,37.526749,126.905052,2,7737,리마크빌 영등포점
서울 마포구 성산동 370 마포구청,37.566242,126.901939,2,774,마포구청
서울 금천구 가산동 234-46,37.472889,126.89296,2,7741,가산동 삼익아파트
서울 노원구 중계동 597 경남아너스빌,37.662262,127.076859,2,7743,중계 경남아너스빌
서울 강동구 강일동 686 강일리버파크7단지아파트,37.564545,127.179153,2,7751,강일리버파크7단지
서울 동대문구 답십리동 80 답십리청솔우성아파트,37.573658,127.059502,2,7752,답십리 청솔우성아파트
서울 성동구 금호동2가 1216 하이리버,37.551552,127.023308,2,7754,래미안 하이리버2단지
서울 양천구 신월동 226-9,37.529537,126.836044,2,776,신월동 곰달래공영주차장
서울 은평구 불광동 641 북한산현대힐스테이트3차아파트,37.618813,126.934883,2,7762,북한산 힐스테이트3차아파트
서울 서대문구 홍은동 428-1,37.581867,126.937073,2,777,서대문구청 사거리
서울 서초구 방배동 977-17 중앙로공영주차빌딩,37.482113,126.991989,2,7777,중앙로 공영주차장
서울 관악구 봉천동 682,37.491676,126.93264,2,779,당곡중 공영주차장
서울 서초구 양재동 237,37.472336,127.038338,2,7792,양재시민의숲역 1번출구
서울 은평구 갈현동 502-3 갈현2동주민센터,37.618481,126.915901,2,7800,갈현2동 주민센터(EV)
서울 마포구 신수동 93-35,37.551022,126.9366,2,7801,서강대역 1번출구(환승주차장)
서울 관악구 신림동 571-6 조원동제1공영주차장,37.48106,126.905716,2,781,조원동 제1공영주차장
서울 구로구 구로동 139-82,37.490887,126.891609,2,782,구로리 어린이공원
서울 은평구 불광동 643 북한산 힐스테이트7차,37.615932,126.926537,2,7824,북한산 힐스테이트7차아파트(EV)
서울 구로구 구로동 435,37.495293,126.887657,2,783,구로구청
서울 관악구 봉천동 1718 벽산블루밍아파트,37.48774,126.945984,2,7836,벽산블루밍1차아파트
서울 금천구 가산동 459-11,37.482132,126.881264,2,7839,가산디지털단지역 7번출구
서울 구로구 개봉동 105-6,37.505779,126.844894,2,784,개봉1동 마을공영주차장
서울 강북구 미아동 1351 두원프라자,37.62252,127.027031,2,7843,미아역 5번출구
서울 동작구 상도동 450,37.505932,126.935196,2,7853,상도래미안1차아파트
서울 강남구 수서동 721-1,37.486649,127.107422,2,7854,수서역 2번출구
서울 금천구 오류동 6-11,37.495461,126.839226,2,786,오류1동 공영주차장
서울 양천구 신정동 276,37.511124,126.862389,2,7891,신정 양천아파트
서울 강동구 강일동 695 강일리버파크10단지,37.559307,127.18071,2,7892,강일리버파크10단지
서울 광진구 자양동 589-5 지오빌,37.530514,127.073608,2,7906,자양동 지오빌
"서울 노원구 상계동 1121-32,33",37.675072,127.059006,2,7908,상계동 르비앙
서울 동작구 상도동 279-223,37.496372,126.937637,2,7909,상도동 지오빌
"서울 중랑구 묵동 128-60,61,68,69",37.607594,127.08078,2,7910,묵동 동일캐슬
서울 성동구 행당동 376-1 서울숲행당푸르지오아파트,37.555958,127.033463,2,7916,서울숲행당푸르지오아파트(EV)
서울 마포구 상암동 1618 DMC상암센트럴파크2단지,37.574829,126.897293,2,7932,상암휴먼시아2단지
서울 양천구 신월동 475,37.525684,126.849152,2,7933,신월 서울가든아파트
서울 강남구 대치동 890-20 KT 선릉타워 East,37.505302,127.052856,2,7947,롯데렌탈 본사 선릉역(B)
서울 구로구 개봉동 478,37.485233,126.852173,2,7957,개봉 한진아파트
서울 관악구 봉천동 880-41,37.480499,126.948547,2,7978,리마크빌 관악점
서울 강남구 대치동 913-18 센트럴주유소,37.501392,127.05909,2,8018,GS칼텍스 센트럴
서울 용산구 신창동 53-1 신창공영주차장,37.535297,126.955185,2,812,신창동 공영주차장
서울 마포구 창전동 148-1,37.546398,126.931519,2,813,창전동CNH홈
서울 서대문구 홍제동 22-3 GS칼텍스,37.583496,126.950073,2,8135,GS칼텍스 홍제동
서울 강동구 성내동 107-7,37.533119,127.12188,2,8137,GS칼텍스 성내
서울 동작구 신대방동 425,37.494129,126.923737,2,814,보라매병원
서울 성북구 상월곡동 23-95 화랑주유소,37.6078,127.050751,2,8145,GS칼텍스 화랑
서울 양천구 목동 951,37.53331,126.867699,2,8158,목동금호어울림아파트
서울 은평구 수색동 37-2 경의선 디지털미디어시티역,37.578205,126.900154,2,8174,디지털미디어시티역 6번출구
서울 마포구 상암동 1605 누리꿈스퀘어,37.57954,126.89019,2,820,누리꿈스퀘어
서울 성동구 금호동2가 511 금호초등학교,37.552319,127.019409,2,821,금호초교 공영주차장
서울 강남구 대치동 890-20 KT 선릉타워 East,37.504456,127.053436,2,8214,롯데렌탈 본사 리프트팀(B)
서울 성동구 성수동2가 299-19 성수2가 공영주차장,37.549129,127.055176,2,822,성수2가3동 공영주차장(EV)
서울 화양동 1 건국대학교,37.543922,127.077576,2,8220,건국대학교 KU스포츠 광장
서울 동대문구 이문동 306-14 외대역앞역주변주차빌딩,37.595062,127.062737,2,8221,외대앞역
서울 서대문구 남가좌동 50-3 명지대학교,37.579971,126.923935,2,8223,명지대C
서울 동대문구 전농동 103-106 CNH Home,37.583557,127.052574,2,8226,전농동CNH홈C
서울 동작구 상도동 511,37.49514,126.96019,2,8235,숭실대학교 레지던스홀C
서울 동작구 상도동 460,37.503098,126.954201,2,8240,상도패리스아파트
서울 서대문구 냉천동 31 감리교신학대학,37.567726,126.963203,2,8256,서대문역(감리신학대)
서울 관악구 신림동 247-2,37.468189,126.937447,2,8294,녹두거리 치안센터 옆
서울 종로구 명륜2가 150-1,37.58453,126.998077,2,8300,성균관대학교 앞
서울 관악구 신림동 1641-2 타임스트림,37.483837,126.930267,2,8303,신림역 2번출구(타임스트림)
서울 동작구 노량진동 59-35,37.51318,126.941895,2,84,노량진역 3번출구
서울 송파구 장지동 884 위례2차아이파크,37.48011,127.144241,2,8439,위례 2차아이파크
서울 서대문구 남가좌동 376 현대아파트,37.575237,126.921425,2,8448,남가좌 현대아파트
서울 송파구 신천동 7-18 롯데캐슬골드,37.514694,127.101555,2,8473,롯데캐슬골드 잠실점
서울 강남구 역삼동 725-6,37.499535,127.039047,2,8488,역삼역 1번출구(스타뷰빌라)
서울 양천구 신정동 1146,37.518417,126.854042,2,8523,신정1동 주민센터 옆
서울 강남구 수서동 199-3,37.485867,127.105949,2,8554,수서역 SRT
서울 은평구 진관동 101 은평뉴타운 박석고개,37.632378,126.920143,2,8584,은평뉴타운 박석고개12단지
서울 강서구 화곡동 370-63,37.53598,126.839172,2,8593,화곡 7-1공영주차장
서울 강서구 초록마을로 126,37.537636,126.85038,2,8594,화곡 8-2공영주차장
서울 양천구 신월동 987,37.519997,126.834801,2,8595,신월문화체육센터 해맞이공영주차장
서울 영등포구 여의도동 23-3,37.524529,126.923668,2,8615,하이투자증권 빌딩
서울 마포구 성산동 134-2 가좌행복주택,37.568962,126.913193,2,8631,가좌역 2번출구(가좌행복주택)
서울 노원구 중계동 364-19 삼부프라자,37.6493,127.07682,2,8641,중계동 학원가
서울 양천구 신정동 920-23,37.526138,126.85527,2,8670,신정동 애시안빌라
서울 노원구 상계동 701-1 노원구청,37.653877,127.056801,2,8685,노원구청(EV)
서울 노원구 월계동 291-12,37.628807,127.059402,2,8686,월계1동 거주자우선주차구역
서울 서초구 방배동 3001-2,37.486225,126.983162,2,8708,이수역 4번출구
서울 은평구 진관동 63 롯데몰 은평점,37.638596,126.917931,2,8723,롯데몰 은평점
서울 영등포구 양평동3가 45 롯데마트 양평점,37.525959,126.891663,2,8788,롯데마트 양평점
서울 구로구 구로동 810-3,37.485306,126.902405,2,8795,구로디지털단지역 공영주차장(EV)
서울 송파구 송파동 85-3,37.505272,127.108597,2,88,석촌역 3번출구
서울 노원구 중계동 364-3 노원문화예술회관,37.650265,127.079803,2,8800,노원문화예술회관
서울 광진구 구의동 252-16 웰츠타워,37.538376,127.084068,2,8824,구의역 웰츠타워 오피스텔
서울 강서구 공항동 36-12,37.559921,126.813049,2,8855,송정역 3번출구(제일주차장)
서울 금천구 시흥동 3-129,37.460678,126.91098,2,8873,시흥동 효봉공영주차장
서울 송파구 장지동 837 송파파인타운4단지,37.481876,127.129951,2,8874,송파파인타운4단지
서울 양천구 신월동 1063,37.517578,126.84761,2,8876,신정뉴타운롯데캐슬아파트
서울 영등포구 대림동 745-1,37.497978,126.900307,2,8880,대림3동 공영주차장
서울 영등포구 대림동 870 대림어린이공원지하주차장,37.491169,126.903267,2,8883,대림어린이공원 공영주차장
서울 은평구 신사동 11-18,37.601501,126.907829,2,8887,신사1동 거주자우선주차구역
서울 송파구 문정동 618 파크하비오,37.481281,127.123489,2,8901,장지역 송파파크하비오
서울 성동구 사근동 223-22 사근동 공공복합청사,37.561176,127.045288,2,8909,사근동 주민센터(EV)
서울 강북구 수유동 55-29,37.630405,127.021996,2,8911,수유마을시장 공영주차장
서울 강남구 대치동 937 롯데백화점,37.497356,127.053711,2,8931,롯데백화점 강남점
서울 동작구 노량진동 57-1 메가스터디타워,37.512699,126.941658,2,8955,노량진역 메가스터디타워
서울 관악구 봉천동 1698-1 보라매삼성아파트,37.493557,126.92762,2,8958,보라매 삼성아파트
서울 강서구 화곡동 1120-13,37.552479,126.852058,2,8965,화곡동 새한주차장
서울 동작구 상도동 414 건영아파트,37.507465,126.95108,2,8979,상도동 건영아파트
서울 서대문구 북가좌동 286-8 리츠하우스,37.579498,126.915756,2,8984,서울연가초등학교 옆
서울 서대문구 남가좌동 3-74 J 하우스,37.583534,126.922668,2,8985,남가좌동 제이하우스
서울 성북구 종암동 29-26 고려대학교교우회,37.591927,127.035606,2,8991,고려대학교 교우회관
서울 송파구 가락동 99-3 제일오피스텔,37.49334,127.118652,2,8993,가락시장역 3번출구
서울 구로구 고척동 264-31,37.504047,126.852631,2,8996,고척근린공원 공영주차장
서울 관악구 봉천동 1570-1 관악구청,37.478275,126.95163,2,8997,관악구청
서울 동작구 사당동 316-180,37.479435,126.972549,2,9029,사당동 한백리츠빌
서울 중구 서소문동 111 태평로빌딩,37.563381,126.976456,2,9031,시청역 8번출구(노상EV)
서울 성북구 정릉동 408-11 모텔웨이브,37.60704,127.010361,2,9048,정릉시장 입구
서울 양천구 신정동 324-3,37.514885,126.861305,2,9082,신정동 굿모닝탑 앞
서울 노원구 상계동 684 (주)맥스아웃 상계빌딩,37.663795,127.066048,2,9089,온곡초교입구 교차로
"서울 용산구 용산동2가 11-13 용산2가동 주민센터, 용산치안센터",37.545998,126.98558,2,9092,용산2가동 주민센터
서울 노원구 하계동 67-1,37.636509,127.078468,2,9094,서울과학기술대학교 뒤C
서울 성동구 행당동 293-11,37.559723,127.033859,2,9102,왕십리역 10번출구
서울 금천구 가산동 505-19,37.484966,126.880363,2,9104,어바니엘 가산
서울 강동구 상일동 490 고덕리엔파크3단지아파트,37.551846,127.1763,2,9131,고덕리엔파크3단지
서울 광진구 자양동 9-4,37.539631,127.067123,2,9145,CGV 건대입구점
서울 강남구 삼성동 142-41 L7 HOTELS 강남타워,37.505672,127.05162,2,9146,롯데호텔L7 강남
서울 마포구 망원동 464-32,37.560284,126.899193,2,9156,망원동 애플하임
서울 마포구 망원동 338-12 현대힐타운,37.553314,126.906509,2,9157,망원동 현대힐타운
서울 마포구 망원동 428-5 망원동2-1공영주차장,37.557606,126.901268,2,9163,서울동교초교 옆
서울 광진구 자양동 595-15 자양 에스하임2,37.530239,127.077995,2,9165,자양동 에스하임
서울 노원구 공릉동 26-21 삼육대학교,37.641884,127.106529,2,9168,삼육대학교C
서울 용산구 한남동 628-1 홈런야구장,37.532188,127.006111,2,9180,한남동 영풍빌딩
서울 강남구 도곡동 956 에스앤아이 강남빌딩,37.485325,127.036636,2,9185,양재역 4번출구
서울 강동구 천호동 산31,37.545506,127.136246,2,9186,천호1동 주민센터 옆
서울 마포구 동교동 160-5 롯데호텔 L7홍대,37.55571,126.92144,2,9195,롯데호텔L7 홍대
서울 송파구 문정동 652-1 프라비다옥토,37.483162,127.12252,2,9199,문정역 프라비다
서울 동대문구 제기동 892-71 한솔동의보감,37.578434,127.035301,2,92,제기동역 2번출구
서울 노원구 공릉동 362-28 공릉빌,37.627838,127.072723,2,9222,공릉역 공릉빌
서울 중구 소공동 76-3,37.563877,126.9804,2,9225,롯데백화점 본점
서울 종로구 종로1가 54 가로판매대,37.570232,126.980644,2,9232,종로1가(노상)
서울 마포구 성산동 39-35 홍익대학교제3기숙사,37.559536,126.914307,2,9254,홍익대학교 제3기숙사
서울 용산구 한강로3가 40-999 용산역,37.529091,126.963806,2,9258,HDC아이파크몰(해주차장)
서울 강서구 마곡동 797-1,37.559261,126.835968,2,9267,발산역 퀸즈파크나인
서울 서초구 양재동 16-13 제이프러스빌딩,37.479717,127.03952,2,9271,양재역 제이프러스빌딩
서울 서초구 서초동 1337-3 강남역 푸르지오 시티,37.491634,127.028778,2,9294,강남 어반플레이스
서울 서초구 서초동 1328-3 에이플러스에셋타워,37.495621,127.028198,2,9295,강남역 5번출구
서울 광진구 자양동 663-21 와이엠프라젠스파,37.530899,127.083847,2,9300,서울성자초교 옆
서울 관악구 봉천동 865-1,37.478886,126.951027,2,9307,관악구청 앞
서울 마포구 도화동 25-13 효성해링턴 스퀘어,37.541756,126.953529,2,9318,공덕역 효성해링턴스퀘어
서울 서초구 반포동 730 방음언덕형 구립공영주차장,37.504627,127.018356,2,9321,신논현역 1번출구(친환경)
서울 금천구 가산동 60-19,37.479691,126.884346,2,9326,롯데팩토리아울렛 가산점
서울 용산구 원효로1가 41 용산더프라임,37.53989,126.969795,2,9339,용산 더프라임(남영역)
서울 송파구 문정동 320-1,37.48288,127.121902,2,9353,문정역 송파법조타운푸르지오시티
서울 마포구 연남동 224-68,37.563957,126.926262,2,9356,연남동 노상공영주차장
서울 마포구 서교동 468-31,37.55595,126.914856,2,9359,청기와3 노상공영주차장
서울 서대문구 남가좌동 269-9,37.570415,126.913353,2,9364,가좌삼거리
서울 송파구 신천동 29 롯데월드타워앤드롯데월드몰,37.513199,127.104225,2,9377,롯데월드몰(EV)
서울 강서구 화곡동 46-127,37.544212,126.84845,2,9380,화곡본2동 공영주차장
서울 강북구 수유동 472-211,37.63166,127.018173,2,9385,화계역 1번출구(빨래골공영주차장)
서울 영등포구 당산동5가 9-2 당산 삼성쉐르빌,37.533253,126.900627,2,9391,당산역 11번출구(삼성쉐르빌)
서울 금천구 시흥동 942-6,37.442829,126.905846,2,9399,시흥3동 공영주차장
서울 금천구 독산동 1050-17,37.463749,126.899948,2,9401,독산2동 공영주차장
서울 광진구 화양동 21-20 광진캠퍼스시티,37.547699,127.067795,2,9402,화양사거리 광진캠퍼스시티
서울 관악구 신림동 1728 제창그로힐아파트,37.48465,126.910759,2,9410,신대방역 제창그로힐아파트
서울 영등포구 신길동 232-20 신길4동 공원지하주차장,37.506996,126.911682,2,9422,신길4동 마을공원공영주차장
서울 영등포구 당산동3가 560 영등포구 별관청사,37.52837,126.894302,2,9423,영등포구청별관(영등포구청역 3번출구)
서울 용산구 서계동 47-2 대한통운서울지사,37.552486,126.968964,2,9442,서울역 15번출구(국립극단옆EV)
서울 서초구 잠원동 70 뉴코아백화점빌딩,37.507988,127.008354,2,9503,뉴코아아울렛 강남점
서울 강북구 미아동 797 래미안미아1차아파트,37.626064,127.019424,2,9505,삼양역 1번출구(래미안미아1차)
서울 강서구 강서로 242,37.547688,126.836792,2,9513,우장산역 2번출구(강서힐스테이트)
서울 은평구 갈현동 469-5,37.612591,126.915001,2,9519,구산역 4번출구
서울 강남구 역삼동 679 GS강남타워,37.502174,127.036766,2,9525,역삼역 7번출구(GS타워)
서울 서초구 서초동 1498-5,37.48999,127.006096,2,9532,서초역 4번출구(마제스타시티)
서울 영등포구 여의도동 10-1,37.530388,126.925873,2,9535,GS칼텍스 여의도주유소
서울 은평구 대조동 240 NC백화점,37.609829,126.929329,2,9544,NC백화점 불광점
서울 동대문구 회기동 1-5 경희대학교,37.594494,127.056198,2,9553,경희대학교
서울 도봉구 쌍문동 422-14 티하우스1단지,37.652164,127.013924,2,9555,덕성여대 정문 앞
서울 광진구 구의동 227-31 구의에스하임3,37.543262,127.090843,2,9557,구의동 에스하임
서울 서대문구 홍제동 278-56,37.595192,126.947548,2,9561,문화촌어린이공원
서울 은평구 응암동 103-20 옆,37.598957,126.921593,2,9580,응암동 거주자우선주차구역
서울 동작구 노량진동 333,37.512848,126.946671,2,9587,어바니엘 한강
서울 송파구 석촌동 24-14 석촌호수 나인파크 B,37.506084,127.099594,2,9602,잠실석촌호수나인파크 B동
서울 구로구 구로동 3-55,37.507217,126.892479,2,9622,신도림역 2번출구
서울 강남구 역삼동 701 공무원연금공단,37.503799,127.04332,2,9637,서울상록회관
서울 구로구 고척동 145-145,37.50177,126.857658,2,9639,고척동 동호파크타운
서울 관악구 남현동 1116,37.471512,126.972031,2,9645,남현동 거주자우선주차구역
서울 노원구 중계동 509-1 씨앤미복합빌딩,37.640862,127.068253,2,9663,등나무근린공원 앞
서울 강남구 대치동 890-20,37.50528,127.052841,2,9665,그린카 업무용 차량2(KT타워)
서울 은평구 역촌동 11-51 해피리움,37.60743,126.916885,2,9684,구산역 2번출구
서울 은평구 역촌동 61-1,37.604504,126.914711,2,9685,역촌동 주민센터 뒤(14-486)
서울 은평구 대조동 2-7,37.612236,126.928108,2,9692,불광역 7번출구
서울 금천구 독산동 335-3,37.471611,126.890282,2,9701,독산동 에스하임
서울 성동구 성수동1가 656-260 성수1가동 공영주차장,37.539833,127.046288,2,9714,성수1가1동 공영주차장(EV)
서울 성동구 홍익동 369 도선동공영주차장,37.565487,127.03183,2,9715,도선마을공원
서울 서초구 잠원동 10-33,37.51577,127.016212,2,9716,잠원동 공영주차장
서울 강서구 마곡동 776-4,37.56739,126.840569,2,9738,양천향교역 7번출구(엠코지니어스타)
서울 은평구 역촌동 27-7,37.604603,126.921921,2,9746,역촌역 1번출구(노상)
서울 동대문구 답십리동 484-45 답십리공영주차장,37.568562,127.053169,2,9750,답십리역 2번출구
서울 청량리동 435 청량리동공영주차장,37.585426,127.044533,2,9752,청량리동 공영주차장
서울 동대문구 휘경동 286-66 휘경중학교,37.587334,127.062531,2,9756,휘경중학교(EV)
서울 동대문구 장안동 300,37.577408,127.071373,2,9757,장안동 근린공원(EV)
서울 동대문구 답십리동 2-283 동답공영주차장,37.569313,127.063568,2,9758,동답 공영주차장(EV)
서울 성북구 정릉동 892-12,37.608082,126.99958,2,9763,국민대 지하세계
서울 은평구 응암동 96-29 옆,37.60083,126.925179,2,9789,경향렉스빌아파트 옆
서울 서대문구 북아현동 1015 이편한세상신촌,37.557617,126.955414,2,9790,아현역 1번출구
서울 강북구 수유동 660-30 수유2동공영주차장,37.646008,127.021767,2,9807,수유2동 공영주차장
서울 강서구 등촌동 628-15,37.559242,126.855827,2,9830,등촌동 라인아파트
서울 성북구 정릉동 266-56 정릉4동공동주차장,37.612579,127.011803,2,9839,북한산보국문역 1번출구
서울 강남구 논현동 208-5 post ville,37.514023,127.0326,2,9845,학동역 2번출구
서울 강남구 역삼동 648-9,37.500122,127.032379,2,9855,역삼역 4번출구
서울 종로구 계동 140-2 현대빌딩,37.578197,126.987579,2,9861,안국역 3번출구(현대 계동사옥)
서울 성북구 석관동 168-42,37.613819,127.063744,2,9868,석계역 7번출구
서울 서대문구 홍은동 405-18,37.577866,126.928734,2,9870,홍은동 이루빌
서울 구로구 고척동 76-38,37.497921,126.864449,2,9879,고척동 원메디타운
서울 강서구 마곡동 760-1,37.56794,126.826744,2,9886,마곡나루역 1번출구(힐스테이트에코)
서울 강서구 마곡동 793-9,37.561077,126.838661,2,9887,발산역 플레이스H오피스텔
서울 강동구 천호동 363-26 광채빌라,37.544174,127.129166,2,9908,천호공원 옆
서울 구로구 고척동 249-94,37.50478,126.848015,2,9920,고척동 인하주택
서울 양천구 목동 514-18,37.54644,126.874786,2,9937,어바니엘 염창
서울 강동구 천호동 321-60 낙원타운빌,37.546734,127.124771,2,9941,천호동 낙원타운빌
서울 영등포구 신길동 3203,37.502495,126.911255,2,9944,신길6동 노외공영주차장(EV)
서울 영등포구 도림동 140-3 해담하우스,37.508301,126.903603,2,9954,도림동 해담하우스
서울 강북구 번동 449-1 북한산스카이빌딩,37.635761,127.024124,2,9963,롯데시네마 수유
서울 은평구 응암동 90-1 은평이마트,37.600685,126.920723,2,9966,이마트 은평점
서울 노원구 상계동 389-54,37.659859,127.071129,2,9971,상계역(서) 공영주차장
서울 노원구 중계본동 366-12,37.651196,127.077507,2,9972,중계동 은행사거리
서울 노원구 상계동 656 상계주공11단지아파트,37.664509,127.057251,2,9973,마들역 6번출구
서울 노원구 상계9동 647-1,37.664715,127.058441,2,9974,마들역 3번출구
서울 강서구 화곡동 56-127,37.539635,126.849747,2,9981,화곡본-1 공영주차장
서울 강남구 일원동 617 영희초등학교,37.492077,127.081993,2,9992,대청역 3번출구
서울 동대문구 신설동 117-12 신설동 지웰홈스,37.573093,127.024002,2,9994,신설동역 10번출구
울산 남구 달동 1301-11,35.535629,129.338287,2,10001,울산시외버스터미널 뒤
울산 남구 삼산동 1539-9,35.544411,129.337433,2,10497,GS칼텍스 평창
울산 울주군 삼남읍 신화리 1603-4,35.548504,129.139145,2,10663,울산역KTX 옆(EV)
울산 남구 달동 1252-1,35.537792,129.331955,2,10685,MH컨벤션웨딩홀
울산 남구 달동 653,35.535297,129.32164,2,10765,동평사거리
울산 북구 명촌동 859-1,35.554207,129.357773,2,10841,명촌초등학교 뒤
울산 동구 일산동 949-1,35.498585,129.429825,2,11012,롯데하이마트 동구일산점 뒤
울산 남구 옥동 266-2,35.53326,129.293808,2,11032,울산대공원 정문 앞
울산 울주군 범서읍 구영리 794-1,35.572704,129.241791,2,11039,구영공원 앞
울산 중구 우정동 277-4,35.555607,129.312897,2,11082,우정1 공영주차장
울산 남구 무거동 272-15,35.554413,129.264526,2,11125,경남은행 굴화지점 뒤
울산 남구 삼산동 1619-8,35.536312,129.340683,2,11222,울산시외버스터미널 맞은편
울산 북구 송정동 522,35.593929,129.356491,2,11257,울산공항(L)
울산 남구 야음동 700-7,35.526398,129.320435,2,11297,홈플러스 울산남구점 옆
울산 북구 매곡동 616-11,35.643181,129.357971,2,11305,매곡고등학교 앞
울산 북구 호계동 215-1,35.628185,129.350555,2,11331,올리브영 울산호계점
울산 중구 옥교동 94-2,35.553707,129.322739,2,11400,옥교 공영주차장
울산 남구 삼산동 16-3,35.540852,129.353806,2,11411,태화강역(동해선) 1번출구
울산 남구 무거동 665 울산대학교,35.545967,129.257568,2,11494,울산대 KCC생활관 앞
울산 남구 달동 1364-1,35.538811,129.332718,2,11564,울산센트럴자이아파트
울산 남구 무거동 327-8,35.551342,129.263794,2,11584,신복로터리 뒤
울산 남구 신정동 678-1,35.535229,129.311798,2,11683,UBC사우나건강센터 뒤
울산 동구 화정동 159-23,35.500965,129.419235,2,11791,화정초등학교 앞
울산 남구 달동 1408-5,35.533875,129.319275,2,11884,굿모닝병원 뒤
울산 울주군 온양읍 대안리 401-13,35.409603,129.283066,2,11896,탑마트 남창점 앞
울산 남구 신정동 522-29,35.546406,129.3078,2,11908,태화로터리 뒤
울산 울주군 범서읍 구영리 385-6,35.56847,129.243027,2,11989,울산울주경찰서 앞
울산 울주군 온양읍 남창리 42-1,35.417095,129.283356,2,12051,남창역(동해선) 1번출구
울산 울주군 청량읍 상남리 533-5,35.493134,129.303543,2,12053,덕하역(동해선) 1번출구
울산 중구 남외동 512-15,35.565784,129.351257,2,12119,맘스여성병원 옆
울산 중구 반구동 448-9,35.558361,129.343445,2,12204,반구 공영주차장
울산 남구 무거동 712,35.542042,129.258484,2,12254,울산대 아산도서관신관 뒤
울산 남구 신정동 717-4,35.541065,129.309372,2,12279,울산축산농협본점 앞
울산 북구 천곡동 416-4,35.629993,129.334564,2,12283,자연애푸드마켓 천곡점
울산 북구 진장동 705,35.562344,129.355759,2,12365,메가마트 울산점
울산 울주군 언양읍 어음리 61-2,35.557159,129.140213,2,12573,롯데렌탈 울산지점(B)
울산 남구 신정동 34-80,35.546566,129.323578,2,12680,울산병원 앞 공영주차장
울산 중구 성안동 808-2,35.575836,129.31015,2,12682,성안초등학교 앞
울산 남구 삼산동 216-10,35.540554,129.350571,2,12733,태화강역앞 교차로
울산 남구 신정동 733-4,35.531963,129.311234,2,12766,공업탑사우나 옆
울산 중구 태화동 134,35.551208,129.30043,2,1823,태화강 국가정원 앞
울산 남구 달동 871-11,35.537914,129.315155,2,1824,강남동강병원 뒤
울산 울주군 범서읍 구영리 849-1,35.574715,129.24057,2,1882,GS슈퍼마켓 울산구영점
울산 남구 달동 590-1,35.537624,129.326797,2,2473,울산 번영사거리
울산 남구 달동 830-1,35.533607,129.315918,2,2490,롯데마트 울산점(EV)
울산 북구 진장동 825,35.556583,129.359909,2,3713,롯데하이마트 효문점
울산 동구 일산동 457-6,35.504566,129.429382,2,7411,방어진농협 옆
울산 남구 달동 1276-7,35.535408,129.331772,2,7422,울산달동우체국 맞은편
울산 남구 삼산동 1480-1,35.538666,129.33812,2,7473,롯데호텔 울산
울산 중구 태화동 37-29,35.554409,129.308563,2,7528,GS슈퍼마켓 태화점
울산 남구 삼산동 1480-1,35.538555,129.338943,2,7623,롯데백화점 울산점
울산 동구 전하동 283,35.519176,129.430832,2,7975,라한호텔 울산
울산 울주군 범서읍 구영리 409-2,35.566231,129.247421,2,8065,GS칼텍스 구영
울산 동구 방어동 930-4,35.487297,129.420822,2,8070,GS칼텍스 아카데미
울산 중구 약사동 628-4,35.567837,129.341583,2,8106,병영오거리
울산 북구 연암동 362-1,35.587826,129.36821,2,8204,연암우체국 뒤
울산 남구 무거동 629-11,35.542362,129.260864,2,8237,롯데리아 울산대학점C
울산 울주군 언양읍 반연리 100,35.576607,129.186722,2,8336,유니스트C
울산 남구 무거동 463,35.5476,129.263168,2,8367,신한은행 무거동지점 옆
울산 남구 신정동 산20-3,35.529247,129.307388,2,8605,울산대공원 동문
울산 북구 양정동 605-3,35.541882,129.385895,2,8715,농협 양정점
울산 중구 성남동 131-2,35.555927,129.318497,2,8947,양사초등학교 옆
울산 남구 신정동 1631,35.533566,129.297653,2,9264,하나로마트 옥동점
울산 남구 삼산동 1618-6,35.537006,129.341095,2,9761,울산시외버스터미널 앞
인천 서구 석남동 322-54,37.500122,126.67878,2,10011,서부여성회관 옆
인천 남동구 구월동 1134-3,37.453575,126.70237,2,10134,구월동 YMCA사거리
인천 중구 신생동 38,37.466595,126.628487,2,10140,이마트 동인천점
인천 남동구 만수동883-23,37.455868,126.73024,2,10223,만수역 1번출구(진주3호 공영주차장)
인천 중구 도원동 5-7,37.467125,126.641533,2,10240,도원역 1번출구
인천 중구 운서동 2898-8,37.483944,126.509766,2,10293,운서초등학교 옆
인천 부평구 십정동 171-12,37.484005,126.707695,2,10419,백운역 3번출구
인천 연수구 연수동 532-2,37.421669,126.696823,2,10425,선학역사거리
인천 서구 심곡동 303-4,37.542351,126.677132,2,10480,GS칼텍스 태리
인천 연수구 송도동 149,37.387878,126.664925,2,10568,캠퍼스타운역 2번출구
인천 부평구 삼산동 192-8,37.517502,126.738152,2,10571,GS칼텍스 신부평
인천 연수구 송도동 8-18,37.385242,126.644699,2,10572,GS칼텍스 송도국제도시
인천 미추홀구 주안동 237-1,37.464775,126.679024,2,10690,주안역 5번출구
인천 부평구 산곡동 311-151,37.490616,126.710144,2,10708,2001아울렛 부평점
인천 미추홀구 학익동293-37,37.444675,126.666016,2,10730,학익사거리(희망나눔병원)
인천 중구 중산동 1884-1,37.489326,126.560799,2,10767,하나로마트 영종하늘도시점
인천 남동구 만수동 849 영풍아파트,37.460796,126.722832,2,10792,만수동 영풍1단지아파트
인천 중구 운서동 2916-1,37.482624,126.510834,2,10815,운서지구2 공영주차장
인천 계양구 작전동 710,37.524841,126.733307,2,10973,목수천 공영주차장(작전동)
인천 서구 불로동 308,37.618469,126.69104,2,10982,월드불로마트
인천 부평구 산곡동137-1,37.503181,126.714012,2,11022,GS슈퍼마켓 부평산곡점
인천 미추홀구 용현동 665-20,37.447147,126.64679,2,11023,e편한세상시티인하대역
인천 남동구 만수동 895-4,37.458225,126.725845,2,11066,만수동 진주4호공영주차장
인천 연수구 청학동 466,37.418861,126.676559,2,11074,연수역 남부공영주차장
인천 서구 가좌동 217-34,37.489792,126.675766,2,11084,인천가좌역 1번출구
인천 남구 주안동 23-1,37.466354,126.682076,2,11148,주안역 4번출구
인천 계양구 계산동 1081-2,37.535736,126.737289,2,11150,계양구청 앞
인천 서구 가정동 618-6,37.526798,126.671165,2,11324,가정역 4번출구
인천 부평구 삼산동 463-1,37.507843,126.73304,2,11332,굴포천역 8번출구
인천 남동구 구월동 1139 에이스네스트빌,37.454643,126.705864,2,11364,인천광역시청 앞(에이스네스트빌)
인천 연수구 송도동 6-9 쉐라톤인천호텔,37.390072,126.645302,2,11402,송도 쉐라톤호텔
인천 부평구 부평동 199-14,37.493267,126.723396,2,11412,부평역사거리
인천 서구 청라동 96-1,37.533825,126.627907,2,11443,청라3동 행정복지센터 앞
인천 연수구 송도동 12-1 인천대학교,37.375038,126.632225,2,11462,인천대학교
인천 계양구 계산동 302-1 계산3동 공영주차장,37.536694,126.729095,2,11484,계산3동 행정복지센터 앞
인천 미추홀구 문학동 365-2,37.437874,126.680862,2,11489,문학사거리(풍천장어)
인천 부평구 십정동 406-3 동암 비버리씨티,37.471184,126.700409,2,11559,동암역 2번출구
인천 중구 인현동 1-618,37.475788,126.631737,2,11603,동인천역 2번출구
인천 남동구 구월동 1179-4,37.443359,126.707367,2,11609,남인천세무서 앞
인천 연수구 청학동 571-2 청학동3공영주차장,37.424107,126.665154,2,11620,청학동 행정복지센터 옆
인천 연수구 송도동 8-37 롯데몰 송도 캐슬파크,37.385223,126.641556,2,11639,롯데몰송도캐슬파크
인천 중구 중산동 1885-2,37.488503,126.563904,2,11651,영종힐스테이트 정문 앞
인천 서구 청라동 158-2 (주)청라스파렉스,37.532082,126.64637,2,11652,청라2동 행정복지센터 앞
인천 서구 신현동 278-4,37.516399,126.66909,2,11657,신현e편한세상 옆
인천 서구 청라동 157-2 키움프라자,37.533882,126.646362,2,11732,청라 키움프라자
인천 남동구 구월동 1457 이노 프라자,37.445797,126.701744,2,11741,구월동 로데오광장 앞
인천 서구 심곡동 323-8,37.546963,126.672348,2,11750,서구청역 4번출구
인천 연수구 송도동 16-2,37.403786,126.642395,2,11783,송도2동 행정복지센터 옆
인천 남동구 논현동 743-2 논현시티,37.399029,126.724335,2,11846,인천논현역 1번출구(인천논현시티)
인천 동구 창영동 179-1 도원역,37.468975,126.642319,2,11863,도원역 3번출구
인천 미추홀구 주안6동 53-14,37.462959,126.686447,2,1192,주안6동 제3노외주차장
인천 중구 중산동 1875-3,37.487309,126.557472,2,11933,영종하늘도시체육공원 옆
인천 미추홀구 주안7동 1271-8,37.446434,126.678696,2,1194,신기남부종합시장 공영주차장
인천 남동구 논현동 646-1 부티크 646,37.402634,126.708862,2,11993,호구포역 2번출구(부티크646 오피스텔)
인천 미추홀구 주안동 169-1 창보빌딩,37.460114,126.682274,2,12003,인천시민공원역 1번출구
인천 서구 청라동 97-4,37.532032,126.630234,2,12008,청라119안전센터 옆
인천 남동구 구월동1303-7,37.452251,126.723495,2,1201,모래내시장 옆(소망)
인천 남동구 논현동 750-2,37.399689,126.734863,2,1202,소래 제2공영주차장
인천 남동구 만수동 1003,37.450657,126.726402,2,1203,만수 복개3주차장
인천 남동구 만수2동 868-17,37.459915,126.731522,2,1204,만수시장
인천 계양구 용종동 207-1 인천 계양 코아루 센트럴파크,37.541832,126.737862,2,12058,계양 코아루센트럴파크
인천 부평구 십정동 441-5,37.468826,126.699356,2,12080,동암 벽돌막사거리
인천 서구 가좌동 212-8 센트럴시티뷰,37.492752,126.680099,2,12088,인천가림고등학교 앞
인천 연수구 송도동 33-1,37.392849,126.632996,2,12099,송도아트윈푸르지오
인천 남동구 구월동 1130,37.451962,126.702034,2,12121,롯데렌탈 인천지점(B)
인천 미추홀구 용현동 627-92,37.450962,126.63205,2,12122,낙섬사거리
인천 중구 운남동 1516,37.492954,126.534012,2,12161,영종동 행정복지센터 옆
인천 연수구 연수동 622 샘말공원,37.41436,126.680626,2,12163,연수동 샘말공원주차장
인천 남동구 간석동 37-691,37.466476,126.717903,2,12164,간석3동 공영주차장
인천 계양구 작전동 899-1 메카브,37.533855,126.73452,2,12176,CGV 계양점
인천 계양구 계산동 548-11,37.548374,126.724335,2,12179,경인여자대학교 후문
인천 미추홀구 숭의동 2-1,37.464951,126.659157,2,12201,숭의4동 행정복지센터 옆
인천 중구 신포로 3(항동6가),37.469837,126.62291,2,12213,신포역 3번출구
인천 부평구 갈산동 171-11,37.515144,126.7258,2,12223,갈산역 2번출구(금강프라자)
인천 서구 마전동 999-4 영남탑스빌아파트 상가,37.597767,126.667603,2,12234,마전역 1번출구
인천 서구 가좌동 106-5,37.498878,126.671486,2,12246,석남서초등학교 앞
인천 남동구 논현동 752-1,37.398464,126.734238,2,12248,소래포구역 1번출구(에코프라자)
인천 서구 석남동 517 knp상상빌리지,37.507339,126.670731,2,12261,석남역 6번출구
인천 계양구 효성동 198-1 마스터즈,37.527096,126.717194,2,12262,효성공원 앞
인천 부평구 산곡동 159-52 롯데마트 부평점,37.504993,126.704109,2,12315,롯데마트 부평점
인천 부평구 청천동 113,37.51667,126.714859,2,12367,갈산역 3번출구
인천 미추홀구 주안동 1422,37.451416,126.67337,2,12370,인천남부초등학교 옆
인천 미추홀구 주안동 213-3,37.461678,126.678841,2,12371,미추홀구보건소 앞
인천 남동구 간석동 940-1,37.464531,126.718292,2,12375,간석LH1단지아파트
인천 남동구 구월동 1226,37.451637,126.715828,2,12377,구월초등학교 옆
인천 연수구 청학동 451,37.421227,126.669792,2,12379,인천바이오과학고등학교 앞
인천 미추홀구 숭의동 180-6,37.465347,126.643776,2,12415,홈플러스 숭의점
인천 서구 청라동 153-1,37.532055,126.637596,2,12424,청라크리스탈뷰1차
인천 연수구 송도동 22-16,37.393932,126.6436,2,12460,송도센트럴파크푸르지오 앞
인천 서구 원당동 537-2,37.593723,126.709312,2,12487,검단신도시 아인시티
인천 중구 운서동 3096-1,37.491539,126.500244,2,12492,운서역 2번출구(스카이캐슬)
인천 중구 운서동 3093-9,37.49065,126.49501,2,12495,운서역 2번출구(메이폴)
인천 남동구 구월동 1280-2,37.449253,126.721527,2,12571,현대오일뱅크 신향
인천 서구 왕길동 660-4 트리풀타워 B동,37.601307,126.657303,2,12577,검단사거리역 2번출구(트리플타워)
인천 서구 당하동 1082-6,37.591248,126.67289,2,12584,완정역 4번출구
인천 미추홀구 학익동 732-1,37.445076,126.658195,2,12638,학익초등학교 앞
인천 연수구 동춘동 942 이삭볼링센터,37.404224,126.669289,2,12670,동막역 4번출구
인천 미추홀구 도화동 1002 더샵 인천스카이타워 1단지 컬처동 엘리웨이,37.469543,126.664627,2,12677,도화사거리
인천 부평구 부평동 132-5,37.497414,126.731087,2,12715,부흥오거리
인천 계양구 효성동 63-8,37.531898,126.711189,2,12726,효성1동 행정복지센터 옆
인천 미추홀구 도화동 986-2,37.476921,126.660942,2,12731,도화동 미추홀메디컬센터
인천 남동구 구월동 1146-2,37.450634,126.705559,2,12734,예술회관역 2번출구
인천 서구 마전동 1143,37.609421,126.670151,2,12742,검단초등학교 앞
인천 남동구 간석동 212-2,37.465633,126.708405,2,12750,간석오거리역 4번출구
인천 부평구 삼산동 460-5,37.507626,126.736145,2,12756,삼산월드체육관 옆
인천 연수구 송도동 3-44,37.388878,126.661484,2,1380,송도 한진해모로아파트
인천 부평구 부개동 496-13,37.504246,126.738724,2,1420,부개1차 공영주차장
인천 부평구 청천동 125-1,37.520786,126.697754,2,1432,인천 나비공원
인천 부평구 삼산동 389-6,37.521412,126.743446,2,1492,삼산2차 공영주차장
인천 부평구 부개동 498-4,37.503414,126.73864,2,1494,부개2차 공영주차장(EV)
인천 부평구 부개동 502-15,37.497238,126.739258,2,1495,부개3차 공영주차장
인천 부평구 부개동 307,37.488136,126.740662,2,1496,부개역 1번출구
인천 부평구 부평동 772-27,37.491489,126.718674,2,1497,부평 부원중학교 옆
인천 서구 심곡동 307,37.541618,126.680321,2,1565,인천시 인재개발원
인천 서구 심곡동 250,37.543705,126.67305,2,1889,GS슈퍼마켓 서인천점
인천 계양구 귤현동 451-355,37.571003,126.737167,2,1978,계양역 1번출구
인천 남동구 논현동 731-7 소래포구역,37.400726,126.734642,2,1992,소래포구역 2번출구
인천 미추홀구 주안동 1460-8,37.448997,126.679321,2,2009,신기시장 사거리
인천 미추홀구 도화동 445-11,37.458618,126.674873,2,2032,주안사거리
인천 부평구 부평동 772-12,37.490192,126.722618,2,204,부평역 3번출구
인천 연수구 옥련동 369-2,37.423294,126.654182,2,2098,쉐보레 연수송도대리점
인천 부평구 부평동 206-3,37.495651,126.723389,2,2289,부평시장역 2번출구
인천 연수구 송도동 9-9,37.379635,126.64505,2,2434,지식정보단지역 3번출구
인천 미추홀구 숭의동 129-71,37.464867,126.649376,2,2502,미추홀구청 사거리
인천 서구 청라동 163-3,37.532101,126.652054,2,2505,청라1동 주민센터 앞
인천 서구 신현동 303,37.518227,126.672523,2,2521,정서진중앙시장 앞
인천 서구 왕길동 640-4,37.602108,126.655746,2,2522,검단사거리
인천 남동구 남촌동 480-1,37.432587,126.712891,2,2573,인천 남촌동(새남촌공영)
인천 남동구 만수동 1116-3 향촌공영주차장1,37.46101,126.731392,2,2574,만수2동 행정복지센터 옆
인천 미추홀구 주안동 406-2,37.457672,126.686279,2,3714,석바위사거리
인천 미추홀구 주안동 717-1,37.452263,126.668732,2,3716,용일사거리
인천 서구 심곡동 248-11,37.54361,126.676056,2,5807,연희사거리
인천 연수구 동춘동 932,37.406563,126.672958,2,5934,롯데슈퍼 연수점
인천 미추홀구 학익동 239-11,37.440823,126.669762,2,5986,법조타운 먹거리촌
인천 연수구 연수동 633 대동월드스포츠센터,37.412758,126.681831,2,6009,연화중학교 옆
인천 남동구 구월동 1463-1,37.445236,126.701836,2,6026,구월동 로데오거리
인천 계양구 작전동 444-2,37.527588,126.721214,2,6030,작전역 5번출구
인천 서구 신현동 137-36,37.516094,126.66864,2,6048,롯데슈퍼 신현점
인천 서구 검암동 506-2,37.566387,126.681274,2,6056,검암사거리
인천 서구 석남동 455-24,37.512878,126.672516,2,6096,인천석남동 우체국 앞
인천 미추홀구 도화동 597-121,37.464176,126.666267,2,6132,수봉공원
인천 부평구 부평동 692-3 부평남부역사,37.48901,126.724808,2,6256,부평역 1번출구
인천 중구 용동 9-5,37.473827,126.632706,2,7318,동인천역 1번출구
인천 미추홀구 학익동 256-19,37.442333,126.664177,2,7515,GS슈퍼마켓 학익점
인천 연수구 연수동 587-1,37.418633,126.678185,2,7616,연수역 3번출구
인천 연수구 청학동 466-3,37.418076,126.677628,2,7617,연수역 4번출구
인천 부평구 산곡동 366-13,37.49398,126.702042,2,7621,산곡동 화랑로공영주차장
인천 남동구 구월동 1130 CGV 홈플러스,37.451462,126.701958,2,7680,홈플러스 구월점
인천 연수구 송도동 168-3,37.379986,126.65667,2,7682,홈플러스 송도점
인천 남동구 간석동 616-3 홈플러스,37.46957,126.689346,2,7690,홈플러스 간석점
인천 부평구 십정동 486-15,37.469875,126.705292,2,7739,동암역 1번출구
인천 서구 검암동 399-24,37.568554,126.672363,2,7958,검암역 1번출구
인천 남동구 만수6동 1083-2,37.447578,126.736519,2,7960,남동구청역 3번출구
인천 계양구 계산동 907-1,37.544483,126.728821,2,797,계산역 6번출구(계산체육공원)
인천 계양구 작전동 885,37.530579,126.723381,2,799,작전역 2번출구(공영)
인천 남동구 구월동 1408-2 인천문화예술회관 야외공연장,37.445164,126.699684,2,802,인천터미널역 1번출구
인천 남동구 구월동 1138 인천광역시청,37.456566,126.7052,2,803,인천광역시청
인천 부평구 부평동 10-865,37.503437,126.731186,2,8148,GS칼텍스 부흥로
인천 미추홀구 용현동 686-5,37.460072,126.638474,2,8166,숭의역 1번출구(인천가구랜드)
인천 서구 심곡동 239-9,37.546085,126.675873,2,818,서구청 제1주차장
인천 중구 운서동 2851,37.446571,126.453094,2,8292,롯데렌탈 인천공항지점(T1)
인천 미추홀구 용현동 88-45 유니시티,37.449322,126.660797,2,8371,인하공전 후문(유니시티)C
인천 미추홀구 주안동 470-1,37.458138,126.679352,2,8535,인천시민공원역 2번출구
인천 서구 당하동 1031,37.591259,126.696152,2,8581,원당 풍림아이원아파트
인천 남동구 서창동 706 청수타워,37.423077,126.749947,2,8657,서창2지구(청수타워)
인천 계양구 효성동 66-8,37.531574,126.71048,2,8664,샛별 공영주차장
인천 계양구 계산동 969-9,37.538357,126.72242,2,8665,경인교대역 공영주차장(EV)
인천 계양구 용종동 224,37.542858,126.742821,2,8853,계양고등학교 앞(용종어린이공원)
인천 서구 원당동 567,37.594891,126.699844,2,8933,대한항공 검단사원아파트
인천 남동구 만수동 1074-1,37.446995,126.735191,2,9058,남동구청역 4번출구
인천 서구 당하동 895-1 당하탑스빌,37.589622,126.674889,2,9128,CU 당하탑스빌점
인천 남동구 논현동 613-9,37.402428,126.724503,2,9158,인천논현역 4번출구
인천 연수구 송도동 187,37.375206,126.667755,2,9164,인천글로벌캠퍼스
인천 미추홀구 도화동 272,37.4674,126.656464,2,9218,제물포역 2번출구
인천 미추홀구 용현동 86-1,37.448154,126.660492,2,9221,"용현1,4동제7노외주차장(EV)"
인천 남동구 논현동 742-1,37.399796,126.72364,2,9265,인천논현역 1번출구
인천 강화군 강화읍 남산리 283,37.737831,126.487282,2,9348,강화농협하나로마트
인천 미추홀구 주안동 141-8,37.463482,126.680756,2,9419,CGV 남주안점
인천 미추홀구 주안동 221-3,37.462788,126.678787,2,9502,주안역 2번출구(안전주차장)
인천 남동구 구월동 1210-16,37.450764,126.712189,2,9538,구월1동 주민센터 앞
인천 남동구 구월동 1183-25,37.445141,126.70845,2,9660,구월동 성리중학교 앞(성리주차장)
인천 계양구 계산동 1060,37.540672,126.736748,2,9694,계산택지1 공영주차장
인천 서구 마전동 984-1,37.602413,126.660301,2,9853,검단사거리역 2번출구(마전동 주차장)
인천 미추홀구 관교동 15 롯데백화점 인천터미널점,37.442078,126.701714,2,9876,롯데백화점 인천터미널점
인천 중구 운서동 2803-1,37.49345,126.492172,2,9882,운서역 1번출구(메가스타영종)
인천 서구 연희동 789-12,37.530804,126.661163,2,9950,청라국제도서관 뒤
인천 서구 당하동 1065-1,37.585377,126.676613,2,9953,이마트 검단점
전남 목포시 상동 1133,34.798004,126.430313,2,10244,롯데마트 목포점 옆
전남 목포시 상동 1130,34.799046,126.43248,2,10245,롯데시네마 목포점 옆
전남 순천시 왕지동 868-2,34.968761,127.522751,2,10248,왕조지구대 앞
전남 목포시 옥암동 1161,34.807625,126.43811,2,10263,롯데슈퍼 옥암점
전남 순천시 해룡면 상삼리 423,34.946827,127.533844,2,10287,순천 브레인병원
전남 순천시 조례동 1720-5,34.953564,127.517517,2,10406,GS칼텍스 연향
전남 순천시 조례동 1722-8,34.954533,127.520279,2,10444,에코그라드호텔 앞
전남 여수시 학동 196-12,34.757175,127.656815,2,10555,GS칼텍스 여수중앙
전남 목포시 호남동 101,34.793686,126.387199,2,10665,목포역KTX(목포를그린존)
전남 순천시 조례동 1591,34.954685,127.525383,2,10771,폴리텍대학 순천캠퍼스 옆
전남 목포시 상동 981,34.800674,126.422737,2,10789,롯데슈퍼 하당점 옆
전남 여수시 미평동 668-10,34.770458,127.704742,2,11200,여수 진남여중 옆
전남 목포시 상동 1000-5,34.803257,126.42717,2,11313,버거킹 목포하당점 옆
전남 무안군 무안읍 성남리 419 초당대학교,34.978367,126.472145,2,11416,초당대학교C
전남 목포시 산정동 1110-13 북항노을공원 공영주차장,34.808552,126.366653,2,11542,목포해양경찰서 옆
전남 순천시 조례동 1313,34.951389,127.514816,2,11656,조례주공아파트 2단지 앞
전남 여수시 선원동 1279-10 무선주유소,34.775547,127.649521,2,11752,GS칼텍스 무선
전남 목포시 용당동 1055-12,34.803574,126.393738,2,11758,목포 연동파출소 옆
전남 목포시 연산동 2028,34.819492,126.389931,2,11794,백련지구 골드클래스9차 앞
전남 목포시 산정동 1725,34.810543,126.377663,2,11805,산정현대아파트 옆(초원식자재마트)
전남 무안군 삼향읍 남악리 1721,34.810349,126.472794,2,11849,남악시장
전남 나주시 중앙동 18,35.033604,126.720322,2,11866,나주시외버스터미널 옆
전남 무안군 삼향읍 남악4로82번가길 20,34.813515,126.46801,2,11967,근화베아채 옆(행복마켓 남악점)
전남 순천시 용당동 579-3,34.973286,127.489731,2,11991,용당e편한세상 옆
전남 무안군 삼향읍 남악리 2075,34.813908,126.45919,2,12152,텃밭 남악점
전남 여수시 국동 37-16,34.728703,127.720764,2,12346,롯데몰 여수점
전남 광양시 중동 1811-1 홈플러스 광양점,34.928429,127.694572,2,12421,홈플러스 광양점
전남 무안군 청계면 도림리 61,34.907852,126.433784,2,12457,목포대 70주년기념관C
전남 무안군 청계면 도림리 61,34.9095,126.436195,2,12458,목포대 학생회관C
전남 목포시 상동 902-1,34.802399,126.418159,2,12545,롯데렌탈 목포지점(B)
전남 순천시 덕암동 188-101 롯데렌터카 순천지점,34.944859,127.504204,2,12546,롯데렌탈 순천지점(B)
전남 여수시 덕충동 2035-2,34.753231,127.745804,2,12547,롯데렌탈 여수지점(B)
전남 여수시 선원동 1277-1 공영주차장,34.776157,127.651268,2,12554,롯데마트 여천점 앞(L)
전남 여수시 문수동 169-1,34.753159,127.701637,2,12556,문수중학교 옆(L)
전남 여수시 웅천동 1691,34.7481,127.668892,2,12560,웅천친수공원(L)
전남 광양시 중동 1651,34.936184,127.695496,2,12631,다이소 동광양점 앞
전남 여수시 오림동 405-1 이마트,34.757462,127.714714,2,12698,이마트 여수점(여수버스터미널)
전남 여수시 덕충동 2005 국제관,34.75135,127.747223,2,12759,여수엑스포역KTX(국제관EV)
전남 여수시 율촌면 신풍리 979,34.840519,127.612999,2,1995,여수공항(9구역)
전남 목포시 상동 220,34.81258,126.417282,2,2417,목포종합버스터미널
전남 나주시 빛가람동 190-3,35.022038,126.787102,2,7475,한전KDN 앞
전남 목포시 상동 902-1,34.802341,126.418083,2,7838,롯데렌탈 목포지점
전남 순천시 조례동 1594,34.953861,127.522728,2,7946,조례사거리
전남 여수시 덕충동 61-57,34.753941,127.748482,2,7983,여수엑스포역KTX
전남 순천시 장천동 85-36 용궁모텔,34.947102,127.490356,2,8190,순천종합터미널 옆(용궁모텔)
전남 순천시 석현동 313 순천대학교,34.970402,127.482887,2,8274,순천대 산학협력관C
전남 여수시 둔덕동 산96-1,34.777206,127.699661,2,8331,전남대(여수) 1공학관 뒤C
전남 나주시 대호동 252,35.053226,126.720093,2,8341,동신대 해인1관 앞C
전남 나주시 대호동 252-12,35.047562,126.718513,2,8342,동신대 첨단강의동C
전남 여수시 둔덕동 산96-1,34.772095,127.698921,2,8435,전남대(여수) 인문사회과학관C
전남 나주시 송월동 409-1,35.01479,126.717247,2,8521,나주역KTX
전남 순천시 조곡동 155-2 팔마모텔,34.946186,127.499962,2,8779,순천역KTX(팔마모텔)
전남 무안군 청계면 도림리 61,34.911533,126.435646,2,8951,목포대 공동실험실습관C
전남 목포시 상동 869,34.805637,126.426094,2,9057,하당 스타시티빌딩
전남 나주시 대호동 252,35.050068,126.717903,2,9142,동신대 중앙도서관C
전남 무안군 청계면 도림리 61,34.91283,126.437302,2,9144,목포대 공과대학C
전남 여수시 학동 35-1,34.764244,127.664162,2,9203,롯데슈퍼 여수학동점
전남 순천시 장천동 18-35,34.947834,127.491135,2,9347,순천종합버스터미널
전남 여수시 학동 46-4,34.765209,127.661911,2,9432,농협 신여수지점 뒤
전남 무안군 삼향읍 남악리 2139,34.813351,126.464943,2,9495,전남도청 앞(영산주차프라자)
전남 순천시 풍덕동 880-1,34.945217,127.499756,2,9514,순천역KTX(터틀장)
전남 여수시 여천동 903-19,34.779167,127.662758,2,9515,여천역KTX 1주차장
전남 목포시 상동 1033-1,34.80035,126.429794,2,9524,목포 평화광장 앞
전남 여수시 둔덕동 산96-1,34.774071,127.699562,2,9527,전남대(여수) 중앙도서관C
전남 순천시 석현동 313,34.967976,127.479263,2,9803,순천대 기초교육관C
전남 순천시 석현동 313,34.96896,127.478218,2,9804,순천대 사범대학C
전남 여수시 둔덕동 산96-1,34.776363,127.701332,2,9919,전남대(여수) 제2공학관C
전남 여수시 덕충동 2005 국제관,34.752064,127.746979,2,9997,여수엑스포역KTX(국제관 B동)
전북 전주시 완산구 효자동3가 1528-14,35.81789,127.109398,2,10047,전북도청 앞
전북 전주시 완산구 효자동3가 1541-4,35.815506,127.1101,2,10048,농어촌공사 전북본부 앞
전북 군산시 수송동 866-2,35.962692,126.717728,2,10163,LG베스트샵 수송점 뒤(청석골)
전북 군산시 수송동 821-2,35.962856,126.714821,2,10166,기아자동차 군산수송지점 뒤
전북 군산시 나운동 835-5,35.963299,126.696732,2,10171,셀세모 나운점
전북 남원시 동충동 25-2,35.410683,127.388947,2,10231,남원시외버스터미널
전북 익산시 신동 745-3,35.956921,126.960281,2,10343,GS칼텍스 대원
전북 전주시 덕진구 송천동1가 632 송천주유소,35.860992,127.115898,2,10349,GS칼텍스 송천
전북 전주시 완산구 중화산동2가 628-8,35.816257,127.121346,2,10371,어은터널 사거리(진안꽃돼지)
전북 익산시 부송동 1099-2,35.960983,126.98912,2,10409,이리 종합화물터미널 옆
전북 전주시 완산구 서신동 968-6,35.835384,127.121033,2,10418,롯데백화점 전주점 옆
전북 전주시 완산구 효자동1가 444 전주마트,35.805664,127.115616,2,10475,상산고등학교 앞
전북 전주시 완산구 서신동 40-14,35.830395,127.123314,2,10797,전자랜드 서신점
전북 전주시 완산구 효자동2가 1234-2,35.817055,127.102776,2,10846,롯데마트 전주점 옆
전북 김제시 검산동 844,35.800358,126.903671,2,10847,홈플러스 김제점 옆
전북 정읍시 상동 206-3,35.560322,126.869232,2,10883,정읍 남매안경원
전북 전주시 완산구 삼천동1가 284-3,35.798264,127.110641,2,10884,전주삼천신협 본점
전북 군산시 소룡동 1348-23,35.974697,126.683571,2,11178,소룡초등학교 앞
전북 군산시 조촌동 450-21 롯데몰 군산점,35.976326,126.739151,2,11415,롯데몰 군산점
전북 전주시 완산구 다가동4가 30,35.820477,127.138756,2,11513,전주 객리단길(홍시궁)
전북 전주시 완산구 경원동3가 210,35.822403,127.14875,2,11517,전주시청 옆
전북 김제시 신풍동 13-230,35.793819,126.903015,2,11543,김제역 앞
전북 전주시 덕진구 송천동2가 1316,35.878639,127.132347,2,11553,에코시티 세병공원
전북 익산시 영등동 832-4,35.959949,126.974243,2,11635,롯데마트 익산점 옆
전북 익산시 모현동1가 876,35.949806,126.939766,2,11653,롯데시네마 익산모현점
전북 군산시 수송동 906 스마일주유소,35.959644,126.710464,2,11733,GS칼텍스 스마일
전북 전주시 덕진구 우아동2가 889,35.831497,127.17041,2,11759,아중중학교 뒤
전북 전주시 덕진구 만성동 1354-6,35.848751,127.077301,2,11765,만성지구 골드클래스 옆
전북 전주시 완산구 효자동3가 1589-6,35.828278,127.097961,2,11767,전주 기전여고 뒤
전북 전주시 완산구 중화산동2가 196-3,35.816608,127.128204,2,11854,우석대 중화산캠퍼스
전북 정읍시 연지동 338-16,35.573799,126.844688,2,11915,정읍버스터미널 옆
전북 전주시 덕진구 우아동3가 752-41 어제처럼모텔,35.848106,127.159416,2,11928,전주역KTX(어제처럼EV)
전북 익산시 영등동 303-7,35.952316,126.971573,2,11940,영등1동 주민센터 옆
전북 전주시 덕진구 금암동 795-3,35.834911,127.127968,2,11968,전주고속버스터미널(전주를그린존)
전북 전주시 덕진구 금암동 522-56,35.836483,127.13623,2,12131,금암초등학교 옆(진미집)
전북 남원시 도통동 594-1,35.416607,127.397667,2,12351,롯데슈퍼 남원점 뒤
전북 군산시 경암동 613-1,35.97871,126.72509,2,12400,군산고속버스터미널 옆
전북 군산시 나운동 124-5,35.963665,126.705521,2,12525,CGV 군산점 옆
전북 남원시 신정동 521-1 남원역,35.412052,127.362343,2,12620,남원역(코레일패키지)
전북 군산시 나운동 98-1,35.964405,126.704178,2,12633,진포초등학교 옆
전북 전주시 덕진구 우아동3가 745-66,35.851139,127.159729,2,12642,전주역KTX(전주를그린존)
전북 군산시 수송동 53-6,35.955868,126.716087,2,12660,롯데렌탈 군산지점(B)
전북 전주시 덕진구 동부대로 885 (호성동1가),35.864971,127.148407,2,12767,호성파출소 옆
전북 군산시 경장동 462-2,35.976292,126.72464,2,5799,군산시외버스터미널 옆
전북 전주시 덕진구 덕진동1가 1276-9,35.843456,127.125,2,5987,덕진광장 사거리C
전북 익산시 신동 328-1 한빛빌딩,35.964993,126.955582,2,7831,원광대학교 앞(한빛빌딩)
전북 익산시 평화동 7,35.936741,126.946915,2,7961,익산역KTX(소풍교회)
전북 군산시 나운동 155 세경아파트,35.961239,126.700981,2,8215,이마트에브리데이 나운동점
전북 완주군 삼례읍 후정리 490,35.911655,127.065475,2,8269,우석대(전주) 문화관C
전북 전주시 덕진구 금암동 1549-13,35.841812,127.135254,2,8287,전북대정문 옆C
전북 전주시 완산구 효자동3가 1716-7,35.814316,127.095169,2,8822,전주대 신정문(코리아빌)C
전북 전주시 완산구 효자동3가 1731-7,35.811943,127.095581,2,8841,전주대 신정문(현준빌)C
전북 전주시 덕진구 인후동1가 807-10 롯데슈퍼,35.835602,127.164604,2,8849,롯데슈퍼 인후점
전북 전주시 완산구 효자동3가 1169-10,35.818127,127.091248,2,8875,전주대 구정문(태양팰리스)C
전북 군산시 미룡동 870-2,35.946884,126.686447,2,8906,군산대사거리 위브A동
전북 전주시 완산구 효자동2가 1317-4,35.809185,127.101967,2,9004,롯데리아 효자서부점
전북 익산시 창인동2가 18-2,35.941845,126.945412,2,9087,익산역KTX(서측광장)
전북 정읍시 연지동 343-1 정읍역,35.574207,126.841827,2,9105,정읍역SRT
전북 익산시 신동 794-13,35.962757,126.955589,2,9492,원광대학교 앞(하늘정원 원룸)
전북 완주군 삼례읍 후정리 490,35.912872,127.068733,2,9872,우석대(전주) 체육관C
제주 제주시 용담삼동 968,33.514923,126.501053,2,10511,제주공항(제주를그린존)A
제주 제주시 이도이동 1183-11,33.498318,126.533257,2,10648,제주시청(헤르츠호텔)
제주 제주시 노형동 3783-4,33.483887,126.480003,2,10915,이마트 신제주점
제주 제주시 노형동 909-2,33.48745,126.484169,2,11931,대춘해장국 노형점 앞
제주 제주시 도남동 922-31,33.495903,126.527725,2,11971,도남오거리
제주 제주시 용담삼동 968,33.514595,126.500656,2,12180,제주공항(제주를그린존)B
제주 제주시 연동 1454,33.480656,126.494888,2,12691,제주 나인몰
제주 제주시 건입동 1442,33.516933,126.526962,2,12732,제주 탑동주차장
제주 제주시 용담이동 1969,33.504143,126.49485,2,12743,제주공항 앞(도보)
제주 제주시 노형동 3792-2,33.482826,126.478355,2,12744,노형삼대국수회관 앞
제주 제주시 용담이동 804,33.507832,126.503891,2,1875,제주공항
제주 제주시 용담이동 804,33.508362,126.503838,2,7678,제주공항(EV)
제주 제주시 연동 2324-6 롯데시티호텔 제주,33.490673,126.486511,2,7709,롯데시티호텔 제주
제주 제주시 연동 302-3,33.488224,126.496201,2,7828,연동 주민센터 앞
제주 서귀포시 색달동 2812-4 호텔롯데제주,33.249409,126.410454,2,8217,롯데호텔 제주
충남 천안시 서북구 쌍용동 1564,36.79248,127.118439,2,10180,쌍용역코오롱하늘채 앞
충남 서산시 예천동 1255-1,36.774364,126.451103,2,10242,서산중앙호수공원
충남 천안시 동남구 대흥동 57-1,36.810146,127.147575,2,10243,천안역 동부광장
충남 당진시 읍내동 889,36.893684,126.637695,2,10259,당진 읍내동 공영주차장
충남 천안시 성환읍 성환리 449-1027,36.915291,127.127388,2,10479,성환역
충남 당진시 수청동 999,36.900684,126.647095,2,10532,당진 G1파크빌
충남 서산시 대산읍 대산리 90-1,36.941895,126.43885,2,10605,서산 한화토탈(생활관)
충남 천안시 동남구 청당동 714,36.785904,127.159035,2,10670,청당동 베스트타워
충남 당진시 읍내동 25-9,36.896717,126.636002,2,10817,KB국민은행 당진점
충남 천안시 서북구 불당동 697,36.810989,127.110313,2,11028,불당동 메트로프라자
충남 공주시 신관동 248-11,36.473621,127.13887,2,11311,메가박스 공주점
충남 당진시 석문면 삼봉리 2241-1,37.003262,126.584236,2,11441,호서대학교 당진캠퍼스
충남 공주시 신관동 276-3,36.474632,127.144737,2,11503,GS슈퍼마켓 공주신관점
충남 서산시 읍내동 481-1,36.783688,126.451157,2,11575,서산시청 앞
충남 아산시 온천동 56-9,36.780964,127.002327,2,11698,온양온천역
충남 천안시 서북구 쌍용동 1178,36.800922,127.131134,2,11831,쌍용동 제1공영주차장
충남 천안시 서북구 쌍용동 434,36.792603,127.122437,2,12136,착한낙지 천안쌍용점
충남 천안시 서북구 성정동 702-12,36.818138,127.135941,2,12169,천안 신동해빌딩
충남 천안시 서북구 불당동 1296,36.80022,127.103699,2,12177,천안G스퀘어
충남 천안시 서북구 불당동 1292,36.799835,127.101128,2,12178,천안펜타포트1블럭 상가점
충남 아산시 배방읍 공수리 60-6,36.774956,127.06337,2,12231,배방농협하나로마트
충남 아산시 배방읍 공수리 261-5,36.77277,127.055084,2,12250,이마트 에브리데이 아산공수점
충남 홍성군 홍성읍 고암리 1042,36.600971,126.676292,2,12306,롯데마트 홍성점
충남 서산시 예천동 508-10,36.773708,126.43898,2,12307,롯데마트 서산점
충남 서산시 대산읍 대로리 89-91,36.967403,126.426453,2,12380,롯데케미칼 사택아파트
충남 천안시 서북구 두정동 91,36.831841,127.149796,2,12548,롯데렌탈 천안지점(B)
충남 천안시 서북구 쌍용동 492-9,36.789352,127.117661,2,12589,쌍용동 안국빌딩
충남 아산시 배방읍 장재리 1767,36.795719,127.107597,2,12661,롯데렌탈 천안아산KTX지점(B)
충남 서산시 석림동 764-2,36.771656,126.459526,2,12662,롯데렌탈 서산지점(B)
충남 아산시 풍기동 229-120,36.773331,127.014397,2,12695,메가마트 아산점
충남 아산시 배방읍 장재리 1747,36.794991,127.10228,2,12768,천안아산역KTX 광장1
충남 천안시 동남구 청당동 547,36.783039,127.156143,2,12769,롯데시네마 천안청당
충남 공주시 금흥동 664,36.476433,127.149117,2,12772,공주 월송퍼스트타워
충남 천안시 동남구 신부동 84-1,36.815083,127.158638,2,12774,롯데슈퍼 신부점
충남 태안군 태안읍 동문리 259-2,36.750011,126.304688,2,12788,태안 동문웨딩홀
충남 공주시 산성동 139-1,36.459175,127.125725,2,12790,공주 보석사우나
충남 천안시 동남구 신부동 966,36.818981,127.152969,2,1831,천안고속버스터미널 옆
충남 천안시 서북구 두정동 899,36.832165,127.133873,2,1840,두정동 먹자골목 사거리
충남 아산시 배방읍 장재리 208,36.791492,127.105637,2,5771,아산역 2번출구
충남 천안시 서북구 두정동 91,36.832115,127.149826,2,6181,롯데렌탈 천안지점
충남 천안시 동남구 안서동 268,36.829784,127.180519,2,7343,호서대학교 천안캠퍼스
충남 아산시 모종동 582-5,36.781139,127.014458,2,8055,아산고속버스터미널 앞
충남 천안시 서북구 성정동 1408,36.827003,127.143463,2,8084,천안성정동(모텔하루)
충남 천안시 서북구 성정동 908,36.820274,127.131805,2,8116,GS칼텍스 서부대로(천안)
충남 천안시 동남구 신방동 49-25,36.789509,127.128624,2,8117,GS칼텍스 우리네(천안)
충남 공주시 신관동 609,36.468487,127.134804,2,8258,공주종합버스터미널
충남 천안시 동남구 안서동 376-6,36.841419,127.179153,2,8276,백석대학교 앞
충남 아산시 신창면 읍내리 582-12,36.773197,126.934464,2,8277,순천향대학교 후문 앞
충남 아산시 배방읍 세출리 241,36.738388,127.076752,2,8348,호서대학교 아산캠퍼스 교육문화관
충남 천안시 동남구 안서동 522,36.834068,127.16777,2,8370,단국대학교 천안캠퍼스
충남 천안시 동남구 병천면 가전리 307,36.767078,127.283356,2,8431,한국기술교육대학교 정문
충남 보령시 내항동 926-3,36.343121,126.585617,2,8752,대천역 L타워 야외주차장
충남 천안시 서북구 두정동 591,36.830666,127.128418,2,8828,롯데슈퍼 두정2점
충남 서산시 해미면 대곡리 392,36.690601,126.577751,2,9113,한서대학교 앞
충남 태안군 태안읍 남문리 701,36.747288,126.302872,2,9115,CU 태안터미널점
충남 아산시 탕정면 갈산리 100,36.799389,127.074905,2,9161,선문대학교 본관 앞
충남 예산시 예산읍 산성리 732,36.69241,126.833298,2,9212,CU 예산산성점
충남 예산군 예산읍 대회리 86-3,36.673195,126.859024,2,9255,공주대학교 예산캠퍼스 앞
충남 아산시 모종동 557-3,36.784397,127.015358,2,9306,아산동양고속버스터미널
충남 천안시 서북구 두정동 1263,36.833923,127.139618,2,9367,GS슈퍼마켓 천안두정점
충남 아산시 배방읍 장재리 1746,36.792915,127.102753,2,9604,천안아산역KTX 광장2
충남 천안시 서북구 불당동 709,36.811119,127.109581,2,9927,불당동 주차빌딩
충남 아산시 배방읍 장재리 1760,36.795673,127.105972,2,9949,이마트 트레이더스 천안아산점
충남 아산시 모종동 555-5,36.784649,127.015938,2,9952,아산시외버스터미널
충남 서산시 동문동 300-5,36.780163,126.462242,2,9989,동문동 공영주차장
충북 제천시 청전동 138-34,37.145004,128.21489,2,10154,맥도날드 제천DT점 뒤
충북 충주시 금름동 730,36.988865,127.927521,2,10196,금릉동 공영주차장
충북 청주시 흥덕구 봉명동 764,36.64267,127.465096,2,10483,GS칼텍스 금성
충북 충주시 연수동 1380,36.986774,127.938309,2,10546,연수초등학교 앞
충북 진천군 진천읍 교성리 산10-11,36.844719,127.43692,2,10604,우석대(진천) 테크노관
충북 청주시 흥덕구 가경동 1416-2,36.626759,127.432175,2,10795,롯데마트 청주점
충북 청주시 상당구 용암동 1605,36.609741,127.502861,2,11031,청주 누리타워
충북 청주시 흥덕구 강서동 486,36.624138,127.427887,2,11233,청주터미널 앞(강서주차장)
충북 충주시 칠금동 631,36.986153,127.922478,2,11306,충주 누리마트
충북 충주시 연수동 1538,36.984154,127.941101,2,11602,연수동 제1공영주차장
충북 충주시 연수동 1466,36.983135,127.938286,2,11672,연수동 제2공영주차장
충북 청주시 흥덕구 비하동 811,36.645435,127.420685,2,11678,롯데마트 서청주점
충북 청주시 상당구 용담동 376,36.631275,127.50589,2,11797,청주 용담주차장
충북 청주시 서원구 성화동 477,36.617737,127.456177,2,11798,GS슈퍼마켓 청주성화점
충북 충주시 봉방동 409,36.975945,127.909706,2,11825,충주역
충북 청주시 흥덕구 가경동 1039,36.627987,127.43071,2,11899,청주 더케이인
충북 제천시 서부동 1167,37.132408,128.200867,2,11986,소도둑 제천점
충북 제천시 명동 3-17,37.136806,128.20929,2,12001,제천 명동사거리
충북 청주시 상당구 방서동 118,36.605522,127.50618,2,12172,하나로클럽 청주점
충북 청주시 청원구 오창읍 양청리 821-2,36.711288,127.427811,2,12350,오창 올리브상가
충북 음성군 맹동면 동성리 501,36.907772,127.541084,2,12481,음성 위너스타워
충북 충주시 호암동 1183,36.953587,127.933441,2,12507,충주 호암시그니처
충북 청주시 서원구 산남동 334-3,36.616009,127.469223,2,12512,청주지방법원 뒤
충북 청주시 흥덕구 복대동 834-8,36.634644,127.45192,2,12551,롯데렌탈 청주지점(B)
충북 충주시 봉방동 169-5,36.975605,127.91153,2,12552,롯데렌탈 충주영업소(B)
충북 청주시 상당구 서운동 91-4,36.628708,127.492958,2,12757,청주 신도주차장
충북 청주시 서원구 산남동 590,36.612225,127.466972,2,12785,청주 남양빌딩
충북 청주시 흥덕구 오송읍 오송리 13-9,36.618832,127.328934,2,2449,오송역KTX(B주차장)
충북 청주시 서원구 분평동 1383,36.607372,127.489357,2,2461,분평주공6단지 옆
충북 청주시 청원구 율량동 883,36.668762,127.487755,2,6049,롯데슈퍼 율량점
충북 진천군 진천읍 교성리 산10-11,36.845341,127.440254,2,6227,우석대(진천) 창조관
충북 청주시 흥덕구 복대동 489-1,36.638245,127.430458,2,7310,롯데슈퍼 복대점(다이소주차장)
충북 제천시 하소동 77,37.140678,128.200516,2,7501,롯데마트 제천점
충북 충주시 칠금동 849,36.981037,127.914459,2,7505,롯데마트 충주점
충북 청주시 흥덕구 오송읍 만수리 887-3,36.621506,127.326309,2,7646,오송역KTX(D주차장)
충북 청주시 상당구 용암동 1703,36.607132,127.502716,2,7959,롯데시네마 청주용암
충북 청주시 청원구 율량동 769,36.670597,127.484116,2,8118,GS칼텍스 동양(청주)
충북 청주시 청원구 오창읍 각리 644-1,36.706375,127.42923,2,8120,GS칼텍스 바이오1(오창단지1)
충북 청주시 서원구 모충동 128-1,36.621872,127.485069,2,8335,서원대학교 후문
충북 충주시 단월동 322,36.951149,127.9048,2,8419,건국대학교 글로컬캠퍼스 정문
충북 제천시 명동 4-16,37.13689,128.208557,2,8611,신한은행 제천점
충북 청주시 흥덕구 가경동 1458-1,36.624378,127.433907,2,9149,청주시외버스터미널 뒤(프라임타워)
충북 청주시 청원구 율량동 1489,36.665062,127.480301,2,9518,율량동(커피컨테이너)
충북 청주시 흥덕구 오송읍 오송리 5-2,36.619507,127.330078,2,9605,오송역KTX(A주차장)
충북 제천시 청전동 165-11,37.145493,128.213593,2,9740,롯데슈퍼 청전점
충북 청주시 서원구 사창동 403-3,36.635918,127.460327,2,9924,사창사거리(명품세차장)
